accuracy,formatted_address,google_place_id,input_string,latitude,longitude,number_of_results,postcode,status,type
ROOFTOP,"1200 Van Ness Ave 3RD FLOOR, San Francisco, CA 94109, USA",EjozUkQgRkxPT1IsIDEyMDAgVmFuIE5lc3MgQXZlLCBTYW4gRnJhbmNpc2NvLCBDQSA5NDEwOSwgVVNBIiUaIwoWChQKEgnXVko0lICFgBGeCJV9l5cD-BIJM1JEIEZMT09S,"1200 VAN NESS AVE, 3RD FLOOR",37.7867765,-122.4213349,1,94109,OK,subpremise
ROOFTOP,"500 California St 2ND  FLOOR, San Francisco, CA 94104, USA",EjsyTkQgIEZMT09SLCA1MDAgQ2FsaWZvcm5pYSBTdCwgU2FuIEZyYW5jaXNjbywgQ0EgOTQxMDQsIFVTQSImGiQKFgoUChIJmSlZQ4qAhYARxuNFB_DIT7ISCjJORCAgRkxPT1I,"500 CALIFORNIA ST, 2ND  FLOOR",37.7931232,-122.4031008,1,94104,OK,subpremise
ROOFTOP,"2801 Leavenworth St, San Francisco, CA 94133, USA",ChIJu2t7buGAhYARabsFEzVXIqw,2801 LEAVENWORTH ST ,37.8070209,-122.4193841,2,94133,OK,premise
ROOFTOP,"3202 Folsom St, San Francisco, CA 94110, USA",ChIJARWKcUV-j4ARfAqXO018-80,3202 FOLSOM ST ,37.7471041,-122.4138313,2,94110,OK,premise
ROOFTOP,"747 Irving St, San Francisco, CA 94122, USA",ChIJE9-qSVyHhYARqRpbrJ9rHlA,747 IRVING ST ,37.763933,-122.4660473,2,94122,OK,street_address
ROOFTOP,"2180 Post St, San Francisco, CA 94115, USA",ChIJr4ki0LeAhYAR6Px5rlocELU,2180 POST ST ,37.7847907,-122.4376589,1,94115,OK,street_address
ROOFTOP,"1799 Church St, San Francisco, CA 94131, USA",ChIJY9tFZGh-j4ARArfV4n60z4k,1799 CHURCH ST ,37.7423043,-122.4263855,2,94131,OK,street_address
ROOFTOP,"91 Drumm St, San Francisco, CA 94111, USA",ChIJO1gyR2GAhYAR-IKV2ZpeDLI,91 DRUMM ST ,37.7944258,-122.396795,1,94111,OK,street_address
GEOMETRIC_CENTER,"Beach St & The Embarcadero, San Francisco, CA 94133, United States",ChIJHSGzi_yAhYARnrPmDWAx9ro,PIER 39  SPACE A3,37.808673,-122.409821,1,94133,OK,"establishment,point_of_interest,premise,shopping_mall"
ROOFTOP,"1800 Irving St, San Francisco, CA 94122, USA",ChIJky__fW-HhYARYrD_TQGh1JE,1800 IRVING ST ,37.7637484,-122.4774545,2,94122,OK,street_address
ROOFTOP,"3248 22nd St, San Francisco, CA 94110, USA",ChIJsfQS4D5-j4AR67FfPj4qTi0,3248 22ND ST ,37.7554792,-122.4197712,1,94110,OK,street_address
ROOFTOP,"2101 S Fillmore St, Little Rock, AR 72204, USA",ChIJF24veYyk0ocRn3pvq3Knx9U,2101 FILLMORE ST ,34.7327885,-92.3367816,7,72204,OK,premise
ROOFTOP,"500 California St 3RD FLOOR, San Francisco, CA 94104, USA",EjozUkQgRkxPT1IsIDUwMCBDYWxpZm9ybmlhIFN0LCBTYW4gRnJhbmNpc2NvLCBDQSA5NDEwNCwgVVNBIiUaIwoWChQKEgmZKVlDioCFgBHG40UH8MhPshIJM1JEIEZMT09S,"500 CALIFORNIA ST, 3RD FLOOR",37.7931232,-122.4031008,1,94104,OK,subpremise
ROOFTOP,"500 California St, San Francisco, CA 94104, USA",ChIJmSlZQ4qAhYARxuNFB_DIT7I,"500 CALIFORNIA ST, BASEMENT",37.7931232,-122.4031008,1,94104,OK,premise
ROOFTOP,"Kendrick Hall, 2199 Fulton St, San Francisco, CA 94117, USA",ChIJXem2JkyHhYARy8F2lUCuCtY,2199 FULTON ST ,37.7748092,-122.4523893,1,94117,OK,premise
ROOFTOP,"2350 Turk St, San Francisco, CA 94118, USA",ChIJ99RhE0uHhYARaPSJY7rXmmA,2350 TURK BLVD ,37.778863,-122.4485051,1,94118,OK,premise
ROOFTOP,"1435 17th St, San Francisco, CA 94107, USA",ChIJEXAeY8x_j4ARdxbNUqjY2Zk,1435 17TH ST ,37.7649508,-122.398402,10,94107,OK,street_address
ROOFTOP,"419 Cortland Ave, San Francisco, CA 94110, USA",ChIJB82iWFl-j4ARM5OVPMqmUJ8,419 CORTLAND AVE ,37.7393226,-122.4174595,1,94110,OK,premise
ROOFTOP,"754 Columbus Ave, San Francisco, CA 94133, USA",ChIJtbqrIvCAhYARLrAnTzv3rP4,754 COLUMBUS AVE ,37.8017638,-122.4120392,2,94133,OK,street_address
ROOFTOP,"779 Clay St, San Francisco, CA 94108, USA",ChIJ1_TsQYuAhYARqnea3EPg6EI,779 CLAY ST ,37.7941708,-122.4059607,1,94108,OK,"establishment,food,point_of_interest,restaurant"
ROOFTOP,"1099 Powell St, San Francisco, CA 94108, USA",ChIJgXnf1_KAhYARpqPdtVgFG-M,1099 POWELL ST ,37.7946498,-122.4099156,2,94108,OK,street_address
ROOFTOP,"542 Mason St, San Francisco, CA 94102, USA",ChIJWTdQfY6AhYARnZE3yG-zwZ4,542A MASON ST ,37.7887427,-122.410026,1,94102,OK,premise
ROOFTOP,"900 Pine St, Philadelphia, PA 19107, USA",ChIJIQ1rIyfGxokRJ5YQ2vhA_4w,900 PINE ST,39.944297,-75.156835,1,19107,OK,street_address
GEOMETRIC_CENTER,"Pier 7, San Francisco, CA 94105, USA",ChIJIaJ44V2AhYARvHLLJC9FK7A,PIER 7 EMBARCADERO,37.7986725,-122.3968247,1,94105,OK,route
ROOFTOP,"431 Bush St, San Francisco, CA 94108, USA",ChIJkWXne4mAhYARUdWfVNQe8d4,431 BUSH ST ,37.7905667,-122.4047035,1,94108,OK,street_address
ROOFTOP,"391 Broadway, New York, NY 10013, USA",ChIJXSxZeIpZwokRz198cMPvGR8,391 BROADWAY ST ,40.7184969,-74.0029971,2,10013,OK,premise
ROOFTOP,"400 McAllister St, San Francisco, CA 94102, USA",ChIJsYmj7JmAhYARZIYaZ9AetTA,400 MCALLISTER ST,37.7805277,-122.4192514,1,94102,OK,premise
ROOFTOP,"300 California St, San Francisco, CA 94104, USA",ChIJjY3_wWGAhYAROXugS3EXKPM,300 CALIFORNIA ST ,37.7934926,-122.4004457,1,94104,OK,premise
ROOFTOP,"2435 California St, San Francisco, CA 94115, USA",ChIJu4X2zseAhYARcNfOuw-YOT0,2435 CALIFORNIA ST ,37.7885472,-122.434559,2,94115,OK,premise
ROOFTOP,"3227 16th St, San Francisco, CA 94103, USA",ChIJu5gNmBh-j4ARGXKYuUupH9w,3227 16TH ST ,37.7646507,-122.4247319,2,94103,OK,street_address
ROOFTOP,"256 Divisadero St, San Francisco, CA 94117, USA",ChIJMRojNa-AhYARrWdjOdDElYo,256 DIVISADERO ST ,37.7715412,-122.4368793,2,94117,OK,street_address
ROOFTOP,"609 Cole St, San Francisco, CA 94117, USA",ChIJy-JftlOHhYARgqQs1rNGjWg,609 COLE ST ,37.7692677,-122.450948,2,94117,OK,street_address
ROOFTOP,"50 Post St 3RD FLOOR, San Francisco, CA 94104, USA",EjMzUkQgRkxPT1IsIDUwIFBvc3QgU3QsIFNhbiBGcmFuY2lzY28sIENBIDk0MTA0LCBVU0EiJRojChYKFAoSCUOAoUqIgIWAERA-0x1JgexqEgkzUkQgRkxPT1I,"50 POST ST, 3RD FLOOR",37.7891638,-122.4029793,1,94104,OK,subpremise
ROOFTOP,"1109 Valencia St, San Francisco, CA 94110, USA",ChIJS4LJ_T5-j4ARvV2kIaFETVU,1109 VALENCIA ST,37.7551228,-122.4208104,1,94110,OK,street_address
ROOFTOP,"San Francisco State University, 750 Font Blvd, San Francisco, CA 94132, USA",ChIJYb_KlK99j4ARyYAISBM7D9Q,"750 FONT, BLDG B BLVD ",37.7232694,-122.4821486,1,94132,OK,"establishment,point_of_interest,university"
,,,299 02ND ST ,,,0,,ZERO_RESULTS,
ROOFTOP,"384 Hayes St, San Francisco, CA 94102, USA",ChIJnSkWlZiAhYARtgJlmaAVFFU,384 B HAYES ST ,37.7771087,-122.4226547,1,94102,OK,street_address
ROOFTOP,"2011 Bayshore Blvd, San Francisco, CA 94124, USA",ChIJu4EpHCd_j4ARPvFHmv3RwkU,2011 BAYSHORE BLVD ,37.7149697,-122.3987871,2,94124,OK,street_address
ROOFTOP,"Bayview Plaza, 3801 3rd St #310, San Francisco, CA 94124, USA",ChIJL6OKUgh_j4ARDamZ47-PzFs,3801 03RD ST 310,37.7415826,-122.3872345,1,94124,OK,"establishment,food,point_of_interest,restaurant"
ROOFTOP,"600 20th St, Wilmette, IL 60091, USA",ChIJ-ZYKKhPFD4gRtQOJhroRE3o,600 20TH ST ,42.0756766,-87.7246113,1,60091,OK,premise
,,,4124 03RD ST ,,,0,,ZERO_RESULTS,
ROOFTOP,"101 Spear St A12, San Francisco, CA 94105, USA",Ei9BMTIsIDEwMSBTcGVhciBTdCwgU2FuIEZyYW5jaXNjbywgQ0EgOTQxMDUsIFVTQSIfGh0KFgoUChIJOfuvU2SAhYARUT5sTWzNj8kSA0ExMg,101 SPEAR ST A12,37.792549,-122.3930995,1,94105,OK,subpremise
ROOFTOP,"400 Cortland Ave, Winter Park, FL 32789, USA",ChIJodHHo-Fv54gRb_-EAtacrb8,400 CORTLAND AVE ,28.6017305,-81.3375994,2,32789,OK,premise
ROOFTOP,"125 Vallejo St, San Francisco, CA 94111, USA",ChIJidALd1-AhYARitcGzNjpEm8,125 VALLEJO ST ,37.7994929,-122.4006006,1,94111,OK,premise
ROOFTOP,"411 Columbus Ave, Lehigh Acres, FL 33972, USA",ChIJdxRZg2x024gR6R3_M3ZLHmk,411 COLUMBUS AVE ,26.616141,-81.5873572,2,33972,OK,premise
ROOFTOP,"576 Union St, Brooklyn, NY 11215, USA",ChIJF1oYEVVawokRgm7Cy-HFYwg,576 UNION ST ,40.6779237,-73.9849542,1,11215,OK,premise
ROOFTOP,"1241 Vicente St, San Francisco, CA 94116, USA",ChIJAQDxVJd9j4ARhX7oBPxH1Jw,1241 VICENTE ST ,37.7389878,-122.4804621,1,94116,OK,street_address
ROOFTOP,"3639 Balboa St, San Francisco, CA 94121, USA",ChIJk-Qj4aWHhYARChlJ8maHT-0,3639 BALBOA ST ,37.7754836,-122.4979775,1,94121,OK,premise
ROOFTOP,"401 Clement St, San Francisco, CA 94118, USA",ChIJlU1S-DuHhYARtbs_B_FgOVQ,401 CLEMENT ST ,37.7828789,-122.4635361,2,94118,OK,street_address
ROOFTOP,"602 Irving St, San Francisco, CA 94122, USA",ChIJBbKqclyHhYARbuQvmdU51_A,602 IRVING ST ,37.7642106,-122.4644127,3,94122,OK,street_address
ROOFTOP,"4488 Mission St, San Francisco, CA 94112, USA",ChIJL7UslYh-j4ARfU9Vf77HCt0,4488 MISSION ST ,37.7260593,-122.4339596,1,94112,OK,street_address
ROOFTOP,"4346 Mission St, San Francisco, CA 94112, USA",ChIJs3HBrYl-j4ARTaJiyJcvcEY,4346 MISSION ST ,37.7281596,-122.4323353,1,94112,OK,premise
ROOFTOP,"2026 Chestnut St, Philadelphia, PA 19103, USA",ChIJfc1lCzfGxokRmqDUGU5cuQI,2026 CHESTNUT ST ,39.9519754,-75.1746365,1,19103,OK,premise
ROOFTOP,"1581 Webster St, San Francisco, CA 94115, USA",ChIJ_-Bz4riAhYARJ1RIzwP149A,1581 WEBSTER ST #206,37.7852049,-122.431588,1,94115,OK,street_address
ROOFTOP,"3137 Laguna St, San Francisco, CA 94123, USA",ChIJZcbmvNuAhYARMZYIocE-YHc,3137 LAGUNA ST ,37.8000834,-122.4313517,1,94123,OK,premise
ROOFTOP,"170 O'Farrell St, San Francisco, CA 94102, USA",ChIJybENNI-AhYAR3nvNiLSbIr4,170 O'FARRELL ST BASEMENT,37.7867986,-122.4073963,1,94102,OK,street_address
ROOFTOP,"1668 Union Ave, Hazlet, NJ 07730, USA",ChIJO3SApHs0wokRlEV6yCOdOA0,1668 UNION ST ,40.430731,-74.1632414,2,7730,OK,premise
ROOFTOP,"1026 Hyde Street, Philadelphia, PA 19125, USA",ChIJH7BUbULIxokROjMm45k4vE0,1026 HYDE ST ,39.968705,-75.1304437,2,19125,OK,street_address
ROOFTOP,"3314 Steiner St, San Francisco, CA 94123, USA",ChIJ37GbLdeAhYAR37pwyOwrYa4,3314 STEINER ST ,37.8000407,-122.4376231,1,94123,OK,premise
ROOFTOP,"707 Ellis St, San Francisco, CA 94109, USA",ChIJI40N0ZCAhYAR5gokUQww8wc,707 ELLIS ST ,37.784052,-122.4179523,1,94109,OK,street_address
ROOFTOP,"101 Eddy St, Fort Bragg, CA 95437, USA",ChIJQRbnI6zKgYARFiT3qXtoSVY,101 EDDY ST ,39.440859,-123.791253,3,95437,OK,street_address
ROOFTOP,"3340 Steiner St, San Francisco, CA 94123, USA",ChIJZ07gMdeAhYARyhFRlYjHp4Y,3340 STEINER ST ,37.8002412,-122.4375457,1,94123,OK,premise
ROOFTOP,"1441 Polk St, San Francisco, CA 94109, USA",ChIJPSNO15SAhYARlFKnOtPSoek,1441 POLK ST ,37.7901411,-122.420917,1,94109,OK,street_address
ROOFTOP,"2380 Lombard St, San Francisco, CA 94123, USA",ChIJkYlZr9aAhYARqWVUTF3cITo,2380 LOMBARD ST ,37.799494,-122.440665,1,94123,OK,premise
ROOFTOP,"2001 Van Ness Ave, San Francisco, CA 94109, USA",ChIJH7p4BeqAhYARwH86RPrr2cg,2001 VAN NESS AVE ,37.7941344,-122.4234748,1,94109,OK,street_address
ROOFTOP,"887 Geary St, San Francisco, CA 94109, USA",ChIJDVhIT5GAhYAR7dLf-Y35RM0,887 GEARY ST ,37.7860353,-122.4177804,2,94109,OK,street_address
ROOFTOP,"2027 Chestnut St, Philadelphia, PA 19103, USA",ChIJCWd_DzfGxokRVGrkqMfTLmA,2027 CHESTNUT ST ,39.9524459,-75.1744281,1,19103,OK,street_address
ROOFTOP,"495 Castro St, San Francisco, CA 94114, USA",ChIJTf-qMBt-j4ARUXCDH8T1kQM,495A CASTRO ST,37.7611202,-122.4347751,2,94114,OK,street_address
ROOFTOP,"2911 Van Ness Ave, San Francisco, CA 94109, USA",ChIJEaLS7N2AhYARiJzMx9Lff0E,2911 VAN NESS AVE ,37.802544,-122.4250015,1,94109,OK,street_address
ROOFTOP,"1045 Polk St, San Francisco, CA 94109, USA",ChIJmQDdI5SAhYAR4b7RLJv-Nf8,1045 POLK ST ,37.786572,-122.4200831,6,94109,OK,street_address
ROOFTOP,"1407 Van Ness Ave, San Francisco, CA 94109, USA",ChIJA4hzEZWAhYARF57fxxuY0L0,1407 VAN NESS AVE ,37.7886916,-122.4222355,2,94109,OK,street_address
ROOFTOP,"2235 Fillmore St, San Francisco, CA 94115, USA",ChIJI4fzFsaAhYARNngdQ38tqgo,2235 FILLMORE ST ,37.790298,-122.4344926,2,94115,OK,premise
ROOFTOP,"1470 Fillmore St, San Francisco, CA 94115, USA",ChIJx0u3nbmAhYARmLaVC_BkJJ4,1470 FILLMORE ST,37.7830578,-122.4325549,1,94115,OK,street_address
ROOFTOP,"1239 9th Ave, San Francisco, CA 94122, USA",ChIJecZ-_VyHhYARvpsltLB6p_0,1239 09TH AVE ,37.7652215,-122.4665439,1,94122,OK,"establishment,food,point_of_interest,restaurant"
ROOFTOP,"2708 San Bruno Ave, San Francisco, CA 94134, USA",ChIJ86De-uJ-j4ARrxR8Cv1zKNs,2708 SAN BRUNO AVE ,37.7274187,-122.4036986,2,94134,OK,street_address
ROOFTOP,"3829 Mission St, San Francisco, CA 94110, USA",ChIJcTdBnGB-j4ARlEV-n5CIQNU,3829 MISSION ST ,37.7356739,-122.4243616,1,94110,OK,premise
ROOFTOP,"3780 Mission St, San Francisco, CA 94110, USA",ChIJQxSFpGB-j4AR17KkGcNtPtw,3780 MISSION ST ,37.7362762,-122.4245828,1,94110,OK,premise
ROOFTOP,"1 Market St, San Francisco, CA 94105, USA",ChIJrRkIGGSAhYARUmBMkCt06yA,1 MARKET ST ,37.7940057,-122.3949618,1,94105,OK,street_address
ROOFTOP,"4919 Mission St, San Francisco, CA 94112, USA",ChIJPW8j34R-j4ARcu942oNJffA,4919 MISSION ST B,37.7195681,-122.4383413,1,94112,OK,premise
,,,55 04TH ST ,,,0,,ZERO_RESULTS,
ROOFTOP,"3301 Lyon St, San Francisco, CA 94123, USA",ChIJN4bDZ9WGhYARsk0pjhDwd1Q,3301 LYON ST ,37.8019913,-122.4486565,1,94123,OK,street_address
ROOFTOP,"865 Market St, San Francisco, CA 94103, USA",ChIJrZxI34WAhYARcySSMXoScFM,865 MARKET ST ,37.7840659,-122.4065571,2,94103,OK,street_address
,,,82 01ST ST ,,,0,,ZERO_RESULTS,
ROOFTOP,"2 Townsend St, San Francisco, CA 94107, USA",ChIJD0166XeAhYARqOESev9o--4,2 TOWNSEND ST ,37.7822907,-122.3888066,1,94107,OK,premise
ROOFTOP,"43 O'Farrell St, San Francisco, CA 94108, USA",ChIJB5IQl4iAhYARXMOIh6BDSMQ,43 O'FARRELL ST,37.7866338,-122.4054323,1,94108,OK,street_address
ROOFTOP,"366 Columbus Ave, New York, NY 10024, USA",ChIJkWfx0I5YwokRQKDO_yEIr4o,366 COLUMBUS AVE ,40.7808627,-73.976552,2,10024,OK,premise
ROOFTOP,"579 Columbus Ave, San Francisco, CA 94133, USA",ChIJf7E7oPGAhYAR5jSa8Ll4sY8,579 COLUMBUS AVE ,37.7999921,-122.4101145,2,94133,OK,premise
ROOFTOP,"113 Sacramento St, San Francisco, CA 94111, USA",ChIJl26uQGGAhYARo2Xa0QXSUHI,113 SACRAMENTO ST ,37.7944941,-122.3968428,2,94111,OK,street_address
ROOFTOP,"301 Arkansas St, Sherman, TX 75090, USA",ChIJ4ftfApViTIYRGpF0cgNa7_Y,301 ARKANSAS ST ,33.6004569,-96.6023039,2,75090,OK,premise
ROOFTOP,"14 Trinity Pl, Staten Island, NY 10310, USA",ChIJzw1-xgpOwokRe9KZaAzG2FY,14 TRINITY PL ,40.6370228,-74.1221838,2,10310,OK,premise
ROOFTOP,"430 Columbus Ave, New York, NY 10024, USA",ChIJ7T7pZI9YwokREnoQ4RYZmGM,430 COLUMBUS AVE ,40.7831934,-73.9750368,2,10024,OK,street_address
ROOFTOP,"566 Columbus Ave, Boston, MA 02118, USA",ChIJpdWN6hZ644kRal-b40kM-uE,566 COLUMBUS AVE ,42.340805,-71.0810221,1,2118,OK,premise
ROOFTOP,"1431 Stockton St, San Francisco, CA 94133, USA",ChIJofb22POAhYARzhXH8K8Wgh0,1431 STOCKTON ST ,37.7989957,-122.4090795,7,94133,OK,street_address
ROOFTOP,"1512 Stockton St, San Francisco, CA 94133, USA",ChIJgYMdZvGAhYAR2ifWKOR5ek8,1512 STOCKTON ST ,37.7997809,-122.4087446,4,94133,OK,premise
ROOFTOP,"729 Vallejo St, San Francisco, CA 94133, USA",ChIJ_WLLz_OAhYAREtPv__pq0to,729 VALLEJO ST ,37.7983636,-122.4093291,1,94133,OK,premise
ROOFTOP,"626 Broadway, New York, NY 10012, USA",ChIJM9lxlY9ZwokR7CgeemLo5uQ,626 BROADWAY ST ,40.7259756,-73.9961719,2,10012,OK,street_address
ROOFTOP,"325 Columbus Ave, Boston, MA 02116, USA",ChIJdaqSXA1644kR_GQ0BqzutG4,325 COLUMBUS AVE ,42.3464366,-71.0749582,2,2116,OK,street_address
ROOFTOP,"519 Columbus Ave, New York, NY 10024, USA",ChIJ2TEP2YRYwokRPM8t8885t9s,519 COLUMBUS AVE ,40.7858585,-73.9723873,2,10024,OK,street_address
ROOFTOP,"1300 Stockton St, San Francisco, CA 94133, USA",ChIJ3R3plfOAhYAR2WPrPpzf2HQ,1300 STOCKTON ST ,37.7977959,-122.408528,3,94133,OK,street_address
ROOFTOP,"529 Broadway St, New Orleans, LA 70118, USA",ChIJQa3hGhmlIIYRoUaA00_21_A,529 BROADWAY ST ,29.9355827,-90.1279947,2,70118,OK,street_address
ROOFTOP,"618 S Broadway, Los Angeles, CA 90014, USA",ChIJbZUarkrGwoARSqAuHUwPYfo,618 BROADWAY ST ,34.045906,-118.2522283,3,90014,OK,premise
ROOFTOP,"347 Columbus Ave, San Francisco, CA 94133, USA",ChIJdzErjfOAhYARVJpIddrJkB0,347 COLUMBUS AVE ,37.7982978,-122.4076365,3,94133,OK,premise
ROOFTOP,"423 Columbus Ave, San Francisco, CA 94133, USA",ChIJ_aCT3fOAhYARLq8zW-0WBzk,423 COLUMBUS AVE ,37.7989568,-122.4086733,3,94133,OK,street_address
ROOFTOP,"503 Columbus Ave, New York, NY 10024, USA",ChIJfchrGIVYwokRc5s2tgZMdvA,503 COLUMBUS AVE ,40.7852237,-73.9727957,1,10024,OK,street_address
ROOFTOP,"555 Columbus Ave, Boston, MA 02118, USA",ChIJ7yhlyBZ644kRtSKKLBZ9DzQ,555 COLUMBUS AVE ,42.3414374,-71.0811382,2,2118,OK,premise
ROOFTOP,"1309 Grant Ave, San Francisco, CA 94133, USA",ChIJ2fus8POAhYARMVkltHQVHW4,1309 GRANT AVE ,37.798981,-122.407447,5,94133,OK,street_address
ROOFTOP,"1322 Grant Ave, San Francisco, CA 94133, USA",ChIJS_1f-POAhYARoY-S_8rJ51k,1322 GRANT AVE ,37.7991997,-122.4071606,1,94133,OK,street_address
ROOFTOP,"470 Green St, San Francisco, CA 94133, USA",ChIJ1wNNVfGAhYARPYn3uli3dwc,470 GREEN ST ,37.7999699,-122.4070642,1,94133,OK,"establishment,food,point_of_interest,restaurant"
ROOFTOP,"Columbus Cafe, 562 Green St, San Francisco, CA 94133, USA",ChIJcedyXfGAhYARLo8LfPtmEUI,562 GREEN ST ,37.7997155,-122.4084128,2,94133,OK,premise
ROOFTOP,"678 Green St, San Francisco, CA 94133, USA",ChIJtTKHm_GAhYARt_2fMlZYOqE,678 GREEN ST ,37.7996339,-122.4102746,1,94133,OK,street_address
ROOFTOP,"1042 Kearny St, San Francisco, CA 94133, USA",ChIJPz1p9vSAhYARvXHVhu6A1zk,1042 KEARNY ST ,37.7977906,-122.4052913,1,94133,OK,premise
ROOFTOP,"1230 Grant Ave, San Francisco, CA 94133, USA",ChIJ5TeZivOAhYARCnK-4ulaF5M,1230 GRANT AVE ,37.79847,-122.4070514,1,94133,OK,street_address
ROOFTOP,"808 Pacific Ave, Manhattan Beach, CA 90266, USA",ChIJp62xN42zwoARp5sleG4hTlo,808 PACIFIC AVE ,33.8841267,-118.4030289,1,90266,OK,premise
ROOFTOP,"1630 Stockton St, San Francisco, CA 94133, USA",ChIJ2RWMEPGAhYARXe0nDBmNCrM,1630 STOCKTON ST ,37.8008786,-122.4089861,4,94133,OK,premise
ROOFTOP,"601 Vallejo St, San Francisco, CA 94133, USA",ChIJ-9419POAhYARjhWVyjMEfYg,601 VALLEJO ST ,37.7986407,-122.4073436,2,94133,OK,street_address
ROOFTOP,"570 Powell St, San Francisco, CA 94108, USA",ChIJGScnIoyAhYARfb5_ThvLzjE,570 POWELL ST,37.7900857,-122.4086704,1,94108,OK,street_address
ROOFTOP,"5301 Mission St, San Francisco, CA 94112, USA",ChIJs6_UQpx-j4AR-nw8TgfNgvs,5301 MISSION ST ,37.7142881,-122.4426101,1,94112,OK,premise
ROOFTOP,"2906 Diamond St, Philadelphia, PA 19121, USA",ChIJw5rInpPHxokRA13435ilULU,2906 DIAMOND ST ,39.987678,-75.181125,2,19121,OK,street_address
RANGE_INTERPOLATED,"1365 Noriega St, San Francisco, CA 94122, USA",Ei0xMzY1IE5vcmllZ2EgU3QsIFNhbiBGcmFuY2lzY28sIENBIDk0MTIyLCBVU0EiGxIZChQKEgmr86WBYoeFgBHqT57q-By27xDVCg,1365 NORIEGA ST ,37.7539776,-122.4783324,1,94122,OK,street_address
ROOFTOP,"2401 Noriega St, San Francisco, CA 94122, USA",ChIJxXenBH-HhYARgLBsuNCAjpY,2401 NORIEGA ST ,37.7534296,-122.4894567,1,94122,OK,street_address
ROOFTOP,"2 New Montgomery St, San Francisco, CA 94105, USA",ChIJfxR3GYiAhYAR24wUfmxepPU,2 NEW MONTGOMERY ST ,37.7884503,-122.4020449,1,94105,OK,street_address
ROOFTOP,"1235 9th Ave, San Francisco, CA 94122, USA",ChIJRXQM4FyHhYAR-OPWGP4JD9Y,1235 09TH AVE ,37.7652564,-122.4667684,1,94122,OK,"establishment,food,health,point_of_interest,restaurant,store"
ROOFTOP,"3251 20th Ave, San Francisco, CA 94132, USA",ChIJP5NLubt9j4AR9_zxLgJGWTg,3251 20TH AVE ,37.7280817,-122.4770808,1,94132,OK,street_address
RANGE_INTERPOLATED,"450 Balboa St, San Francisco, CA 94118, USA",Eis0NTAgQmFsYm9hIFN0LCBTYW4gRnJhbmNpc2NvLCBDQSA5NDExOCwgVVNBIhsSGQoUChIJuTSQU0eHhYAROq7DVSdn8U4QwgM,0450 BALBOA ST ,37.7774133,-122.4637871,1,94118,OK,street_address
ROOFTOP,"3840 Geary Blvd, San Francisco, CA 94118, USA",ChIJP7CHqDmHhYARaY40ik9EFlQ,3840 GEARY BLVD ,37.7814016,-122.4606919,1,94118,OK,street_address
ROOFTOP,"2225 Irving St, San Francisco, CA 94122, USA",ChIJSdu9E3CHhYARjVSf095IF-s,2225 IRVING ST ,37.7632182,-122.4818638,2,94122,OK,street_address
ROOFTOP,"2278 Mission St, San Francisco, CA 94110, USA",ChIJBd_RjTx-j4ARb3Gi5gYpM0c,2278 MISSION ST ,37.7606328,-122.4195958,1,94110,OK,street_address
ROOFTOP,"800 Clement St, San Francisco, CA 94118, USA",ChIJmydYoj2HhYAR0I8Wm-6C8Q8,800 CLEMENT ST ,37.7829633,-122.4678211,2,94118,OK,street_address
,,,315 08TH AVE ,,,0,,ZERO_RESULTS,
ROOFTOP,"3600 Balboa St, San Francisco, CA 94121, USA",ChIJY5ZQCKaHhYARnH6Ws3UdCoA,3600 BALBOA ST ,37.7759059,-122.4975133,1,94121,OK,premise
ROOFTOP,"2252 Clement St, San Francisco, CA 94121, USA",ChIJd_f3oAWHhYARDqfdoyf91ww,2252 CLEMENT ST ,37.7822476,-122.4836513,1,94121,OK,street_address
ROOFTOP,"2228 Irving St, San Francisco, CA 94122, USA",ChIJMzlnFXCHhYARwh7xE59TKAI,2228 IRVING ST ,37.7635104,-122.4820823,1,94122,OK,premise
,,,600 05TH AVE ,,,0,,ZERO_RESULTS,
ROOFTOP,"1815 Market St, San Francisco, CA 94103, USA",ChIJtSJx95-AhYARW8PK5yLPr00,1815 MARKET ST ,37.7712546,-122.4237757,1,94103,OK,street_address
ROOFTOP,"123 2nd St, San Francisco, CA 94105, USA",ChIJrQ9dLX2AhYARiolh2hTx1Ig,123 02ND ST ,37.7877699,-122.3992314,1,94105,OK,"establishment,food,point_of_interest,restaurant"
ROOFTOP,"737 Cortland Ave, San Francisco, CA 94110, USA",ChIJfwQ3mFl-j4ARkJovTrxeGUE,737 CORTLAND AVE ,37.7390756,-122.4149402,1,94110,OK,street_address
ROOFTOP,"811 Ulloa St, San Francisco, CA 94127, USA",ChIJ_54yROp9j4ARqsOfOTzyZnU,811 ULLOA ST ,37.7405918,-122.4654474,1,94127,OK,street_address
ROOFTOP,"1601 Taraval, San Francisco, CA 94116, USA",ChIJq_x21pp9j4ARgr-hpjdWZPg,1601 TARAVAL ST ,37.7425713,-122.4833314,1,94116,OK,premise
ROOFTOP,"1325 Noriega St, San Francisco, CA 94122, USA",ChIJk0tXKoh9j4ARgAJV4qT2Ck4,1325 NORIEGA ST ,37.7540528,-122.4780642,1,94122,OK,street_address
ROOFTOP,"94 Judah St, San Francisco, CA 94122, USA",ChIJdYbNQFmHhYARpdrq97Mfcxc,94 JUDAH ST ,37.7624697,-122.4626799,1,94122,OK,street_address
ROOFTOP,"3107 Clement St, San Francisco, CA 94121, USA",ChIJYWuQ3KmHhYARJOqQFziQgZc,3107 CLEMENT ST ,37.7814745,-122.4926057,1,94121,OK,premise
ROOFTOP,"92 Judah St, San Francisco, CA 94122, USA",ChIJSz4lR1mHhYARW2uosAJBnpA,92 JUDAH ST ,37.7624631,-122.4626151,1,94122,OK,street_address
ROOFTOP,"5712 Mission St, San Francisco, CA 94112, USA",ChIJMZbiKyF8j4ARM_T5X_pQuVc,5712 MISSION ST ,37.7099899,-122.4498312,1,94112,OK,premise
ROOFTOP,"1727 Ocean Ave, Brooklyn, NY 11210, USA",ChIJq3TXdLlEwokR4F1LAlpyEj4,1727 OCEAN AVE ,40.6199059,-73.9550455,1,11210,OK,street_address
ROOFTOP,"1770 Scott St, San Francisco, CA 94115, USA",ChIJgx9AMciAhYARMn-T9zt6vRI,1770 SCOTT ST ,37.7863063,-122.4380316,2,94115,OK,premise
ROOFTOP,"800 Divisadero St, San Francisco, CA 94117, USA",ChIJo3yPNbCAhYARyVT03r6eqkc,800 DIVISADERO ST ,37.7770922,-122.437921,2,94117,OK,street_address
ROOFTOP,"1812 Divisadero St, San Francisco, CA 94115, USA",ChIJEVjnlsmAhYARflxORGQgNt0,1812 DIVISADERO ST ,37.7864695,-122.4399115,2,94115,OK,street_address
ROOFTOP,"1500 Fillmore St, San Francisco, CA 94115, USA",ChIJnYczdbmAhYARMHXfrGuw6Mw,1500 FILLMORE ST ,37.7835633,-122.4324574,3,94115,OK,street_address
ROOFTOP,"1517 Polk St, San Francisco, CA 94109, USA",ChIJfc_1K-uAhYAR9ojuOkcnjbk,1517 POLK ST ,37.7908308,-122.420964,1,94109,OK,street_address
ROOFTOP,"1737 Post St Suite 304, San Francisco, CA 94115, USA",ChIJo0XH17iAhYARQwm9vESn_xc,1737 POST ST 304,37.7850766,-122.4309077,1,94115,OK,"bakery,cafe,establishment,food,meal_takeaway,point_of_interest,restaurant,store"
ROOFTOP,"1825 Post St, San Francisco, CA 94115, USA",ChIJKYWs4riAhYARiFALYy0p_PU,1825 POST ST #223,37.7849417,-122.4320571,1,94115,OK,street_address
ROOFTOP,"3166 Buchanan St, San Francisco, CA 94123, USA",ChIJV7igq9uAhYARPlf2M7_AALM,3166 BUCHANAN ST ,37.7993037,-122.4322957,1,94123,OK,street_address
ROOFTOP,"1418 Lombard St, San Francisco, CA 94123, USA",ChIJPZGZnd2AhYARFVRAnvd76Qc,1418 LOMBARD ST ,37.8014237,-122.4250826,2,94123,OK,street_address
ROOFTOP,"2299 Union St, San Francisco, CA 94123, USA",ChIJqZUjQtCAhYARVfFTDC0QPzA,2299 UNION ST ,37.796804,-122.4369878,1,94123,OK,street_address
ROOFTOP,"55 Cyril Magnin St, San Francisco, CA 94102, USA",ChIJ9WOKYo-AhYARqVPshHzc4Ho,55 CYRIL MAGNIN ST ,37.7849258,-122.4089419,1,94102,OK,premise
ROOFTOP,"717 Ellis St, San Francisco, CA 94109, USA",ChIJL8_705CAhYARnZegqwnJZs4,717 ELLIS ST ,37.7840626,-122.4180949,1,94109,OK,street_address
ROOFTOP,"248 Hyde St, San Francisco, CA 94102, USA",ChIJR9euh5CAhYARcpQKMfqv7r4,248 HYDE ST,37.7833118,-122.415688,1,94102,OK,street_address
ROOFTOP,"2786 California St, San Francisco, CA 94115, USA",ChIJzVeBQsmAhYARN9WK3fyfe6w,2786 CALIFORNIA ST ,37.788331,-122.4402103,1,94115,OK,street_address
RANGE_INTERPOLATED,"69 W Portal Ave, San Francisco, CA 94127, USA",Ei02OSBXIFBvcnRhbCBBdmUsIFNhbiBGcmFuY2lzY28sIENBIDk0MTI3LCBVU0EiGhIYChQKEgkRO1lY6n2PgBEPcr22GnKlzhBF,069 WEST PORTAL AVE ,37.7399489,-122.4663584,1,94127,OK,street_address
ROOFTOP,"865 Market St C45, San Francisco, CA 94103, USA",EjBDNDUsIDg2NSBNYXJrZXQgU3QsIFNhbiBGcmFuY2lzY28sIENBIDk0MTAzLCBVU0EiHxodChYKFAoSCa2cSN-FgIWAEXMkkjF6EnBTEgNDNDU,865 MARKET ST C45,37.7840659,-122.4065571,1,94103,OK,subpremise
ROOFTOP,"88 4th St, Bangor, ME 04401, USA",ChIJwRg330NLrkwRhmQys9RaTKo,88 4TH ST.,44.7989816,-68.7794232,1,4401,OK,street_address
ROOFTOP,"2092 3rd St, San Francisco, CA 94107, USA",ChIJ7zW87sd_j4ARX2ItSywbTo8,2092 03RD ST ,37.7631659,-122.3889828,1,94107,OK,"bar,establishment,food,point_of_interest,restaurant"
ROOFTOP,"405 Terry A Francois Blvd, San Francisco, CA 94158, USA",ChIJ362mLNt_j4ARAlUKVBR8zZA,405 TERRY FRANCOIS BLVD ,37.7726112,-122.3869256,1,94158,OK,premise
RANGE_INTERPOLATED,"429 Terry A Francois Blvd, San Francisco, CA 94158, USA",Ejc0MjkgVGVycnkgQSBGcmFuY29pcyBCbHZkLCBTYW4gRnJhbmNpc2NvLCBDQSA5NDE1OCwgVVNBIhsSGQoUChIJS-rRNtp_j4ARWZr43TM9y9sQrQM,429 TERRY FRANCOIS ST,37.7760911,-122.3871869,1,94158,OK,street_address
ROOFTOP,"136 Missouri Ave, Steamboat Springs, CO 80487, USA",ChIJ4x0sys9oQocRcKx2z0LjFtM,136 MISSOURI ST ,40.4898215,-106.8270099,1,80487,OK,premise
ROOFTOP,"1015 Battery St, San Francisco, CA 94111, USA",ChIJbdbN8PWAhYARfmFtpxOAF10,1015 BATTERY ST ,37.800641,-122.401795,1,94111,OK,street_address
GEOMETRIC_CENTER,"Beach St & The Embarcadero, San Francisco, CA 94133, United States",ChIJHSGzi_yAhYARnrPmDWAx9ro,PIER 39  FRONT,37.808673,-122.409821,1,94133,OK,"establishment,point_of_interest,premise,shopping_mall"
ROOFTOP,"Pier 41, San Francisco, CA 94133, USA",ChIJYdsWwPyAhYARK5mPEGBHOIA,PIER 41,37.809167,-122.411389,1,94133,OK,premise
ROOFTOP,"1400 Leavenworth St, San Francisco, CA 94109, USA",ChIJf_Sy-eyAhYARdY-Fw4Nsnvk,1400 LEAVENWORTH ST ,37.79406,-122.4161542,2,94109,OK,premise
ROOFTOP,"580 Beach St, San Francisco, CA 94133, USA",ChIJa0RuYeGAhYAR8GyHqN3X8xA,580 BEACH ST ,37.8071422,-122.4184334,2,94133,OK,street_address
ROOFTOP,"600 Harrison St, San Francisco, CA 94107, USA",ChIJBRcyAHyAhYARef6U0w4piV8,600 HARRISON ST ,37.7841313,-122.3958947,2,94107,OK,street_address
,,,6202 03RD ST ,,,0,,ZERO_RESULTS,
ROOFTOP,"4609 Mission St, San Francisco, CA 94112, USA",ChIJ__-iUo9-j4ARLzkmCcZcBmg,4609 MISSION ST ,37.724433,-122.4347249,1,94112,OK,street_address
ROOFTOP,"6000 California St, San Francisco, CA 94121, USA",ChIJQTek3QSHhYARIYNFBuFpuTA,6000 CALIFORNIA ST ,37.784212,-122.482038,1,94121,OK,premise
ROOFTOP,"4817 Mission St, San Francisco, CA 94112, USA",ChIJdWpnCYV-j4AR6lqQBHT66UU,4817 MISSION ST ,37.7211451,-122.4371801,1,94112,OK,premise
ROOFTOP,"12 Persia Ave, San Francisco, CA 94112, USA",ChIJHW6wi4V-j4ARpI3mSuaL7dc,12 PERSIA AVE,37.7228387,-122.4356096,1,94112,OK,premise
ROOFTOP,"801 Broadway St, Colton, WA 99113, USA",ChIJI4BFOBAtoFQRcsp-6lrUn3U,801 BROADWAY ST ,46.5681979,-117.1268552,10,99113,OK,premise
ROOFTOP,"373 Columbus Ave, Valhalla, NY 10595, USA",ChIJvX0wbjm-wokRZdaH5MyQ5Yk,373 COLUMBUS AVE ,41.0960738,-73.7794553,2,10595,OK,premise
ROOFTOP,"1454 Grant Ave, San Francisco, CA 94133, USA",ChIJe2GrTvGAhYARhLGc0LtcFbc,1454 GRANT AVE ,37.8004764,-122.4073853,3,94133,OK,street_address
ROOFTOP,"542 Green St, San Francisco, CA 94133, USA",ChIJH_PrRPGAhYARhDRSVxMvBYk,542 GREEN ST ,37.7997992,-122.408079,1,94133,OK,premise
ROOFTOP,"652 Pacific Ave, San Francisco, CA 94133, USA",ChIJr6gGhfSAhYAROtDhmrrfrk4,652 PACIFIC AVE ,37.7970332,-122.4065031,1,94133,OK,street_address
ROOFTOP,"1421 Stockton St, Forest Grove, OR 97116, USA",ChIJTyAhNYcZlVQRCK7C5mro3a0,1421 STOCKTON ST,45.5130115,-123.0968416,5,97116,OK,premise
ROOFTOP,"3621 18th St, San Francisco, CA 94110, USA",ChIJsRPCBhh-j4AR66bTqrN-MQg,3621 18TH ST ,37.761367,-122.424362,1,94110,OK,"establishment,food,point_of_interest,restaurant"
ROOFTOP,"1639 Polk St, San Francisco, CA 94109, USA",ChIJhYn-4eqAhYARNDlvfQoMZKo,1639 POLK ST ,37.792033,-122.4211221,1,94109,OK,street_address
ROOFTOP,"2415 Clement St, San Francisco, CA 94121, USA",ChIJqUWewQWHhYARAS-ZmNrddDk,2415 CLEMENT ST ,37.7818508,-122.4852058,1,94121,OK,street_address
ROOFTOP,"752 Jackson St, San Francisco, CA 94133, USA",ChIJbcVrZ_OAhYARzPQ-WNNrHyM,752 JACKSON ST ,37.79606,-122.40754,2,94133,OK,street_address
ROOFTOP,"919 Kearny St, San Francisco, CA 94133, USA",ChIJE2NywfSAhYARojqo--JTQ7A,919 KEARNY ST ,37.7964791,-122.4053898,1,94133,OK,street_address
ROOFTOP,"300 Clay St, San Francisco, CA 94111, USA",ChIJLTY_UGCAhYARqvWB2GQTfns,1 MARITIME PLAZA  ,37.7955357,-122.3991597,1,94111,OK,"establishment,point_of_interest,real_estate_agency"
ROOFTOP,"854 Washington St, Bath, ME 04530, USA",ChIJCz2PtguFrUwRXCwB_9iy7O8,854 WASHINGTON ST ,43.914655,-69.81693,1,4530,OK,street_address
ROOFTOP,"100 Bush St, San Francisco, CA 94104, USA",ChIJa9VNPmKAhYARIn10rAiDb94,100 BUSH ST #101,37.7915206,-122.399864,1,94104,OK,street_address
ROOFTOP,"420 Castro St, Mountain View, CA 94041, USA",ChIJpzlgCjO3j4ARKdt5t5GiTcI,420 CASTRO ST ,37.3910687,-122.0811393,2,94041,OK,street_address
ROOFTOP,"419 Grant Ave, Geneva, IL 60134, USA",ChIJIxAoGkz9DogRCo3a8CV7NcI,419 GRANT AVE,41.8934204,-88.3195463,1,60134,OK,premise
RANGE_INTERPOLATED,"259 Kearny St, San Francisco, CA 94108, USA",EisyNTkgS2Vhcm55IFN0LCBTYW4gRnJhbmNpc2NvLCBDQSA5NDEwOCwgVVNBIhsSGQoUChIJ-RC2nImAhYAR8b4b_qT7_7UQgwI,0259 KEARNY ST,37.7906139,-122.4042367,1,94108,OK,street_address
ROOFTOP,"740 Market St, San Diego, CA 92101, USA",ChIJaU_xFFlT2YARJAEIvvZ-3wQ,740 MARKET ST ,32.7116476,-117.1576798,2,92101,OK,street_address
ROOFTOP,"218 Stockton St, San Francisco, CA 94108, USA",ChIJtVzu14iAhYARejm1BlYU6NU,218 STOCKTON ST,37.787956,-122.406428,1,94108,OK,street_address
ROOFTOP,"600 Stockton St 4TH FLOOR, San Francisco, CA 94108, USA",Ejg0VEggRkxPT1IsIDYwMCBTdG9ja3RvbiBTdCwgU2FuIEZyYW5jaXNjbywgQ0EgOTQxMDgsIFVTQSIlGiMKFgoUChIJF3EPiYuAhYARhYcRfh1tX-ESCTRUSCBGTE9PUg,600 STOCKTON ST 4TH FLOOR,37.7918754,-122.4070392,1,94108,OK,subpremise
ROOFTOP,"600 Stockton St 8TH FLOOR, San Francisco, CA 94108, USA",Ejg4VEggRkxPT1IsIDYwMCBTdG9ja3RvbiBTdCwgU2FuIEZyYW5jaXNjbywgQ0EgOTQxMDgsIFVTQSIlGiMKFgoUChIJF3EPiYuAhYARhYcRfh1tX-ESCThUSCBGTE9PUg,600 STOCKTON ST 8TH FLOOR,37.7918754,-122.4070392,1,94108,OK,subpremise
ROOFTOP,"878 Valencia St, San Francisco, CA 94110, USA",ChIJnTHfsT1-j4ARE-jgItXOi0Y,878 VALENCIA ST ,37.7588935,-122.4217033,1,94110,OK,street_address
,,,4920 03RD ST ,,,0,,ZERO_RESULTS,
ROOFTOP,"984 Gilman Ave, San Francisco, CA 94124, USA",ChIJFZS_BTt_j4ARKOpewP8fCuQ,984 GILMAN AVE ,37.7180031,-122.3877046,1,94124,OK,street_address
ROOFTOP,"136 Church St, San Francisco, CA 94114, USA",ChIJT4X1Ax5-j4AR9vkFd-XZ5bM,136 CHURCH ST ,37.7687639,-122.4293081,2,94114,OK,street_address
ROOFTOP,"5317 Geary Blvd, San Francisco, CA 94121, USA",ChIJ_TGbIhGHhYARDNpwiGQhNqc,5317-19 GEARY BLVD,37.7802742,-122.4764664,1,94121,OK,premise
ROOFTOP,"1825 Irving St, San Francisco, CA 94122, USA",ChIJr2elg2WHhYARNcEB8zPfy_A,1825 IRVING ST ,37.7634018,-122.4776684,4,94122,OK,street_address
ROOFTOP,"1900 Irving St, San Francisco, CA 94122, USA",ChIJfd2Lhm-HhYARA0fkiIUwsRU,1900 IRVING ST ,37.7637484,-122.4784121,3,94122,OK,premise
ROOFTOP,"2026 Irving St, San Francisco, CA 94122, USA",ChIJR3Mx7m-HhYARPcZaD8MWuhg,2026 IRVING ST ,37.7636478,-122.4798127,1,94122,OK,premise
ROOFTOP,"1396 La Playa St, San Francisco, CA 94122, USA",ChIJDSafnZaHhYARLRh_uO-xFbA,1396 LA PLAYA ST ,37.7604679,-122.5089635,1,94122,OK,premise
ROOFTOP,"2455 Noriega St, San Francisco, CA 94122, USA",ChIJDV-DEX-HhYARziN01C9EgBw,2455 NORIEGA ST ,37.7534107,-122.4902181,1,94122,OK,premise
ROOFTOP,"3050 Taraval, San Francisco, CA 94116, USA",ChIJhSHI8nt9j4AROoeLjeugQHY,3050 TARAVAL ST ,37.742212,-122.499029,1,94116,OK,street_address
ROOFTOP,"3060 Taraval, San Francisco, CA 94116, USA",ChIJnymuknt9j4ARDi_r2YKj-4M,3060 TARAVAL ST ,37.742186,-122.4991729,1,94116,OK,street_address
ROOFTOP,"705 W Jefferson Blvd, Dallas, TX 75208, USA",ChIJY3ASzYmZToYRDhduSsmvvz4,705 \ BLVD ,32.743495,-96.834369,1,75208,OK,"cafe,establishment,food,point_of_interest,restaurant,store"
ROOFTOP,"3274 21st St, San Francisco, CA 94110, USA",ChIJyd-8hD5-j4ARFTm8np-Ypwk,3274 21ST ST ,37.7570987,-122.4206114,1,94110,OK,street_address
ROOFTOP,"3279 22nd St, San Francisco, CA 94110, USA",ChIJkZAk4z5-j4ARyOeKik6GJA0,3279 22ND ST ,37.7551973,-122.4204636,1,94110,OK,"establishment,food,point_of_interest,restaurant"
ROOFTOP,"3392 24th St, San Francisco, CA 94110, USA",ChIJhcvfmkB-j4ARE2Jl-jJsvBg,3392 24TH ST ,37.7522453,-122.4203715,2,94110,OK,street_address
ROOFTOP,"3364 26th St, San Francisco, CA 94110, USA",ChIJo1QTpEZ-j4AR-1oYs0nTdsk,3364 26TH ST ,37.7491953,-122.4174336,2,94110,OK,street_address
ROOFTOP,"3006 Mission St, San Francisco, CA 94110, USA",ChIJFYRLq0Z-j4ARhpyXu8uKQ4c,3006 MISSION ST,37.7488568,-122.4183136,1,94110,OK,street_address
ROOFTOP,"801 Valencia St, San Francisco, CA 94110, USA",ChIJB5B2_jx-j4ARaoxynZXt__8,801 VALENCIA ST ,37.7599994,-122.4212832,2,94110,OK,street_address
ROOFTOP,"2399 Mission St, San Francisco, CA 94110, USA",ChIJCxRbDjx-j4ARPU1whygmPZg,2399 MISSION ST ,37.7588019,-122.4189547,1,94110,OK,street_address
ROOFTOP,"2815 Mission St, San Francisco, CA 94110, USA",ChIJTd_wM0d-j4ARtc-Z4_cNqWc,2815 MISSION ST,37.7519764,-122.4182117,2,94110,OK,premise
ROOFTOP,"248 Divisadero St, San Francisco, CA 94117, USA",ChIJwXwctqiAhYARY_SmGkNyyeo,248 DIVISADERO ST ,37.7711754,-122.4367955,2,94117,OK,street_address
ROOFTOP,"500 Fell St, San Francisco, CA 94102, USA",ChIJ06CwyqOAhYARCyRceH4k9QY,500 FELL ST ,37.7756724,-122.426264,1,94102,OK,premise
ROOFTOP,"803 Fillmore St, San Francisco, CA 94117, USA",ChIJK9Bxw6SAhYARxht0qQGCnFc,803 FILLMORE ST ,37.7769135,-122.4317277,1,94117,OK,premise
ROOFTOP,"553 Haight St, San Francisco, CA 94117, USA",ChIJVzZN6qaAhYAR63jcsDpUGck,553 HAIGHT ST ,37.7718132,-122.4313074,1,94117,OK,premise
ROOFTOP,"1696 Hayes St, San Francisco, CA 94117, USA",ChIJK2_5g7KAhYARr6L-bjQZNxM,1696 HAYES ST ,37.7742647,-122.4442758,1,94117,OK,street_address
ROOFTOP,"1451 Haight St, San Francisco, CA 94117, USA",ChIJB-m2yayAhYARv9rr7F28LRI,1451 HAIGHT ST ,37.7699066,-122.446232,1,94117,OK,premise
ROOFTOP,"2814 19th St, San Francisco, CA 94110, USA",ChIJ___I0jB-j4ARgAaAClz2pl8,2814 19TH ST ,37.7606932,-122.4105613,1,94110,OK,"cafe,establishment,food,point_of_interest,restaurant"
ROOFTOP,"2029 Mission St, San Francisco, CA 94110, USA",ChIJ0Q77cSN-j4ARm4wWo-qhAQU,2029 MISSION ST ,37.7645181,-122.419313,1,94110,OK,street_address
ROOFTOP,"509 Valencia St, San Francisco, CA 94110, USA",ChIJdxgtUCJ-j4ARNTJuOd6t5mA,509 VALENCIA ST ,37.7647253,-122.4216519,1,94110,OK,street_address
ROOFTOP,"333 Market Street, 333 Market St, San Francisco, CA 94105, USA",ChIJyYLQvmOAhYARh9uf-OUvJdU,333 MARKET ST ,37.7915342,-122.3976135,1,94105,OK,premise
ROOFTOP,"590 Washington St, Pembroke, MA 02359, USA",ChIJ6SFGxYmh5IkRKGYHjz2k5VU,590 WASHINGTON ST ,42.0765435,-70.7801093,3,2359,OK,street_address
ROOFTOP,"4094 18th St, San Francisco, CA 94114, USA",ChIJGaqcOht-j4AR2myOc-QVFPs,4094 18TH ST ,37.7610635,-122.4347003,1,94114,OK,street_address
ROOFTOP,"753 Polk St, San Francisco, CA 94109, USA",ChIJf_rAIJeAhYARjMJa_qCSx68,753 POLK ST ,37.783891,-122.419548,2,94109,OK,street_address
ROOFTOP,"1899 Union St, San Francisco, CA 94123, USA",ChIJXZNBUtuAhYARU-npql-zMpU,1899 UNION ST ,37.7976068,-122.4304349,1,94123,OK,street_address
RANGE_INTERPOLATED,"2132 Chestnut St, Philadelphia, PA 19103, USA",Ei0yMTMyIENoZXN0bnV0IFN0LCBQaGlsYWRlbHBoaWEsIFBBIDE5MTAzLCBVU0EiGxIZChQKEgl_M9TAN8bGiREM3pcho7BjwBDUEA,2132 CHESTNUT ST ,39.9521942,-75.1768907,1,19103,OK,street_address
ROOFTOP,"3600 16th St NW, Washington, DC 20010, USA",ChIJMdrOBCPIt4kR3ZI_TVdDqYk,3600 16TH ST ,38.9352213,-77.0368028,1,20010,OK,premise
RANGE_INTERPOLATED,"22 Battery St, San Francisco, CA 94111, USA",EisyMiBCYXR0ZXJ5IFN0LCBTYW4gRnJhbmNpc2NvLCBDQSA5NDExMSwgVVNBIhoSGAoUChIJ6ymxPGKAhYARXbTPJOanlwIQFg,022 BATTERY ST,37.7915762,-122.3994622,1,94111,OK,street_address
ROOFTOP,"555 California St, San Francisco, CA 94104, USA",ChIJ47fYMIqAhYARbgqBaPZoAJ4,555 CALIFORNIA ST ,37.7920903,-122.4036761,1,94104,OK,premise
ROOFTOP,"2500 Geary Blvd, San Francisco, CA 94115, USA",ChIJg_sKZbWAhYARezJCu846l4Y,2500 GEARY BLVD ,37.7828683,-122.4451313,1,94115,OK,street_address
RANGE_INTERPOLATED,"28 Van Ness Ave, San Francisco, CA 94102, USA",Ei0yOCBWYW4gTmVzcyBBdmUsIFNhbiBGcmFuY2lzY28sIENBIDk0MTAyLCBVU0EiGhIYChQKEgl1CaW9noCFgBE8Nqt0arVyGBAc,28 VAN NESS,37.775913,-122.4191487,2,94102,OK,street_address
ROOFTOP,"1475 Polk St, San Francisco, CA 94109, USA",ChIJdVkB1pSAhYAR8bbSc_xfofU,1475 POLK ST ,37.790283,-122.4209327,1,94109,OK,premise
ROOFTOP,"2327 Polk St, San Francisco, CA 94109, USA",ChIJY9yUQOiAhYARAs_of9JmMJ0,2327 POLK ST ,37.7983133,-122.4225918,2,94109,OK,premise
ROOFTOP,"501 Buckingham Way, San Francisco, CA 94132, USA",ChIJ14kEYbt9j4ARuLkcVW-T0kA,501 BUCKINGHAM WAY  ,37.7297335,-122.4790533,1,94132,OK,premise
ROOFTOP,"1793 Church St, San Francisco, CA 94131, USA",ChIJV0tcZmh-j4ARhNz8KlWj05U,1793 CHURCH ST,37.74231,-122.4263969,1,94131,OK,premise
ROOFTOP,"506 Valencia St, San Francisco, CA 94110, USA",ChIJT8W6WiJ-j4ARyYZRIx76B5w,506 VALENCIA ST ,37.7646732,-122.4220303,2,94110,OK,street_address
ROOFTOP,"170 O'Farrell St 1ST FLOOR, San Francisco, CA 94102, USA",EjkxU1QgRkxPT1IsIDE3MCBPJ0ZhcnJlbGwgU3QsIFNhbiBGcmFuY2lzY28sIENBIDk0MTAyLCBVU0EiJRojChYKFAoSCcmxDTSPgIWAEd57zYi0myK-EgkxU1QgRkxPT1I,"170 O'FARRELL ST, 1ST FLOOR",37.7867986,-122.4073963,1,94102,OK,subpremise
ROOFTOP,"1797 Haight St, San Francisco, CA 94117, USA",ChIJQ31MLVKHhYARIMpSKEtSrXc,1797 HAIGHT ST ,37.7692865,-122.4517081,1,94117,OK,street_address
ROOFTOP,"776 Arguello Blvd, San Francisco, CA 94118, USA",ChIJYXBZH0aHhYARaWbs-sOGvFM,776 ARGUELLO BLVD ,37.7757502,-122.4581875,2,94118,OK,street_address
RANGE_INTERPOLATED,"537 Balboa St, San Francisco, CA 94118, USA",Eis1MzcgQmFsYm9hIFN0LCBTYW4gRnJhbmNpc2NvLCBDQSA5NDExOCwgVVNBIhsSGQoUChIJe9V2qECHhYARQOU7u-z40l8QmQQ,0537 BALBOA ST ,37.7770547,-122.4646783,1,94118,OK,street_address
ROOFTOP,"3419 California St, San Francisco, CA 94118, USA",ChIJ-wtTiDOHhYARTbhwjmDizVk,3419 CALIFORNIA ST ,37.7865362,-122.4504615,1,94118,OK,premise
ROOFTOP,"3585 California St, San Francisco, CA 94118, USA",ChIJbYCIVzGHhYARl-Z0KKSpcPs,3585 CALIFORNIA ST ,37.7861918,-122.4528223,1,94118,OK,street_address
ROOFTOP,"3440 Geary Blvd, San Francisco, CA 94118, USA",ChIJWXLbpDeHhYAR_Z-UudkfF-0,3440 GEARY BLVD ,37.7815686,-122.456243,1,94118,OK,street_address
ROOFTOP,"4403 Geary Blvd, San Francisco, CA 94118, USA",ChIJZ7dWYj6HhYARXTIyNa1ViIA,4403 GEARY BLVD ,37.7805995,-122.4665821,1,94118,OK,street_address
ROOFTOP,"5301 Geary Blvd, San Francisco, CA 94121, USA",ChIJ2e-iIxGHhYARyVEDcyHjr_w,5301 GEARY BLVD ,37.7802756,-122.476416,1,94121,OK,street_address
ROOFTOP,"305 Turk St, San Francisco, CA 94102, USA",ChIJa3IXmJqAhYARIp4S-ZnmUew,305 TURK ST ,37.7826686,-122.4142381,1,94102,OK,street_address
ROOFTOP,"2 Henry Adams St, San Francisco, CA 94103, USA",ChIJz4AIqS1-j4ARamTR36dw2aM,2 HENRY ADAMS ST ,37.7690671,-122.4043399,1,94103,OK,premise
ROOFTOP,"3406 18th St N, Arlington, VA 22207, USA",ChIJHaDhqCq0t4kRSJDzNEZ5_Ps,3406 18TH ST ,38.8927125,-77.1027375,1,22207,OK,premise
ROOFTOP,"284 O'Farrell St, San Francisco, CA 94102, USA",ChIJk744D4-AhYARrDvKlBOAWXU,284 O'FARRELL ST ,37.7863884,-122.4094996,1,94102,OK,street_address
ROOFTOP,"1105 Taraval, San Francisco, CA 94116, USA",ChIJF0-QTZB9j4ARX7iQeAojIvk,1105 TARAVAL ST ,37.7427879,-122.4780853,1,94116,OK,street_address
RANGE_INTERPOLATED,"703 Guerrero St, San Francisco, CA 94110, USA",Ei03MDMgR3VlcnJlcm8gU3QsIFNhbiBGcmFuY2lzY28sIENBIDk0MTEwLCBVU0EiGxIZChQKEgl9mUdkPX6PgBGT_9KMY81vZRC_BQ,0703 GUERRERO ST,37.7598693,-122.4233963,1,94110,OK,street_address
ROOFTOP,"2706 Mission St, San Francisco, CA 94110, USA",ChIJF_hEUT9-j4ARSEXmSIHcrmE,2706 MISSION ST,37.7535696,-122.4188197,2,94110,OK,street_address
ROOFTOP,"2416 Market St, San Francisco, CA 94114, USA",ChIJxzC7UwN-j4ARRkXV9s2NEOQ,2416 MARKET ST ,37.7627504,-122.4355986,1,94114,OK,premise
ROOFTOP,"848 Cole St, San Francisco, CA 94117, USA",ChIJyTbvXlSHhYARAEKpUAe_JfE,848 COLE ST ,37.7661366,-122.4497537,1,94117,OK,premise
ROOFTOP,"800 Stanyan St, San Francisco, CA 94117, USA",ChIJNbVgWlGHhYARqUr-qghDQV8,800 STANYAN ST ,37.7672312,-122.4528942,1,94117,OK,street_address
ROOFTOP,"852 Stanyan St, San Francisco, CA 94117, USA",ChIJkVShVFGHhYARWh6a69BXotA,852 STANYAN ST ,37.7666759,-122.4527172,1,94117,OK,premise
ROOFTOP,"744 Irving St, San Francisco, CA 94122, USA",ChIJT3cpTlyHhYARaRoFHzq8P-o,744 IRVING ST ,37.7642884,-122.4660298,2,94122,OK,premise
ROOFTOP,"201 Spear St, San Francisco, CA 94105, USA",ChIJremNPWWAhYARLIJf7kLX9EE,201 SPEAR ST ,37.7912629,-122.3920152,1,94105,OK,premise
ROOFTOP,"3698 17th St, San Francisco, CA 94114, USA",ChIJdZ-ZbBl-j4ARG7GfK3fOpnY,3698 17TH ST ,37.7630936,-122.4284318,1,94114,OK,street_address
ROOFTOP,"149 Noe St, San Francisco, CA 94114, USA",ChIJn1mSch1-j4ARl9V9FoTLIcQ,149 NOE ST ,37.7668036,-122.4330701,1,94114,OK,street_address
ROOFTOP,"3991 17th St, San Francisco, CA 94114, USA",ChIJtVbKVht-j4ARVSva-GqYuDs,3991 A 17TH ST ,37.762326,-122.4348896,2,94114,OK,premise
ROOFTOP,"579 Castro St, San Francisco, CA 94114, USA",ChIJvTi12hp-j4ARM0VsIl1ODtU,579 CASTRO ST ,37.7597022,-122.4347069,2,94114,OK,street_address
ROOFTOP,"699 Valencia St, San Francisco, CA 94110, USA",ChIJl4cTKz1-j4ARsnhYFsq57lc,699 VALENCIA ST ,37.761839,-122.4214821,1,94110,OK,street_address
ROOFTOP,"1071 Valencia St, San Francisco, CA 94110, USA",ChIJh5xO8D5-j4AROtZiJegTOWg,1071 VALENCIA ST ,37.7557945,-122.4206894,1,94110,OK,premise
ROOFTOP,"654 Irving St, Winston-Salem, NC 27103, USA",ChIJpzvHydSvU4gRauv5cbRfuO4,654 IRVING ST ,36.0834945,-80.2725412,2,27103,OK,premise
ROOFTOP,"5450 Geary Blvd, San Francisco, CA 94121, USA",ChIJv9bkVhCHhYARQrzGm_bJeOs,5450 GEARY BLVD ,37.7806176,-122.4780875,1,94121,OK,street_address
ROOFTOP,"2210 Fillmore St, San Francisco, CA 94115, USA",ChIJZWj-QMaAhYAR0olM5jXjq1I,2210 FILLMORE ST ,37.7901344,-122.4338655,2,94115,OK,street_address
ROOFTOP,"1514 Union St, Boone, IA 50036, USA",ChIJUbOLCQHb7YcRvcYYbLMca5w,1514 UNION ST ,42.0552733,-93.8690199,1,50036,OK,street_address
ROOFTOP,"1399 Church St, San Francisco, CA 94131, USA",ChIJZ-kF_mp-j4ARz0dHxq_JJSI,1399 CHURCH ST,37.7486499,-122.4269718,2,94131,OK,premise
ROOFTOP,"3263 Mission St, San Francisco, CA 94110, USA",ChIJCTIiF0N-j4ARtL7-jkX9E4A,3263 MISSION ST ,37.7445471,-122.4203022,1,94110,OK,street_address
ROOFTOP,"691 Chenery St, San Francisco, CA 94131, USA",ChIJRYUhnmR-j4ARCd_5owvrneE,691 CHENERY ST ,37.7344121,-122.4337293,1,94131,OK,street_address
ROOFTOP,"4117 19th St NE, Washington, DC 20018, USA",ChIJPZOP2pfHt4kRwXLjqX8kHjg,4117 19TH ST ,38.9402706,-76.97801,3,20018,OK,premise
ROOFTOP,"1307 9th Ave, San Francisco, CA 94122, USA",ChIJAdhBS1yHhYARSuqV8n6TdnQ,1307 09TH AVE ,37.7637982,-122.4665817,2,94122,OK,"cafe,establishment,food,point_of_interest,store"
ROOFTOP,"1574 California St, San Francisco, CA 94109, USA",ChIJ3zluzJSAhYARcK6ufUb-hYQ,1574 CALIFORNIA ST ,37.7908834,-122.4202168,2,94109,OK,street_address
ROOFTOP,"100 Carl St, San Francisco, CA 94117, USA",ChIJg3tUQ1SHhYARPe3_qWXkHb0,100 CARL ST ,37.7659141,-122.4502137,2,94117,OK,street_address
ROOFTOP,"639 Clement St, San Francisco, CA 94118, USA",ChIJI0QiSjyHhYARZ4D_wY7c9yc,639 CLEMENT ST ,37.7827162,-122.4661801,3,94118,OK,street_address
ROOFTOP,"156 Eddy St, San Francisco, CA 94102, USA",ChIJaaDufoWAhYARCwjtIQOUkak,156 EDDY ST ,37.784383,-122.4101584,1,94102,OK,street_address
ROOFTOP,"495 Castro St #200, Mountain View, CA 94041, USA",ChIJ8V1uqjO3j4AReB-xVFH1vM8,495 CASTRO ST B,37.3900949,-122.0808851,1,94041,OK,"establishment,health,point_of_interest"
ROOFTOP,"2275 Market St, San Francisco, CA 94114, USA",ChIJfVdLZhx-j4ARixflNJ7fttk,2275 MARKET ST ,37.76456,-122.4320153,7,94114,OK,premise
ROOFTOP,"2878 24th St, San Francisco, CA 94110, USA",ChIJWy5PHUl-j4ARCfQV-ERNT-s,2878 24TH ST ,37.7529321,-122.4098932,1,94110,OK,premise
ROOFTOP,"1750 Divisadero St, San Francisco, CA 94115, USA",ChIJK1_q6smAhYARRVyAmCtvXw0,1750 DIVISADERO ST ,37.7860476,-122.439779,2,94115,OK,premise
ROOFTOP,"4499 Mission St, San Francisco, CA 94112, USA",ChIJR4lh6Ih-j4AR_GLC5fgM7D0,4499 MISSION ST ,37.7262428,-122.4333428,1,94112,OK,street_address
ROOFTOP,"2475 Grand Ave, San Diego, CA 92109, USA",ChIJIUAhgcsB3IARlcVva7cPv9Q,2475A MISSION  ,32.7995664,-117.2238659,2,92109,OK,"establishment,point_of_interest,school"
ROOFTOP,"701 Battery St, San Francisco, CA 94111, USA",ChIJFdNA9F-AhYARbqh5CVKROE8,701 BATTERY ST ,37.7977294,-122.4011316,1,94111,OK,premise
ROOFTOP,"2852 Diamond St, San Francisco, CA 94131, USA",ChIJjUNAXGN-j4ARrYwPNA0Ph7Q,2852 DIAMOND ST ,37.733828,-122.4342246,1,94131,OK,street_address
ROOFTOP,"5546 Geary Blvd, San Francisco, CA 94121, USA",ChIJ2xy7RxCHhYARqlZ0LDerAfg,5546 GEARY BLVD ,37.7805944,-122.4792302,1,94121,OK,premise
ROOFTOP,"131 Gough St, San Francisco, CA 94102, USA",ChIJuduEap-AhYARhACWSbB9_wY,131 GOUGH ST ,37.7746121,-122.4228131,1,94102,OK,premise
ROOFTOP,"721 Irving St, Denver, CO 80204, USA",ChIJgc4ZxVV_bIcRwRttDQkvieQ,721 IRVING ST,39.7281875,-105.0302861,2,80204,OK,premise
ROOFTOP,"3150 S 22nd St, Milwaukee, WI 53215, USA",ChIJr2qauLAQBYgRz2nATnnrfts,3150 22ND ST ,42.9872914,-87.9420775,3,53215,OK,premise
RANGE_INTERPOLATED,"5455 Geary Blvd, San Francisco, CA 94121, USA",Ei01NDU1IEdlYXJ5IEJsdmQsIFNhbiBGcmFuY2lzY28sIENBIDk0MTIxLCBVU0EiGxIZChQKEgnVJT9VEIeFgBGikdszwVECIhDPKg,5455 GEARY BLVD ,37.7800958,-122.4781462,1,94121,OK,street_address
ROOFTOP,"4476 Mission St, San Francisco, CA 94112, USA",ChIJr3BWk4h-j4AR6dsAQDLCwCA,4476A MISSION  ,37.7262286,-122.4339728,1,94112,OK,premise
ROOFTOP,"22 Peace Plz, San Francisco, CA 94115, USA",ChIJDzWL0L6AhYAR_lMVYEDJ4t0,22 PEACE PLAZA  275,37.7852847,-122.429177,1,94115,OK,street_address
ROOFTOP,"3872 24th St, San Francisco, CA 94114, USA",ChIJJ-HDmhR-j4ARwCSxsNbVGJs,3872 24TH ST ,37.7517675,-122.4291839,1,94114,OK,premise
ROOFTOP,"1560 Van Ness Ave, San Francisco, CA 94109, USA",ChIJw7D3MpWAhYARYxFiZRiJbzI,1560 VAN NESS AVE ,37.7901782,-122.4219093,3,94109,OK,street_address
ROOFTOP,"1525 Folsom St, San Francisco, CA 94103, USA",ChIJvXV2tSd-j4ARxWWnpOP8c08,1525 FOLSOM ST ,37.7714442,-122.4142295,4,94103,OK,premise
ROOFTOP,"1708 Laguna St, San Francisco, CA 94115, USA",ChIJy4XeFb-AhYARac8ToY_S24Y,1708 LAGUNA ST ,37.786994,-122.4282357,2,94115,OK,street_address
ROOFTOP,"5927 California St, San Francisco, CA 94121, USA",ChIJLadXKAWHhYAR0hoDM_itp_k,5927 CALIFORNIA ST ,37.783949,-122.4812365,1,94121,OK,street_address
ROOFTOP,"1765 California St, San Francisco, CA 94109, USA",ChIJUf8qTZWAhYARMhvvi9K16wU,1765 CALIFORNIA ST ,37.7899512,-122.4231006,3,94109,OK,premise
ROOFTOP,"550 North Point St, San Francisco, CA 94133, USA",ChIJgfpTj-OAhYARuLPqU5JPAx8,550 NORTH POINT ST ,37.8066304,-122.4164197,1,94133,OK,premise
ROOFTOP,"450 Irwin St, San Francisco, CA 94107, USA",ChIJbyusnc1_j4ARDaFVZZOhx3c,450 IRWIN ST ,37.7682359,-122.3984493,1,94107,OK,street_address
ROOFTOP,"675 Portola Dr, San Francisco, CA 94127, USA",ChIJnURpMud9j4ARNgdn_RrUr4o,675 PORTOLA DR ,37.7446552,-122.4527004,1,94127,OK,street_address
,,,101 02ND ST 150,,,0,,ZERO_RESULTS,
ROOFTOP,"Ferry Building, One San Francisco Bay Trail, San Francisco, CA 94111, USA",ChIJu1XQjGaAhYAR966C7JnAu5w,1 FERRY BUILDING  C3,37.7955703,-122.3933208,1,94111,OK,premise
ROOFTOP,"757 Market St, San Francisco, CA 94103, USA",ChIJaZ6Hg4iAhYARxTsHnDFJ9zE,757 MARKET ST BASE.,37.7863499,-122.4042632,1,94103,OK,"establishment,lodging,point_of_interest,spa"
ROOFTOP,"359 Grant Ave, Leechburg, PA 15656, USA",ChIJG22wHuG6NIgRwrXCz2NtSzU,359 GRANT AVE,40.6275909,-79.601383,2,15656,OK,premise
ROOFTOP,"1226 W Taylor St, Chicago, IL 60607, USA",ChIJRwwmdOIsDogRY3hWFvR5yDY,FOOT OF TAYLOR ST #7,41.8695658,-87.6579065,1,60607,OK,"doctor,establishment,health,point_of_interest"
ROOFTOP,"543 Divisadero St, San Francisco, CA 94117, USA",ChIJL2MKta-AhYARkiKI4nx4nNk,543 DIVISADERO ST ,37.7746475,-122.4379432,2,94117,OK,premise
ROOFTOP,"199 Fremont Street, 199 Fremont St, San Francisco, CA 94105, USA",ChIJ4wQKu2SAhYARCKlIa8xgsKo,199 FREMONT ST ,37.7898733,-122.3947812,1,94105,OK,premise
ROOFTOP,"2500 Washington St, Boston, MA 02119, USA",ChIJGyA-8C9644kRiHYIjJqW3T8,2500 WASHINGTON ST ,42.3280571,-71.0862683,2,2119,OK,street_address
,,,301 05TH ST ,,,0,,ZERO_RESULTS,
ROOFTOP,"490 Brannan St, San Francisco, CA 94107, USA",ChIJMxdo8NV_j4ARsHBe31wjnEA,490 BRANNAN ST ,37.7786321,-122.3965957,1,94107,OK,premise
ROOFTOP,"150 Stockton St, San Francisco, CA 94108, USA",ChIJE7mow4iAhYARqNnc0VuooSk,"150 STOCKTON ST, GROUND FLOOR",37.7873324,-122.4061984,1,94108,OK,premise
ROOFTOP,"916 Kearny St, San Francisco, CA 94133, USA",ChIJi3o-w_SAhYARJIpD1kPqiI0,916 KEARNY ST ,37.7965324,-122.4050258,1,94133,OK,premise
ROOFTOP,"270 Potrero Ave, San Francisco, CA 94103, USA",ChIJmapf_TF-j4AR725wBr0qLyM,270 POTRERO AVE ,37.7661103,-122.4078529,1,94103,OK,street_address
ROOFTOP,"235 Powell St, San Francisco, CA 94102, USA",ChIJdWKMIo-AhYARABi6ZubIXrw,235 POWELL ST ,37.7869367,-122.4085073,2,94102,OK,street_address
ROOFTOP,"1 Cosmo Pl, Kings Park, NY 11754, USA",ChIJW4dlzQE76IkRFejgrIRco7U,1 COSMO PL ,40.8830718,-73.2324185,3,11754,OK,premise
ROOFTOP,"715 Bush St, San Francisco, CA 94108, USA",ChIJIS_kJYyAhYARfVsk82cutlA,715 BUSH ST ,37.7899452,-122.409141,1,94108,OK,premise
ROOFTOP,"700 Bush St, San Francisco, CA 94108, USA",ChIJb_GFOoyAhYARGqZUFLkQPFs,700 BUSH ST ,37.7903112,-122.4089665,2,94108,OK,street_address
ROOFTOP,"350 Bay St, San Francisco, CA 94133, USA",ChIJd-QvM_uAhYARJNxI7UDVhzs,350 BAY ST ,37.8059124,-122.4127881,2,94133,OK,street_address
ROOFTOP,"1740 Buchanan St, San Francisco, CA 94115, USA",ChIJs2hRLb-AhYARrRq-yPFB2LA,1740 BUCHANAN ST ,37.786186,-122.4297148,3,94115,OK,premise
ROOFTOP,"901 Columbus Ave, San Francisco, CA 94133, USA",ChIJeUBiaOWAhYARgWwdnqLQQiw,901 COLUMBUS AVE ,37.8028328,-122.4141211,1,94133,OK,street_address
ROOFTOP,"Four World Trade Center, 150 Greenwich St, New York, NY 10007, USA",ChIJe7Mk-hlawokRnGaSltLXLOg,150 GREENWICH ST ,40.7102889,-74.0122901,1,10007,OK,premise
ROOFTOP,"1226 W Taylor St, Chicago, IL 60607, USA",ChIJRwwmdOIsDogRY3hWFvR5yDY, FOOT OF TAYLOR ST 5,41.8695658,-87.6579065,1,60607,OK,"doctor,establishment,health,point_of_interest"
ROOFTOP,"39 Sutter St, San Francisco, CA 94104, USA",ChIJ1cC8eWKAhYARUF09vCm3iHM,39 SUTTER ST ,37.7900624,-122.4012006,1,94104,OK,street_address
ROOFTOP,"3295 22nd St, San Francisco, CA 94110, USA",ChIJpQ_u_D5-j4ARUB1FO-yCFLU,3295 22ND ST ,37.7551616,-122.4206894,1,94110,OK,street_address
ROOFTOP,"601 Kearny St, San Francisco, CA 94108, USA",ChIJk3GxBYuAhYAR_SCSO9diiws,601 KEARNY ST,37.7936534,-122.4047986,2,94108,OK,street_address
ROOFTOP,"941 Cole St, San Francisco, CA 94117, USA",ChIJi0rNU1SHhYAR8PI-LLe7-lA,941 COLE ST ,37.7652951,-122.4501297,1,94117,OK,premise
ROOFTOP,"86 Carl St, San Francisco, CA 94117, USA",ChIJzXmbWFSHhYARY6wVwP7Izww,86 CARL ST ,37.7659667,-122.4496661,1,94117,OK,street_address
ROOFTOP,"800 Sutter St, San Francisco, CA 94109, USA",ChIJu9s2F5KAhYART-FBRZQGPfQ,800 SUTTER ST ,37.7887929,-122.4138368,1,94109,OK,street_address
ROOFTOP,"951 Geneva Ave, San Francisco, CA 94112, USA",ChIJSdgwcpt-j4ARwPULDIf9ieg,951 GENEVA AVE ,37.7161281,-122.4400198,1,94112,OK,street_address
ROOFTOP,"4015 24th St, San Francisco, CA 94114, USA",ChIJtZdnARN-j4ARXx5f4aIPxBE,4015 24TH ST ,37.751211,-122.4323249,1,94114,OK,premise
ROOFTOP,"426 Brannan St, San Francisco, CA 94107, USA",ChIJ5aKuqXiAhYARzPJEVSbliaY,426 BRANNAN ST ,37.7796611,-122.3952459,1,94107,OK,premise
ROOFTOP,"455 Market St, San Francisco, CA 94105, USA",ChIJj2verGOAhYAREwAaearIehI,455 MARKET ST ,37.7907919,-122.3984543,1,94105,OK,premise
ROOFTOP,"27 Drumm St, San Francisco, CA 94111, USA",ChIJn1a8RGGAhYARJtq4tv0pa2Q,27 DRUMM ST ,37.7939886,-122.3967727,1,94111,OK,premise
ROOFTOP,"617 Clement St, San Francisco, CA 94118, USA",ChIJpb6ENzyHhYARsxKzUfE2ElU,617 CLEMENT ST ,37.7826888,-122.4658529,2,94118,OK,premise
ROOFTOP,"800 S Van Ness Ave #806, San Francisco, CA 94110, USA",ChIJ6ZJDlzt-j4ARd417zFxZQpk,800-806 SOUTH VAN NESS AVE ,37.7601989,-122.4172793,1,94110,OK,subpremise
ROOFTOP,"4109 24th St, San Francisco, CA 94114, USA",ChIJ51d-YxJ-j4ARO6g1-4wLhDY,4109 24TH ST ,37.7510891,-122.4345369,1,94114,OK,premise
ROOFTOP,"39-17 24th St, Long Island City, NY 11101, USA",ChIJ6bHAa9NYwokRNtpJrdOdUck,3917 24TH ST ,40.754598,-73.937706,1,11101,OK,street_address
ROOFTOP,"3100 Mission St, San Francisco, CA 94110, USA",ChIJ28tv90N-j4AR5jzyHq-hG38,3100 MISSION ST ,37.7478717,-122.4186366,2,94110,OK,street_address
ROOFTOP,"770 Stanyan St, San Francisco, CA 94117, USA",ChIJFUgBZ1GHhYARco8DJ1HKqdw,770 STANYAN ST ,37.7678869,-122.4528942,1,94117,OK,premise
ROOFTOP,"698 Haight St, San Francisco, CA 94117, USA",ChIJpZH8caaAhYARKepdbewTSXg,698 HAIGHT ST ,37.7718083,-122.4336327,1,94117,OK,street_address
ROOFTOP,"1551 Church St, Philadelphia, PA 19124, USA",ChIJ0YZ6wUC2xokR5NJAP4iGb5M,1551 CHURCH ST,40.011296,-75.0890626,5,19124,OK,street_address
ROOFTOP,"201 3rd St, San Francisco, CA 94103, USA",ChIJb5ZvEo-AhYAR8CB87NumvRw,201 03RD ST ,37.784829,-122.399965,1,94103,OK,"cafe,establishment,food,point_of_interest,store"
ROOFTOP,"865 Market St C24, San Francisco, CA 94103, USA",EjBDMjQsIDg2NSBNYXJrZXQgU3QsIFNhbiBGcmFuY2lzY28sIENBIDk0MTAzLCBVU0EiHxodChYKFAoSCa2cSN-FgIWAEXMkkjF6EnBTEgNDMjQ,865 MARKET ST C24,37.7840659,-122.4065571,1,94103,OK,subpremise
ROOFTOP,"340 Bayshore Blvd, San Francisco, CA 94124, USA",ChIJL9BHDlR-j4ARGhcgOEgyg1k,340 BAYSHORE BLVD ,37.7423314,-122.4061541,2,94124,OK,premise
ROOFTOP,"732 22nd St, Newport News, VA 23607, USA",ChIJkwrMEaqduokRugZFO4Tomk8,732 22ND ST ,36.981277,-76.4148975,1,23607,OK,premise
ROOFTOP,"100 Spear St, San Francisco, CA 94105, USA",ChIJNQPtW2SAhYARMy_kZ3I_M0w,100 SPEAR ST 140,37.7922008,-122.394051,2,94105,OK,premise
ROOFTOP,"101 Spear St, San Francisco, CA 94105, USA",ChIJOfuvU2SAhYARUT5sTWzNj8k,101 SPEAR ST ,37.792549,-122.3930995,1,94105,OK,premise
ROOFTOP,"670 Jackson St, Buford, GA 30518, USA",ChIJ4bfNreGT9YgRU0dZs7MqR94,670 JACKSON ST ,34.1157467,-84.0146148,2,30518,OK,premise
ROOFTOP,"505 Washington St, Boston, MA 02111, USA",ChIJ6yS40oJw44kRPsRA4vefQTY,505 WASHINGTON ST ,42.3544534,-71.061761,1,2111,OK,street_address
ROOFTOP,"40 Belden Pl, San Francisco, CA 94104, USA",ChIJe6jLKYqAhYARo93csV77YsM,40 BELDEN PL ,37.7913234,-122.4036484,1,94104,OK,street_address
ROOFTOP,"2600 McAllister St, San Francisco, CA 94118, USA",ChIJX-6qKUmHhYARxD0_hMukET0,2600 MCALLISTER ST ,37.7758539,-122.4550614,1,94118,OK,premise
ROOFTOP,"118 W Portal Ave, San Francisco, CA 94127, USA",ChIJdaqP6-p9j4ARdXOdQIbgG8k,118 WEST PORTAL AVE ,37.7395334,-122.4675022,1,94127,OK,street_address
RANGE_INTERPOLATED,"50 W Portal Ave, San Francisco, CA 94127, USA",Ei01MCBXIFBvcnRhbCBBdmUsIFNhbiBGcmFuY2lzY28sIENBIDk0MTI3LCBVU0EiGhIYChQKEgkPJBFY6n2PgBG0PXA5UvxZ8BAy,050 WEST PORTAL AVE ,37.7404005,-122.4666363,1,94127,OK,street_address
ROOFTOP,"1245 Noriega St, San Francisco, CA 94122, USA",ChIJM80x14l9j4AR_zKjbpFYnfA,1245 NORIEGA ST ,37.7540463,-122.4773176,1,94122,OK,premise
RANGE_INTERPOLATED,"225 Stockton St, San Francisco, CA 94108, USA",Ei0yMjUgU3RvY2t0b24gU3QsIFNhbiBGcmFuY2lzY28sIENBIDk0MTA4LCBVU0EiGxIZChQKEgknz5IpiYCFgBFV0RVbD6QiJBDhAQ,225 STOCKTON ST,37.7879915,-122.4066911,1,94108,OK,street_address
ROOFTOP,"3940 Judah St, San Francisco, CA 94122, USA",ChIJB5A4SZeHhYARM9wc13Bybtc,3940 JUDAH ST ,37.760631,-122.5044543,1,94122,OK,street_address
ROOFTOP,"1800 Sutter St, San Francisco, CA 94115, USA",ChIJJb--y7iAhYARkCLuOVW8dzw,1800 SUTTER ST ,37.7866599,-122.4302707,2,94115,OK,street_address
ROOFTOP,"4285 Mission St, San Francisco, CA 94112, USA",ChIJTWMikYl-j4ARXkOd_GHGpuQ,4285 MISSION ST ,37.7289105,-122.4307323,1,94112,OK,premise
ROOFTOP,"3126 24th St, San Francisco, CA 94110, USA",ChIJm4d_sEd-j4ARqvKjL0M1vqw,3126 24TH ST ,37.7525601,-122.4147157,1,94110,OK,street_address
ROOFTOP,"771 O'Farrell St, San Francisco, CA 94109, USA",ChIJC4t1JJGAhYARGxewK4Sfoos,771 O'FARRELL ST ,37.7850227,-122.4172825,1,94109,OK,premise
ROOFTOP,"696 Geary St, San Francisco, CA 94102, USA",ChIJX_Wzl5GAhYARkdqPfLPPwys,696 GEARY ST ,37.786744,-122.414711,2,94102,OK,street_address
ROOFTOP,"136 McAllister St, San Francisco, CA 94102, USA",ChIJ37Op4ZqAhYAR5OTHtSZllwE,136 MCALLISTER ST,37.7809425,-122.414372,2,94102,OK,street_address
ROOFTOP,"2800 Leavenworth St, San Francisco, CA 94133, USA",ChIJHz_wYuGAhYARm7t-5TcmYJE,2800 LEAVENWORTH ST,37.8070667,-122.4187489,1,94133,OK,street_address
ROOFTOP,"1412 Polk St, San Francisco, CA 94109, USA",ChIJtdCWw5SAhYARMNr4W3eM1EI,1412 POLK ST ,37.789921,-122.420448,2,94109,OK,street_address
ROOFTOP,"1915 Fillmore St, San Francisco, CA 94115, USA",ChIJv0YJk8eAhYARs6oKEUwqM3w,1915 FILLMORE ST ,37.7875252,-122.4338291,2,94115,OK,premise
ROOFTOP,"1199 Sutter St, San Francisco, CA 94109, USA",ChIJ9Q6OapSAhYARD4xPeE19sIM,1199 SUTTER ST ,37.7876577,-122.4199536,1,94109,OK,street_address
ROOFTOP,"1661 Divisadero St, San Francisco, CA 94115, USA",ChIJ3YoM5MmAhYARZZKANsFgcuQ,1661 DIVISADERO ST,37.7851227,-122.4400781,2,94115,OK,street_address
ROOFTOP,"1800 Fillmore St, San Francisco, CA 94115, USA",ChIJcTDlE8aAhYARRblrrlKIrjA,1800 FILLMORE ST ,37.786249,-122.4331212,1,94115,OK,street_address
ROOFTOP,"1809 Union St, Indianapolis, IN 46225, USA",ChIJjQPKhhJaa4gRIje8kHHaHWs,1809 UNION ST ,39.742698,-86.157134,1,46225,OK,street_address
ROOFTOP,"150 Executive Park Blvd # 2000, San Francisco, CA 94134, USA",ChIJ6SY-_S5_j4ARmNAPoowlIa0,150 EXECUTIVE PARK BLVD 2000,37.7110114,-122.393378,1,94134,OK,"establishment,food,point_of_interest"
ROOFTOP,"3117 Clement St, San Francisco, CA 94121, USA",ChIJR8_O3KmHhYARagEnTItu8ek,3117 CLEMENT ST ,37.7814847,-122.4927107,2,94121,OK,street_address
ROOFTOP,"3049 20th St, San Francisco, CA 94110, USA",ChIJe0KJajd-j4AR_KlqGB-MGyA,3049 20TH ST ,37.7589457,-122.4114619,1,94110,OK,"cafe,establishment,food,point_of_interest,restaurant"
ROOFTOP,"5609 Mission St, San Francisco, CA 94112, USA",ChIJfcIUAZ5-j4ARpdTWqBmSRCQ,5609 MISSION ST ,37.7111418,-122.4464805,1,94112,OK,premise
ROOFTOP,"2872 24th St, San Francisco, CA 94110, USA",ChIJn8cjHUl-j4ARyGcNV7dQdB4,2872 24TH ST ,37.7529593,-122.4098047,2,94110,OK,premise
ROOFTOP,"1000 Harrison St, Lynchburg, VA 24504, USA",ChIJrVsCUXLZsokR87NMqtrLDXM,1000 HARRISON ST ,37.4114727,-79.1458793,3,24504,OK,premise
ROOFTOP,"5145 Mission St, San Francisco, CA 94112, USA",ChIJf6K2Zpt-j4ARcXrNdKLyz9o,5145 MISSION ST ,37.7165704,-122.4408037,1,94112,OK,street_address
ROOFTOP,"6439 California St, San Francisco, CA 94121, USA",ChIJx7v2oQaHhYARzSoY7w5U7V4,6439 CALIFORNIA ST ,37.7836135,-122.4867912,1,94121,OK,premise
ROOFTOP,"634 Cortland Ave, San Francisco, CA 94110, USA",ChIJkytbn1l-j4ARiewR8wyZA-E,634 CORTLAND AVE ,37.7388553,-122.4152815,1,94110,OK,street_address
ROOFTOP,"601 Sutter St, San Francisco, CA 94102, USA",ChIJvVRQeo6AhYARpGep1IP9WWU,601 SUTTER ST ,37.7887993,-122.4105023,5,94102,OK,street_address
ROOFTOP,"55 4th St, San Francisco, CA 94103, USA",ChIJWwUKN4aAhYARJAtF0QRpelk,55 4TH ST,37.7851477,-122.404502,1,94103,OK,street_address
ROOFTOP,"1152 Taylor St, San Francisco, CA 94108, USA",ChIJ1xzPqvKAhYAR45mX6MIsUbM,1152 TAYLOR ST ,37.7932017,-122.4126124,1,94108,OK,street_address
RANGE_INTERPOLATED,"745 Columbus Ave, New York, NY 10025, USA",Eik3NDUgQ29sdW1idXMgQXZlLCBOZXcgWW9yaywgTlkgMTAwMjUsIFVTQSIbEhkKFAoSCUFSm28n9sKJEdyplj1XCoiaEOkF,745 COLUMBUS AVE ,40.793093,-73.9673806,3,10025,OK,street_address
ROOFTOP,"44 Belden Pl, San Francisco, CA 94104, USA",ChIJzcKfKYqAhYARPlNfTganACU,44 BELDEN PL ,37.7913234,-122.4036484,1,94104,OK,street_address
ROOFTOP,"217 Kearny St, San Francisco, CA 94108, USA",ChIJqQVunomAhYAReqvGwWKB10Y,217 KEARNY ST,37.7901889,-122.4041106,1,94108,OK,street_address
ROOFTOP,"22 Belden Pl, San Francisco, CA 94104, USA",ChIJsSrqh4mAhYARAmK65guW3Bs,22 BELDEN PL ,37.7911616,-122.4036097,1,94104,OK,premise
ROOFTOP,"1315 Powell St, San Francisco, CA 94133, USA",ChIJS_1FUfKAhYARTUXcUnMFgHY,1315 POWELL ST ,37.7966805,-122.4103247,4,94133,OK,premise
ROOFTOP,"15 Romolo Pl, San Francisco, CA 94133, USA",ChIJ38Y7cPSAhYARK4X4MtByjSs,15 ROMOLO PL ,37.7981672,-122.4063811,1,94133,OK,street_address
ROOFTOP,"950 Battery St, San Francisco, CA 94111, USA",ChIJ1X_OYF-AhYAR5N3KgfbuSS0,950 BATTERY ST ,37.8002483,-122.4011095,1,94111,OK,premise
ROOFTOP,"2330 Taylor St, San Francisco, CA 94133, USA",ChIJK9TxGuWAhYARPTMI0B6cC3M,2330 TAYLOR ST ,37.8040101,-122.4147162,7,94133,OK,premise
ROOFTOP,"218 Montgomery St, San Francisco, CA 94104, USA",ChIJf1BT8ImAhYAR2Fa9cA-xt2Q,218 MONTGOMERY ST ,37.7911897,-122.4023016,4,94104,OK,street_address
ROOFTOP,"348 Pine St, San Francisco, CA 94104, USA",ChIJAXbeA4qAhYARJKoy_O2tD0U,348 PINE ST ,37.7921001,-122.4018752,1,94104,OK,"establishment,food,meal_takeaway,point_of_interest,restaurant,store"
ROOFTOP,"343 Sansome St, San Francisco, CA 94104, USA",ChIJ2bGJeYqAhYARXmwhA0PBi4c,343 SANSOME ST ,37.7937073,-122.4016848,1,94104,OK,premise
ROOFTOP,"333 Bush Street, 333 Bush St, San Francisco, CA 94104, USA",ChIJmym8k4mAhYARnClJbrDbV5E,333 BUSH ST #103,37.7906431,-122.4030566,1,94104,OK,premise
ROOFTOP,"28 Belden Pl, San Francisco, CA 94104, USA",ChIJ4xvyh4mAhYARzn1OeCKD03w,28 BELDEN PL ,37.7912126,-122.4036409,1,94104,OK,street_address
ROOFTOP,"2640 Sloat Blvd, San Francisco, CA 94116, USA",ChIJ332BInB9j4AR1FjDTAMRwBQ,2640 SLOAT BLVD ,37.7357077,-122.5027964,1,94116,OK,premise
ROOFTOP,"316 Clement St, San Francisco, CA 94118, USA",ChIJm0FK7zuHhYAR5YJ47dnY-Xg,316 CLEMENT ST ,37.7832238,-122.4626639,1,94118,OK,street_address
ROOFTOP,"3434 Balboa St, San Francisco, CA 94121, USA",ChIJPatKP6aHhYARBv6difC1C4U,3434 BALBOA ST ,37.7759717,-122.4958222,1,94121,OK,premise
ROOFTOP,"4124 Geary Blvd, San Francisco, CA 94118, USA",ChIJsdRNSzmHhYARPFAaV7Uji7g,4124 GEARY BLVD ,37.7813099,-122.4636859,1,94118,OK,premise
ROOFTOP,"1345 Noriega St, San Francisco, CA 94122, USA",ChIJ1UvZKYh9j4ARPSvJGYoGuw0,1345 NORIEGA ST ,37.7539205,-122.4782813,1,94122,OK,street_address
ROOFTOP,"1735 Taraval, San Francisco, CA 94116, USA",ChIJLxSjyoR9j4ARMYVAyeCG9Yw,1735 TARAVAL ST ,37.7424784,-122.4849011,1,94116,OK,premise
ROOFTOP,"901 Clement St, San Francisco, CA 94118, USA",ChIJQ2PahT2HhYARtlfOvMajeZY,901 CLEMENT ST ,37.7826029,-122.4688638,1,94118,OK,street_address
ROOFTOP,"300 34th Ave N, St. Petersburg, FL 33704, USA",ChIJLwCLMkPhwogRPrngxqOokjc,300 34TH AVE ,27.8027441,-82.6373925,4,33704,OK,premise
ROOFTOP,"1799 Fulton St, Brooklyn, NY 11233, USA",ChIJ-SsL9XBcwokRmyMU1isjMD4,1799 FULTON ST ,40.6793543,-73.9272678,1,11233,OK,premise
ROOFTOP,"2115 Irving St, San Francisco, CA 94122, USA",ChIJxwViAnCHhYAR-eUA5PAWyaw,2115 IRVING ST ,37.7632867,-122.4807328,2,94122,OK,street_address
ROOFTOP,"1015 Irving St, San Francisco, CA 94122, USA",ChIJ_VGOhF2HhYAROKErrPFvqgY,1015 IRVING ST ,37.7636534,-122.468816,4,94122,OK,premise
ROOFTOP,"4142 Geary Blvd, San Francisco, CA 94118, USA",ChIJF_hDtD6HhYARhIk0A5gG5-g,4142 GEARY BLVD ,37.7812292,-122.4639487,1,94118,OK,street_address
ROOFTOP,"74 New Montgomery St, San Francisco, CA 94105, USA",ChIJZ74jqmKAhYARmlJQ9EV4pb4,74 NEW MONTGOMERY ST ,37.7874649,-122.4012865,1,94105,OK,premise
ROOFTOP,"627 Irving St, San Francisco, CA 94122, USA",ChIJiwbvE1yHhYARCKFThLkyABI,627 IRVING ST ,37.7639763,-122.4647473,1,94122,OK,premise
ROOFTOP,"840 Ulloa St, San Francisco, CA 94127, USA",ChIJ6_pbSep9j4ARTMOetYJ10Bk,840 ULLOA ST ,37.740951,-122.465413,1,94127,OK,street_address
ROOFTOP,"2001 Taraval, San Francisco, CA 94116, USA",ChIJxxZHR4N9j4AR3CfdkhqDtH8,2001 TARAVAL ST ,37.742399,-122.487683,1,94116,OK,street_address
ROOFTOP,"2222 Irving St, San Francisco, CA 94122, USA",ChIJgVMpPnCHhYARrQ-j7lGImRE,2222 IRVING ST ,37.7635417,-122.4818611,2,94122,OK,street_address
ROOFTOP,"1283 9th Ave, San Francisco, CA 94122, USA",ChIJ93MU4FyHhYARNsN1cMElpgo,1283 09TH AVE ,37.7644541,-122.4666407,1,94122,OK,"establishment,food,point_of_interest,restaurant"
RANGE_INTERPOLATED,"33 W Portal Ave, San Francisco, CA 94127, USA",Ei0zMyBXIFBvcnRhbCBBdmUsIFNhbiBGcmFuY2lzY28sIENBIDk0MTI3LCBVU0EiGhIYChQKEgkRO1lY6n2PgBEPcr22GnKlzhAh,033 WEST PORTAL AVE ,37.740344,-122.4659467,1,94127,OK,street_address
ROOFTOP,"4031 Balboa St, San Francisco, CA 94121, USA",ChIJ-yfK9a-HhYARP-gfKaVFEbA,4031 BALBOA ST ,37.7753208,-122.502107,1,94121,OK,street_address
ROOFTOP,"2126 Irving St, San Francisco, CA 94122, USA",ChIJQ-9OHHCHhYARaYpyMzj-Km8,2126 IRVING ST ,37.7635704,-122.4808069,1,94122,OK,street_address
ROOFTOP,"4150 Geary Blvd, San Francisco, CA 94118, USA",ChIJEVSptj6HhYARnMRH3h5KUYs,4150 GEARY BLVD ,37.7812481,-122.4641281,1,94118,OK,premise
ROOFTOP,"2110 Clement St, San Francisco, CA 94121, USA",ChIJtYiTQQWHhYAR3YBVpb9rhx8,2110 CLEMENT ST ,37.7824026,-122.4819938,1,94121,OK,premise
ROOFTOP,"309 Clement St, San Francisco, CA 94118, USA",ChIJ7Tyh4TuHhYARdYpz0QD1nCk,309 CLEMENT ST ,37.7828176,-122.462536,1,94118,OK,premise
ROOFTOP,"3308 Balboa St, San Francisco, CA 94121, USA",ChIJn903saeHhYARoqdxZI3twJM,3308 BALBOA ST ,37.7760555,-122.4943742,1,94121,OK,premise
ROOFTOP,"2200 Clement St, San Francisco, CA 94121, USA",ChIJtX8wDQWHhYARtgPmTKdCNsA,2200 CLEMENT ST ,37.7823768,-122.4829224,1,94121,OK,premise
ROOFTOP,"8 Presidio Terrace, San Francisco, CA 94118, USA",ChIJtbH6HyWHhYARge99jBZTs2M,8 PRESIDIO TERR ,37.7891923,-122.4607448,1,94118,OK,premise
ROOFTOP,"4621 Lincoln Way, San Francisco, CA 94122, USA",ChIJiUZOHpaHhYARlfABhVV-57A,4621 LINCOLN WAY ,37.7639107,-122.5078141,1,94122,OK,premise
ROOFTOP,"5130 Mission St, San Francisco, CA 94112, USA",ChIJWy9Nn5x-j4AR3Rv1E9Z755c,5130 MISSION ST ,37.7164925,-122.4414378,1,94112,OK,premise
ROOFTOP,"5210 Mission St, San Francisco, CA 94112, USA",ChIJPYpnjpx-j4ARwlmJ2wOre_0,5210 MISSION ST ,37.7155766,-122.4420239,1,94112,OK,premise
ROOFTOP,"3251 20th Ave #250H, San Francisco, CA 94132, USA",EjEyNTBILCAzMjUxIDIwdGggQXZlLCBTYW4gRnJhbmNpc2NvLCBDQSA5NDEzMiwgVVNBIiAaHgoWChQKEgk_k0u5u32PgBH3_PEuAkZZOBIEMjUwSA,3251 20TH AVE 250H,37.7280817,-122.4770808,1,94132,OK,subpremise
ROOFTOP,"434 N Broadway St, Cassopolis, MI 49031, USA",ChIJX1K1NU0hF4gR9bRBFhnzl14,434 BROADWAY ST ,41.9186083,-86.0119203,3,49031,OK,street_address
GEOMETRIC_CENTER,"Beach St & The Embarcadero, San Francisco, CA 94133, United States",ChIJHSGzi_yAhYARnrPmDWAx9ro,PIER 39  BUILDING B  SPACE 1-3,37.808673,-122.409821,1,94133,OK,"establishment,point_of_interest,premise,shopping_mall"
ROOFTOP,"1730 Fillmore St, Fairfield, CA 94533, USA",ChIJyS5gjtIVhYARepeUE_HmYxU,1730 FILLMORE ST ,38.261106,-122.0359989,3,94533,OK,premise
ROOFTOP,"2016 Fillmore St, San Francisco, CA 94115, USA",ChIJ96R-u8eAhYAR4vMQIOq-Cv8,2016 FILLMORE ST ,37.7882506,-122.4335324,1,94115,OK,street_address
ROOFTOP,"1870 Sacramento St, San Francisco, CA 94109, USA",ChIJOQZOnOqAhYARjDB6_v4h9AE,1870 SACRAMENTO ST ,37.7914217,-122.4237643,1,94109,OK,premise
ROOFTOP,"1570 Sutter St, San Francisco, CA 94109, USA",ChIJy2b1r7-AhYARZJ09Y-ptgHk,1570 SUTTER ST ,37.787234,-122.4263082,3,94109,OK,premise
ROOFTOP,"1590 Sutter St, San Francisco, CA 94109, USA",ChIJI0Dlpb-AhYARu6aFwROIr-w,1590 SUTTER ST ,37.7872013,-122.4265958,1,94109,OK,premise
ROOFTOP,"1581 Webster St, San Francisco, CA 94115, USA",ChIJ_-Bz4riAhYARJ1RIzwP149A,1581 WEBSTER ST ,37.7852049,-122.431588,1,94115,OK,street_address
ROOFTOP,"2244 Fillmore St, San Francisco, CA 94115, USA",ChIJeScWa8aAhYAR65FijYSKXLg,2244 FILLMORE ST ,37.790485,-122.434006,1,94115,OK,premise
ROOFTOP,"1329 Columbus Ave, San Francisco, CA 94133, USA",ChIJKeHtQ-GAhYARSDdGW88dE1A,1329 COLUMBUS AVE ,37.8064727,-122.4193398,1,94133,OK,street_address
ROOFTOP,"1312 Chestnut St, Knoxville, TN 37920, USA",ChIJnXtNiQQYXIgRdkYzyem5TSc,1312 CHESTNUT ST ,35.9294418,-83.9238273,2,37920,OK,premise
ROOFTOP,"1509 Hyde St, San Francisco, CA 94109, USA",ChIJZyG-jeuAhYARrD1V5ZDfGCc,1509 HYDE ST ,37.7946703,-122.4183444,1,94109,OK,premise
ROOFTOP,"1521 Hyde St, San Francisco, CA 94109, USA",ChIJ57UOiuuAhYARz7B-nIp9ghc,1521 HYDE ST ,37.7947938,-122.4183665,1,94109,OK,premise
ROOFTOP,"1919 Hyde St, San Francisco, CA 94109, USA",ChIJ85LT2eiAhYARVlA6L-_uA5s,1919 HYDE ST ,37.7985431,-122.4191567,1,94109,OK,street_address
ROOFTOP,"2000 Hyde St, San Francisco, CA 94109, USA",ChIJw3RZyOiAhYARiO86Bpshedg,2000 HYDE ST ,37.7993433,-122.4189027,1,94109,OK,street_address
ROOFTOP,"2162 Larkin St, San Francisco, CA 94109, USA",ChIJ7emWHemAhYARW8AWoWvqHo4,2162 LARKIN ST ,37.797979,-122.4202912,1,94109,OK,premise
ROOFTOP,"1662 Lombard St, San Francisco, CA 94123, USA",ChIJXQtsbtyAhYARPaa-XTlR40E,1662 LOMBARD ST ,37.8009437,-122.4289185,2,94123,OK,premise
ROOFTOP,"1910 Lombard St, San Francisco, CA 94123, USA",ChIJm7GuMdqAhYARo_WeyO2H5n0,1910 LOMBARD ST ,37.8003809,-122.4330772,2,94123,OK,street_address
ROOFTOP,"1730 Polk St, San Francisco, CA 94109, USA",ChIJRSBBAeuAhYARl9Wzvi7oKLU,1730 POLK ST ,37.7928391,-122.4209106,1,94109,OK,premise
ROOFTOP,"2141 Polk St, San Francisco, CA 94109, USA",ChIJD13ju-mAhYARvfDh5gQ6HAo,2141 POLK ST ,37.7965658,-122.4222137,2,94109,OK,street_address
ROOFTOP,"2163 Polk St, San Francisco, CA 94109, USA",ChIJf137uumAhYAReI1VGM86-jo,2163 POLK ST,37.7967581,-122.4220885,1,94109,OK,street_address
ROOFTOP,"2139 Polk St, San Francisco, CA 94109, USA",ChIJma5CvOmAhYAR4_3-p023_BM,2139C POLK ST ,37.7964959,-122.4221902,1,94109,OK,street_address
ROOFTOP,"691 Eddy St, San Francisco, CA 94109, USA",ChIJeaq5SZeAhYAR_StLH_asnr4,691 EDDY ST ,37.7829768,-122.418944,1,94109,OK,premise
ROOFTOP,"1 Hallidie Plaza, San Francisco, CA 94102, USA",ChIJ2UcMk4WAhYARuXA_3xLTuy0,1 HALLIDIE PLAZA  ,37.7841745,-122.4087694,1,94102,OK,street_address
RANGE_INTERPOLATED,"553 Geary St, Concord, NC 28027, USA",EiQ1NTMgR2VhcnkgU3QsIENvbmNvcmQsIE5DIDI4MDI3LCBVU0EiGxIZChQKEgmnkSfwPANUiBGoQrE8lEw-fRCpBA,553 GEARY ST ,35.4044137,-80.7524567,3,28027,OK,street_address
ROOFTOP,"601 Geary St, San Francisco, CA 94102, USA",ChIJ5Sz52pGAhYAR1raOybzuDp8,601 GEARY ST ,37.7866218,-122.4132912,2,94102,OK,street_address
ROOFTOP,"607 Geary St, San Francisco, CA 94102, USA",ChIJNczX2pGAhYARmU9d2hfrA8M,607 GEARY ST ,37.786598,-122.4134209,2,94102,OK,street_address
ROOFTOP,"808 Geary St, San Francisco, CA 94109, USA",ChIJhzTwaJGAhYARPAI4z8vc0mM,808 GEARY ST ,37.7865005,-122.4167737,2,94109,OK,premise
ROOFTOP,"869 Geary Blvd, San Francisco, CA 94109, USA",ChIJlzhBRpGAhYAR6dCLvCpUqF0,869 GEARY ST,37.7860068,-122.4175364,2,94109,OK,street_address
ROOFTOP,"955 Larkin St, San Francisco, CA 94109, USA",ChIJwyHfAJSAhYARcHGvrNl5tWY,955 LARKIN ST ,37.7868749,-122.4185214,2,94109,OK,premise
ROOFTOP,"605 Post St, San Francisco, CA 94109, USA",ChIJj6M_F46AhYART02MMOt6f4I,605 POST ST ,37.7877279,-122.4118686,2,94109,OK,street_address
ROOFTOP,"1700 California St, San Francisco, CA 94109, USA",ChIJ9brBsOqAhYARM_eYqIdnKhk,1700 CALIFORNIA ST ,37.7905449,-122.4230291,1,94109,OK,"establishment,point_of_interest"
ROOFTOP,"2075 Chestnut St, San Francisco, CA 94123, USA",ChIJKRFiMNeAhYARSLJEk56m3DU,2075 CHESTNUT ST ,37.8004445,-122.4373687,1,94123,OK,premise
ROOFTOP,"2142 Chestnut St, San Francisco, CA 94123, USA",ChIJt-ba3daAhYAR_enIOvQ7gUQ,2142 CHESTNUT ST ,37.8006316,-122.4386647,2,94123,OK,street_address
,,,62 02ND ST ,,,0,,ZERO_RESULTS,
,,,198 05TH ST ,,,0,,ZERO_RESULTS,
ROOFTOP,"180 Howard St, San Francisco, CA 94105, USA",ChIJccL2_GSAhYAREV2vmzCrQsY,180 HOWARD ST ,37.7909253,-122.3932155,2,94105,OK,street_address
ROOFTOP,"100 W Portal Ave, San Francisco, CA 94127, USA",ChIJ_ZOX7up9j4ARkbQymGJMHTw,100 WEST PORTAL AVE ,37.7397003,-122.4673386,1,94127,OK,street_address
ROOFTOP,"441 Clement St, San Francisco, CA 94118, USA",ChIJixLkBTyHhYARUUqYGm9KjZ8,441 CLEMENT ST ,37.7828495,-122.4640645,1,94118,OK,street_address
,,,570 04TH ST ,,,0,,ZERO_RESULTS,
,,,2526 03RD ST ,,,0,,ZERO_RESULTS,
ROOFTOP,"300 Connecticut St, Hollywood, FL 33019, USA",ChIJlTeqYCOr2YgRQe8Qq25sCQo,300 CONNECTICUT ST ,26.0224244,-80.1152874,2,33019,OK,street_address
ROOFTOP,"2161 Powell St, San Francisco, CA 94133, USA",ChIJczBbxfqAhYARcmc9rnGa7CE,2161 POWELL ST ,37.8047813,-122.4119055,1,94133,OK,street_address
ROOFTOP,"1701 Stockton St, San Francisco, CA 94133, USA",ChIJD_6d_vCAhYARZrcIyX1NJ_I,1701 STOCKTON ST ,37.8015323,-122.4095835,4,94133,OK,"establishment,point_of_interest,premise"
ROOFTOP,"1722 Sacramento St, San Francisco, CA 94109, USA",ChIJgR7h3uqAhYARg5of2-X-JGQ,1722 SACRAMENTO ST ,37.7915485,-122.421442,2,94109,OK,street_address
ROOFTOP,"4617 Mission St, San Francisco, CA 94112, USA",ChIJ1XZeUo9-j4ARe6tOe-FgLYk,4617 MISSION ST ,37.7243457,-122.4348164,1,94112,OK,premise
ROOFTOP,"960 Grant St, Denver, CO 80203, USA",ChIJv0EQU9Z-bIcR1BvOjRxJAEU,960 GRANT AVE ,39.7312616,-104.9831985,1,80203,OK,premise
ROOFTOP,"99 Jackson St, San Francisco, CA 94111, USA",ChIJvZVtj2CAhYARHROo0FbsJwk,99 JACKSON ST ,37.7969712,-122.3981209,2,94111,OK,street_address
ROOFTOP,"765 Jackson St, St Paul, MN 55117, USA",ChIJQUKsJ1bVslIRZ4F_UzipduM,765 JACKSON ST ,44.9643798,-93.0982432,1,55117,OK,premise
ROOFTOP,"505 Montgomery Street, 505 Montgomery St, San Francisco, CA 94111, USA",ChIJzyLa9oqAhYARfZI9g7Lo-X4,505 MONTGOMERY ST ,37.7939112,-122.4033221,1,94111,OK,premise
ROOFTOP,"660 Sacramento St, San Francisco, CA 94111, USA",ChIJffyh_oqAhYARrPHuFM1C8DI,660 SACRAMENTO ST ,37.793807,-122.4039637,2,94111,OK,premise
ROOFTOP,"1068 Stockton St, San Francisco, CA 94108, USA",ChIJmd6oQ_OAhYARnu_boxh9kos,1068 STOCKTON ST ,37.7956819,-122.4080348,3,94108,OK,premise
ROOFTOP,"834 Washington St, Evanston, IL 60202, USA",ChIJb6TZyj3QD4gRFUhzKXl6ytI,834 WASHINGTON ST ,42.0325042,-87.6838838,1,60202,OK,street_address
ROOFTOP,"18 California St, Rockville Centre, NY 11570, USA",ChIJ17mMqpB8wokR5TZ9QJY3mq0,18 CALIFORNIA ST,40.673953,-73.6239785,3,11570,OK,premise
ROOFTOP,"7 Claude Ln, San Francisco, CA 94108, USA",ChIJSdzjdYmAhYARcrR7CxPWXrU,7 CLAUDE LN ,37.7903324,-122.404517,1,94108,OK,street_address
RANGE_INTERPOLATED,"295 California St, Campbell, CA 95008, USA",EioyOTUgQ2FsaWZvcm5pYSBTdCwgQ2FtcGJlbGwsIENBIDk1MDA4LCBVU0EiGxIZChQKEglXm1Y4IjWOgBEnmrGSQBN2MhCnAg,295 CALIFORNIA ST ,37.2827992,-121.954608,3,95008,OK,street_address
RANGE_INTERPOLATED,"264 Kearny St, San Francisco, CA 94108, USA",EisyNjQgS2Vhcm55IFN0LCBTYW4gRnJhbmNpc2NvLCBDQSA5NDEwOCwgVVNBIhsSGQoUChIJ-RC2nImAhYAR8L4b_qT7_7UQiAI,0264 KEARNY ST,37.7906865,-122.4038438,1,94108,OK,street_address
ROOFTOP,"44 Montgomery St, San Francisco, CA 94104, USA",ChIJ__9v0YmAhYARC1hbPG9GfhA,0044 MONTGOMERY ST  LL1,37.7897312,-122.401906,2,94104,OK,"establishment,point_of_interest"
ROOFTOP,"50 Post St, San Francisco, CA 94104, USA",ChIJQ4ChSoiAhYARED7THUmB7Go,50 POST ST SPACE #53,37.7891638,-122.4029793,1,94104,OK,street_address
ROOFTOP,"306 Clement St, San Francisco, CA 94118, USA",ChIJ--ZQ5juHhYARUvd2fFVqQY0,306 CLEMENT ST ,37.7831653,-122.4625598,2,94118,OK,street_address
ROOFTOP,"600 Stockton St 2ND FLOOR, San Francisco, CA 94108, USA",EjgyTkQgRkxPT1IsIDYwMCBTdG9ja3RvbiBTdCwgU2FuIEZyYW5jaXNjbywgQ0EgOTQxMDgsIFVTQSIlGiMKFgoUChIJF3EPiYuAhYARhYcRfh1tX-ESCTJORCBGTE9PUg,600 STOCKTON ST 2ND FLOOR,37.7918754,-122.4070392,1,94108,OK,subpremise
ROOFTOP,"445 Clement St, San Francisco, CA 94118, USA",ChIJw_33BTyHhYAR06-yvr5X_8E,445 CLEMENT ST ,37.7827395,-122.4641444,1,94118,OK,street_address
ROOFTOP,"799 Valencia St, San Francisco, CA 94110, USA",ChIJiwtOHT1-j4ARFqY4HDD0WYg,799 VALENCIA ST ,37.7602228,-122.4213588,1,94110,OK,street_address
ROOFTOP,"288 Noe St, San Francisco, CA 94114, USA",ChIJf4vW7Rx-j4ARLDmCakhzrkw,288 NOE ST ,37.7645065,-122.433426,1,94114,OK,street_address
ROOFTOP,"5401 Geary Blvd, San Francisco, CA 94121, USA",ChIJb5iUAxGHhYAR7_WWmtHDjX0,5401 GEARY BLVD ,37.7802081,-122.4774114,1,94121,OK,street_address
ROOFTOP,"5701 Geary Blvd, San Francisco, CA 94121, USA",ChIJY9MfKBCHhYARZIJ24A4m4_4,5701 GEARY BLVD ,37.780064,-122.4806461,1,94121,OK,street_address
ROOFTOP,"7000 Geary Blvd, San Francisco, CA 94121, USA",ChIJJ5rKVKiHhYARCTSvxjL7Sh4,7000 GEARY BLVD ,37.7799073,-122.4945511,1,94121,OK,premise
ROOFTOP,"2520 Noriega St, San Francisco, CA 94122, USA",ChIJyZ1aQH-HhYARIeP0cBAbQZM,2520 NORIEGA ST ,37.7538236,-122.4908629,1,94122,OK,street_address
ROOFTOP,"800 Taraval, San Francisco, CA 94116, USA",ChIJC8uuK5J9j4ARaHZTw1wHbLc,800 TARAVAL,37.7433015,-122.4748302,1,94116,OK,premise
ROOFTOP,"1401 Van Ness Ave, San Francisco, CA 94109, USA",ChIJDx6WEZWAhYARpwCErTBagmY,1401 VAN NESS AVE ,37.788608,-122.422216,2,94109,OK,street_address
ROOFTOP,"300 19th St, Ocean City, NJ 08226, USA",ChIJ293XlVeVwIkRSMcwG3Zadss,300 19TH AVE ,39.2684837,-74.5913846,1,8226,OK,premise
ROOFTOP,"2288 Mission St, San Francisco, CA 94110, USA",ChIJ7RYOjDx-j4AR7JQs5-_qbfg,2288 MISSION ST ,37.760483,-122.4195219,1,94110,OK,subpremise
ROOFTOP,"807 Valencia St, San Francisco, CA 94110, USA",ChIJW438AT1-j4ARjtL5M6K7i2o,807 VALENCIA ST ,37.7598916,-122.4212583,1,94110,OK,street_address
ROOFTOP,"1101 Valencia St, San Francisco, CA 94110, USA",ChIJ5yVH_D5-j4ARxq6dUHmP8ro,1101 VALENCIA ST,37.7552024,-122.4207904,2,94110,OK,street_address
ROOFTOP,"1430 Haight St, San Francisco, CA 94117, USA",ChIJVyDoz6yAhYARtxmYP5HhFsM,1430 HAIGHT ST ,37.7703086,-122.4460471,1,94117,OK,street_address
ROOFTOP,"1790 Haight St, San Francisco, CA 94117, USA",ChIJien3MVKHhYARk-OacN-6LHc,1790 HAIGHT ST ,37.769602,-122.4516209,1,94117,OK,street_address
ROOFTOP,"2901 16th St NW, Washington, DC 20009, USA",ChIJN75Ygd-3t4kRGpfj5zabVLQ,2901 16TH ST ,38.9264647,-77.0360718,8,20009,OK,premise
ROOFTOP,"1688 Bryant St, San Francisco, CA 94103, USA",ChIJE0vYxC9-j4ARAD4v-ZWjMzg,1688 BRYANT ST ,37.7658138,-122.4108053,1,94103,OK,street_address
ROOFTOP,"1028 Potrero Ave, San Francisco, CA 94110, USA",ChIJ12dKIEp-j4ARZwegAFjmZsw,1028 POTRERO AVE ,37.7556192,-122.4069285,1,94110,OK,premise
ROOFTOP,"3349 23rd St, San Francisco, CA 94110, USA",ChIJ71RDQz9-j4ARNIUbrXACqWM,3349 23RD ST ,37.7536962,-122.4195844,1,94110,OK,street_address
ROOFTOP,"1507 Polk St, San Francisco, CA 94109, USA",ChIJP_lFK-uAhYARE8cwsIDHQu8,1507 POLK ST ,37.7908202,-122.420888,2,94109,OK,street_address
ROOFTOP,"3274 24th St, San Francisco, CA 94110, USA",ChIJw70DSUd-j4ARkrgZWLu2Vl8,3274 24TH ST ,37.7524194,-122.4178533,2,94110,OK,street_address
ROOFTOP,"2195 Mission St, San Francisco, CA 94110, USA",ChIJHztgujx-j4ARQdj0d6PJfoI,2195 MISSION ST ,37.7620014,-122.4192346,2,94110,OK,street_address
ROOFTOP,"2338 Mission St, San Francisco, CA 94110, USA",ChIJIdtTbzx-j4AR8ZGyvUNXeKs,2338 MISSION ST ,37.7595827,-122.4194719,1,94110,OK,premise
ROOFTOP,"2619 Mission St, San Francisco, CA 94110, USA",ChIJi5QmzTh-j4ARvEuvbzHthZE,2619 MISSION ST,37.7551461,-122.41846,1,94110,OK,street_address
ROOFTOP,"2779 Mission St, San Francisco, CA 94110, USA",ChIJV4AcTUd-j4ARj_o_-7WMFjQ,2779 MISSION ST,37.752654,-122.4181915,1,94110,OK,street_address
ROOFTOP,"2798 Mission St, San Francisco, CA 94110, USA",ChIJ0dp1sUB-j4ARgMLQGMp2pa8,2798 MISSION ST,37.7523527,-122.4186318,1,94110,OK,street_address
ROOFTOP,"2830 Mission St, San Francisco, CA 94110, USA",ChIJp9gOzEB-j4ARR8lPpjQPbnk,2830 MISSION ST,37.7517301,-122.4186736,1,94110,OK,premise
ROOFTOP,"2854 Mission St, San Francisco, CA 94110, USA",ChIJfYzA00B-j4AR7j0OtuBQCjc,2854 MISSION ST,37.7512818,-122.4186541,1,94110,OK,premise
ROOFTOP,"2889 Mission St, San Francisco, CA 94110, USA",ChIJ3Yon1EZ-j4AR07A0KZTxgSo,2889 MISSION ST,37.7508992,-122.4181121,1,94110,OK,premise
ROOFTOP,"1401 Valencia St, San Francisco, CA 94110, USA",ChIJ-__8HUF-j4ARuGZ0rP9Fc14,1401 VALENCIA ST ,37.7504268,-122.4202389,2,94110,OK,premise
ROOFTOP,"601 Divisadero St, San Francisco, CA 94117, USA",ChIJT2EVzK-AhYAR1mV_X62b7bA,601 DIVISADERO ST ,37.7751375,-122.4379876,5,94117,OK,street_address
ROOFTOP,"401 Haight St, San Francisco, CA 94117, USA",ChIJ1-ZNJaGAhYAR2-N9xz7ZMjg,401 HAIGHT ST ,37.7721319,-122.4289509,1,94117,OK,street_address
ROOFTOP,"508 Haight St, San Francisco, CA 94117, USA",ChIJz29jx6aAhYARVev5kvlAGMk,508 HAIGHT ST ,37.772197,-122.430674,1,94117,OK,street_address
ROOFTOP,"576 Haight St, San Francisco, CA 94117, USA",ChIJh5EXkqaAhYARl7Zaqq8UBvc,576 HAIGHT ST ,37.7721374,-122.4317056,1,94117,OK,premise
ROOFTOP,"1770 Haight St, San Francisco, CA 94117, USA",ChIJM3tZMVKHhYARexYbtLeEa4k,1770 HAIGHT ST ,37.7696547,-122.4513825,1,94117,OK,street_address
ROOFTOP,"400 Waller St, San Francisco, CA 94117, USA",ChIJIc4U16aAhYARFuqPUKfja24,400 WALLER ST ,37.7713355,-122.4304886,2,94117,OK,street_address
ROOFTOP,"354 11th St, San Francisco, CA 94103, USA",ChIJ6X2OLyZ-j4AREE3Y3YnGtAI,354 11TH ST ,37.7710836,-122.4132832,1,94103,OK,street_address
ROOFTOP,"2960 16th St, San Francisco, CA 94103, USA",ChIJL6FRgiN-j4ARRX8Tqx--gX0,2960 16TH ST ,37.7652698,-122.4188248,1,94103,OK,street_address
ROOFTOP,"2732 24th St, San Francisco, CA 94110, USA",ChIJq8Ld4Ut-j4ARJTRvaWYIizI,2732 24TH ST ,37.7530289,-122.4071161,1,94110,OK,"establishment,food,point_of_interest,restaurant"
,,,3230 24TH ST ,,,0,,ZERO_RESULTS,
ROOFTOP,"2801 24th St, San Francisco, CA 94110, USA",ChIJkVLnQEl-j4ARTJ-MPnpG770,2801 24TH ST ,37.7526817,-122.4083862,4,94110,OK,premise
ROOFTOP,"3296 22nd St, San Francisco, CA 94110, USA",ChIJH5j9-j5-j4ARga79BFQ496s,3296 22ND ST ,37.7554931,-122.4208221,1,94110,OK,street_address
ROOFTOP,"2950 24th St, San Francisco, CA 94110, USA",ChIJc5ik9Eh-j4ARkLUMeVkUCjY,2950 24TH ST ,37.7527982,-122.4111798,1,94110,OK,street_address
ROOFTOP,"4133, 2989 24th St, San Francisco, CA 94110, United States",ChIJmZ6cjkh-j4ARhWxzOFu3Pn0,2989 24TH ST ,37.7525407,-122.411777,1,94110,OK,"establishment,food,point_of_interest,store"
ROOFTOP,"2950 25th St, San Francisco, CA 94110, USA",ChIJ5RpazU5-j4AR_CX-qF21Okw,2950 25TH ST ,37.7513613,-122.4092184,2,94110,OK,premise
ROOFTOP,"1600 Folsom St, San Francisco, CA 94103, USA",ChIJEe6CVSZ-j4ARsUCNqMy5yRI,1600 FOLSOM ST ,37.7708808,-122.4153357,2,94103,OK,premise
ROOFTOP,"2092 Mission St, San Francisco, CA 94110, USA",ChIJXdgVQCN-j4ARiIYIb0kyt7A,2092 MISSION ST ,37.7636052,-122.4198377,1,94110,OK,subpremise
ROOFTOP,"901 S Van Ness Ave, San Francisco, CA 94110, USA",ChIJjWFvYjl-j4ARgw5dC1qFrWM,901 SOUTH VAN NESS AVE ,37.7586707,-122.4166631,1,94110,OK,premise
ROOFTOP,"521 Valencia St, San Francisco, CA 94110, USA",ChIJw7MhVCJ-j4ARj7UKywRRuJ4,521 VALENCIA ST ,37.7645139,-122.4216174,1,94110,OK,premise
ROOFTOP,"1207 Union St, Alameda, CA 94501, USA",ChIJl1nQ4MiGj4ARogQ8HwpYFYE,1207 UNION ST ,37.768263,-122.256563,1,94501,OK,street_address
ROOFTOP,"1501 Fillmore St, San Francisco, CA 94115, USA",ChIJFyIWormAhYAR0V8qG0FB_08,1501 FILLMORE ST ,37.783411,-122.4329045,5,94115,OK,street_address
ROOFTOP,"1830 Union St, San Francisco, CA 94123, USA",ChIJsU_fqNyAhYARAACnioLCZYs,1830 UNION ST ,37.797971,-122.4295229,2,94123,OK,street_address
ROOFTOP,"2222 Fillmore St, Hollywood, FL 33020, USA",ChIJTWpbHaOr2YgR_qvqmsPe_Pk,2222 FILLMORE,26.0147997,-80.1519948,1,33020,OK,premise
ROOFTOP,"3258 Scott St, San Francisco, CA 94123, USA",ChIJfcGYn9aAhYARmu_G_bDVVj4,3258 SCOTT ST ,37.8000314,-122.4408734,1,94123,OK,premise
ROOFTOP,"266 Sutter St, San Francisco, CA 94108, USA",ChIJYzjnGomAhYARXhSAHlwz9os,266 SUTTER ST ,37.7899148,-122.405049,1,94108,OK,street_address
ROOFTOP,"3532 Balboa St, San Francisco, CA 94121, USA",ChIJSa0lEqaHhYARtdVic9ruh7A,3532 BALBOA ST ,37.7759206,-122.4968389,1,94121,OK,street_address
ROOFTOP,"2018 Lombard St, San Francisco, CA 94123, USA",ChIJ36HjBNqAhYAR_BtFx0pWlUE,2018 LOMBARD ST ,37.8002122,-122.4348023,2,94123,OK,premise
ROOFTOP,"1340 Franklin St, Baldwin, WI 54002, USA",ChIJf_aMhFQH-IcR-MdCuYyhj1s,1340 FRANKLIN ST ,44.9709829,-92.379382,3,54002,OK,street_address
ROOFTOP,"5228 Mission St, San Francisco, CA 94112, USA",ChIJSQegjpx-j4ARFcHzsOHZHzk,5228 MISSION ST ,37.7154444,-122.4420903,1,94112,OK,premise
ROOFTOP,"2197 Fillmore St, San Francisco, CA 94115, USA",ChIJo0u4OcaAhYAREMIJsDUNZSo,2197 FILLMORE ST ,37.7896727,-122.4342272,1,94115,OK,premise
ROOFTOP,"471 Haight St, San Francisco, CA 94117, USA",ChIJy_p6zaaAhYARibQZe_LQ29U,471 HAIGHT ST ,37.7720338,-122.4298596,1,94117,OK,street_address
ROOFTOP,"2201 Van Ness Ave, San Francisco, CA 94109, USA",ChIJe1oV3-mAhYAReQxxafR_FWQ,2201 VAN NESS ST ,37.7958447,-122.4239634,4,94109,OK,premise
RANGE_INTERPOLATED,"530 Balboa St, San Francisco, CA 94118, USA",Eis1MzAgQmFsYm9hIFN0LCBTYW4gRnJhbmNpc2NvLCBDQSA5NDExOCwgVVNBIhsSGQoUChIJe9V2qECHhYARQeU7u-z40l8QkgQ,0530 BALBOA ST,37.7774168,-122.4645804,1,94118,OK,street_address
ROOFTOP,"3519 California St, San Francisco, CA 94118, USA",ChIJ0but-zOHhYARU1bQgOmsfDU,3519 CALIFORNIA ST ,37.7863507,-122.4518698,1,94118,OK,street_address
ROOFTOP,"1801 Market St, Philadelphia, PA 19103, USA",ChIJBXIyFDHGxokRa7GvFG4nRDo,1801 MARKET ST ,39.9536012,-75.1703161,7,19103,OK,premise
ROOFTOP,"1980 Union St, San Francisco, CA 94123, USA",ChIJ-XGrJNuAhYAR88tDI92K9Qs,1980 UNION ST ,37.7977737,-122.4319047,1,94123,OK,premise
ROOFTOP,"227 Hyde St, San Francisco, CA 94102, USA",ChIJucJ6hJCAhYAR9oN6xj8dopA,227 HYDE ST,37.7830089,-122.4159191,2,94102,OK,street_address
ROOFTOP,"1298 Market St, San Francisco, CA 94102, USA",ChIJNTZqd5yAhYARe9alQPs7nn0,1298 MARKET ST ,37.7778988,-122.4162654,1,94102,OK,street_address
ROOFTOP,"1255 Battery St, San Francisco, CA 94111, USA",ChIJE832R_aAhYARXvR5l47W-Hc,1255 BATTERY ST ,37.8027509,-122.402857,1,94111,OK,street_address
ROOFTOP,"798 Brannan St, San Francisco, CA 94103, USA",ChIJu5VrbCt-j4ARgkw0kU8fx3M,798 BRANNAN ST ,37.7732782,-122.4032668,1,94103,OK,premise
ROOFTOP,"495 Geary St, San Francisco, CA 94102, USA",ChIJY-2pS46AhYARYL2mOdENBSA,495 GEARY ST LOWER LEVEL,37.7867731,-122.4112871,1,94102,OK,premise
ROOFTOP,"219 O'Farrell St, San Francisco, CA 94102, USA",ChIJ18tjFY-AhYARcOuZBJ0bu3M,219 O'FARRELL ST ,37.7862056,-122.4084801,1,94102,OK,street_address
ROOFTOP,"201 Powell St, San Francisco, CA 94102, USA",ChIJDzaLPY-AhYARWG0xC6hiGC8,201 POWELL ST ,37.7865502,-122.4082689,3,94102,OK,street_address
ROOFTOP,"3854 Geary Blvd, San Francisco, CA 94118, USA",ChIJSXj0pzmHhYAROuyiPQE6Viw,3854 GEARY BLVD ,37.7813812,-122.4609365,1,94118,OK,street_address
ROOFTOP,"5830 Geary Blvd, San Francisco, CA 94121, USA",ChIJq12h7A-HhYAR3c8t5H-H8nc,5830 GEARY BLVD ,37.7804779,-122.4820823,1,94121,OK,premise
ROOFTOP,"2728 San Bruno Ave, San Francisco, CA 94134, USA",ChIJLdSg-eJ-j4ARe6vT4hkH62c,2728 SAN BRUNO AVE ,37.727173,-122.4035409,2,94134,OK,street_address
ROOFTOP,"550 Powell St, San Francisco, CA 94108, USA",ChIJI48nIoyAhYAR-lyR7JYGCA0,550 POWELL ST,37.7900104,-122.4085658,1,94108,OK,street_address
ROOFTOP,"1761 Fillmore St, San Francisco, CA 94115, USA",ChIJu2rJaLiAhYARbsuZhdNullQ,1761 FILLMORE ST,37.785899,-122.43348,1,94115,OK,street_address
ROOFTOP,"3318 24th St, San Francisco, CA 94110, USA",ChIJZ6fXsEB-j4ARgzVvdjgUcJQ,3318 24TH ST ,37.7523283,-122.418971,1,94110,OK,"cafe,establishment,food,point_of_interest,restaurant"
ROOFTOP,"4133 18th St NE, Washington, DC 20018, USA",ChIJ4_KlI5bHt4kRZou0lFR6k9A,4133 18TH ST ,38.9405758,-76.9799114,2,20018,OK,premise
ROOFTOP,"900 Cole St, San Francisco, CA 94117, USA",ChIJM3ZQVlSHhYARO_XHo6EHnGM,900 COLE ST ,37.7656962,-122.449768,1,94117,OK,street_address
ROOFTOP,"945 Cole St, San Francisco, CA 94117, USA",ChIJA8UXU1SHhYAR4A6GyBjp8Vk,945 COLE ST ,37.7651525,-122.4500069,2,94117,OK,street_address
ROOFTOP,"2550 San Bruno Ave, San Francisco, CA 94134, USA",ChIJk22x1vx-j4ARD9otcLBHZgs,2550 SAN BRUNO AVE ,37.7293489,-122.4045833,1,94134,OK,premise
ROOFTOP,"208 Washington St, St Paul, KS 66771, USA",ChIJJyefzccMuIcR8T9DAb1M8oE, CHURCH ST ,37.5152576,-95.1631866,1,66771,OK,"church,establishment,place_of_worship,point_of_interest"
ROOFTOP,"745 Cortland Ave, San Francisco, CA 94110, USA",ChIJX5LAl1l-j4ARJ1yRxR_9ilI,745 CORTLAND AVE ,37.7390213,-122.4148047,1,94110,OK,premise
ROOFTOP,"3147 16th St, San Francisco, CA 94103, USA",ChIJ0RU9bCJ-j4ARi0IqltliaG4,3147 16TH ST ,37.7647308,-122.4231086,2,94103,OK,street_address
ROOFTOP,"216 Church St, North Syracuse, NY 13212, USA",ChIJ1dJTm_3s2YkRRC8xWvSTJrM,216 CHURCH ST ,43.1350194,-76.1236826,2,13212,OK,premise
ROOFTOP,"811 Valencia St, San Francisco, CA 94110, USA",ChIJYddN_jx-j4ARD-uk4ExZrXU,811 VALENCIA ST ,37.7598313,-122.4212425,1,94110,OK,street_address
ROOFTOP,"3349 18th St, San Francisco, CA 94110, USA",ChIJqThAXjt-j4ARmsC2pMLYz6w,3349 18TH ST ,37.7618121,-122.4181677,1,94110,OK,"establishment,food,point_of_interest,restaurant"
ROOFTOP,"2152 Mission St, San Francisco, CA 94110, USA",ChIJOWDPSiN-j4ARezGKuXjyCX8,2152 MISSION ST ,37.762508,-122.4197842,1,94110,OK,street_address
ROOFTOP,"525 Cortland Ave, San Francisco, CA 94110, USA",ChIJ4-MMell-j4AR2hs6oXIw8-4,525 CORTLAND AVE ,37.7392364,-122.4160436,2,94110,OK,premise
ROOFTOP,"1599 Sanchez St, San Francisco, CA 94131, USA",ChIJAyK7PGl-j4ARxeLStVihXM0,1599 SANCHEZ ST,37.7437117,-122.4287415,1,94131,OK,premise
ROOFTOP,"5041 Geary Blvd, San Francisco, CA 94118, USA",ChIJScd6lRaHhYARB78-myZluU8,5041 GEARY BLVD ,37.7803787,-122.473592,1,94118,OK,premise
ROOFTOP,"4288 24th St, San Francisco, CA 94114, USA",ChIJjy4vMwx-j4ARaZp-fl9oW2g,4288 24TH ST ,37.7512118,-122.4382528,1,94114,OK,premise
ROOFTOP,"1500 Church St, Columbia, MS 39429, USA",ChIJ0WsLWdJpnYgRJ6RTHLxXT6Y,1500 CHURCH ST ,31.2529966,-89.8104183,1,39429,OK,premise
ROOFTOP,"3218 Mission St, San Francisco, CA 94110, USA",ChIJ3117D0N-j4ARpAxjMBFxt-U,3218 MISSION ST ,37.745207,-122.4204571,1,94110,OK,premise
ROOFTOP,"3206 Mission St, San Francisco, CA 94110, USA",ChIJ579ZCUN-j4ARssgQ7yC8JjA,3206 MISSION ST ,37.7453736,-122.4202187,1,94110,OK,street_address
ROOFTOP,"2798 Diamond St, San Francisco, CA 94131, USA",ChIJk40HomR-j4ARGbF6DjD3b3M,2798 DIAMOND ST ,37.7346098,-122.4339872,1,94131,OK,street_address
ROOFTOP,"1309 9th Ave, San Francisco, CA 94122, USA",ChIJrdYeS1yHhYAROU5YyBs2elE,1309 09TH AVE ,37.763745,-122.4665325,1,94122,OK,"cafe,establishment,food,point_of_interest,restaurant"
ROOFTOP,"2165 Lombard St, San Francisco, CA 94123, USA",ChIJhwOEyNCAhYARqh9tewKzwus,2165 LOMBARD ST ,37.7994806,-122.4370584,1,94123,OK,premise
ROOFTOP,"634 Clement St, San Francisco, CA 94118, USA",ChIJHSWXTjyHhYARPkIQFzLfdOE,634 CLEMENT ST ,37.7830771,-122.4661625,2,94118,OK,premise
ROOFTOP,"651 Clement St, San Francisco, CA 94118, USA",ChIJaW7CNTyHhYARtqiU4B7PvHA,651 CLEMENT ST ,37.7827394,-122.4663487,2,94118,OK,street_address
ROOFTOP,"245 Church St, Trenton, NJ 08618, USA",ChIJ5TIBndNZwYkRdESwWVodxHg,245 CHURCH ST.,40.225713,-74.773769,1,8618,OK,street_address
ROOFTOP,"2001 Union St, San Francisco, CA 94123, USA",ChIJ0whAKNuAhYAR2-yPIGeGGHA,2001 UNION ST #107,37.7971875,-122.4324798,1,94123,OK,premise
ROOFTOP,"1450 Lombard St, San Francisco, CA 94123, USA",ChIJ9YwUot2AhYARSmd-flxFzw0,1450 LOMBARD ST ,37.8015318,-122.4255939,1,94123,OK,street_address
ROOFTOP,"635 Clay St, Manchester, NH 03103, USA",ChIJqY2_We9O4okRK-nswz5noz8,635 CLAY ST ,42.9756076,-71.4468888,2,3103,OK,premise
ROOFTOP,"885 Bryant St, San Francisco, CA 94103, USA",ChIJxZTB_yp-j4ARkeE7KXIFU2M,885 BRYANT ST ,37.7745063,-122.4042071,1,94103,OK,premise
ROOFTOP,"2298 Union St, San Francisco, CA 94123, USA",ChIJ2-DVXNCAhYAReY3YEKp03sc,2298 UNION ST ,37.7970459,-122.4370142,1,94123,OK,street_address
ROOFTOP,"100, 2300 16th St, San Francisco, CA 94103, USA",ChIJqdud4zF-j4ARUWHxWkpcXyk,2300 16 TH ST ,37.7659054,-122.407965,1,94103,OK,street_address
ROOFTOP,"3211 Mission St, San Francisco, CA 94110, USA",ChIJy1nOckN-j4ARNRYqwyJ9TCU,3211 MISSION ST ,37.7453111,-122.4198155,1,94110,OK,premise
ROOFTOP,"1332 Castro St, San Francisco, CA 94114, USA",ChIJYQQiihJ-j4ARmUUzRV87NSw,1332 CASTRO ST,37.7507705,-122.4341855,1,94114,OK,street_address
ROOFTOP,"3665 Sacramento St, San Francisco, CA 94118, USA",ChIJJ7IFZDGHhYARirqzueOUjq0,3665 SACRAMENTO ST ,37.787332,-122.452982,1,94118,OK,street_address
ROOFTOP,"3595 California St, San Francisco, CA 94118, USA",ChIJz_RdRTGHhYARuZCtiTFPuvE,3595 CALIFORNIA ST ,37.7862245,-122.4532259,1,94118,OK,premise
ROOFTOP,"3277 Sacramento St, San Francisco, CA 94115, USA",ChIJUTDNUjOHhYARHqzgtPzZCwM,3277 SACRAMENTO ST ,37.7880728,-122.4468073,1,94115,OK,street_address
GEOMETRIC_CENTER,"N 129th E Ave, Tulsa, OK 74116, USA",ChIJYTMR5ZjztocRrK8-bvLhAHY,180 CHURCH  ,36.17245,-95.8308509,1,74116,OK,"church,establishment,place_of_worship,point_of_interest"
ROOFTOP,"3083 16th St, San Francisco, CA 94103, USA",ChIJPaLtUiJ-j4ARhol04cIqELU,3083 16TH ST ,37.7647277,-122.421325,2,94103,OK,street_address
ROOFTOP,"4798 Mission St, San Francisco, CA 94112, USA",ChIJD0NtqIV-j4ARGKlFYQ6lll0,4798 MISSION  ,37.7213176,-122.4375705,1,94112,OK,street_address
ROOFTOP,"5217 Geary Blvd, San Francisco, CA 94118, USA",ChIJ_aR7MRGHhYAR3NNNFQ_AGqM,5217 GEARY BLVD ,37.780319,-122.4754625,1,94118,OK,street_address
ROOFTOP,"442 Geary St, San Francisco, CA 94102, USA",ChIJNfm5T46AhYARCDgL2yrxhlo,442 GEARY ST ,37.787168,-122.410733,2,94102,OK,street_address
RANGE_INTERPOLATED,"52 California St, San Francisco, CA 94111, USA",Ei41MiBDYWxpZm9ybmlhIFN0LCBTYW4gRnJhbmNpc2NvLCBDQSA5NDExMSwgVVNBIhoSGAoUChIJ2ZXuZmGAhYARs6jfSgIWxKcQNA,052 CALIFORNIA ST,37.7938179,-122.397422,1,94111,OK,street_address
,,,303 02ND ST ,,,0,,ZERO_RESULTS,
ROOFTOP,"198 Leland Ave, San Francisco, CA 94134, USA",ChIJM-nG39t-j4ARtQ0X1cRbWuE,198 LELAND AVE ,37.7126304,-122.4072009,1,94134,OK,street_address
ROOFTOP,"1701 Powell St, San Francisco, CA 94133, USA",ChIJsyMJt_GAhYARt1Cuy4f71MM,1701 POWELL ST ,37.8003254,-122.4110879,5,94133,OK,premise
ROOFTOP,"1050 Van Ness Ave, San Francisco, CA 94109, USA",ChIJH5GNhpaAhYARd60R2hckde4,1050 VAN NESS AVE ,37.7855464,-122.4208442,1,94109,OK,premise
ROOFTOP,"2438 Noriega St, San Francisco, CA 94122, USA",ChIJq6rOF3-HhYARnWajZW9w_20,2438 NORIEGA  ST,37.7538746,-122.4900412,1,94122,OK,street_address
ROOFTOP,"780 Market St, San Francisco, CA 94102, USA",ChIJM0b4oYiAhYAR8hKTAzyh35k,780 MARKET ST ,37.7861655,-122.4057084,2,94102,OK,street_address
ROOFTOP,"390 Stockton St, San Francisco, CA 94108, USA",ChIJP2TyS4mAhYAReTMRPzIMgzY,390 STOCKTON ST,37.7893112,-122.406812,2,94108,OK,street_address
ROOFTOP,"2721 Hyde St, San Francisco, CA 94109, USA",ChIJd9z5IuGAhYARZ48kSncIu3w,2721 HYDE ST ,37.8061171,-122.4206894,1,94109,OK,premise
ROOFTOP,"1923 Ocean Ave, Brooklyn, NY 11230, USA",ChIJa-5eh75EwokR7na5nO_bMGU,1923 OCEAN AVE ,40.6149904,-73.954064,1,11230,OK,premise
ROOFTOP,"222 Mason St, San Francisco, CA 94102, USA",ChIJ8SyVEo-AhYARq9BTfnIBGHI,222 MASON ST ,37.7860081,-122.4092959,1,94102,OK,street_address
,,,36 02ND ST ,,,0,,ZERO_RESULTS,
ROOFTOP,"345 Stockton St FLR 2B, San Francisco, CA 94108, USA",EjVGTFIgMkIsIDM0NSBTdG9ja3RvbiBTdCwgU2FuIEZyYW5jaXNjbywgQ0EgOTQxMDgsIFVTQSIiGiAKFgoUChIJQXozs46AhYAR9FOBKe773UwSBkZMUiAyQg,345 STOCKTON ST FLR 2B,37.7891412,-122.4072161,1,94108,OK,subpremise
ROOFTOP,"1630 Powell St, San Francisco, CA 94133, USA",ChIJqw1BmPGAhYARzg62fvoRCqU,1630 POWELL ST ,37.7997415,-122.4105817,2,94133,OK,premise
ROOFTOP,"1712 Taraval, San Francisco, CA 94116, USA",ChIJS6q2zoR9j4ARqf6oZckmDpQ,1712 TARAVAL ST ,37.7428725,-122.4845585,1,94116,OK,premise
GEOMETRIC_CENTER,"Beach St & The Embarcadero, San Francisco, CA 94133, United States",ChIJHSGzi_yAhYARnrPmDWAx9ro,PIER 39  BUILDING Q1,37.808673,-122.409821,1,94133,OK,"establishment,point_of_interest,premise,shopping_mall"
ROOFTOP,"5723 Geary Blvd, San Francisco, CA 94121, USA",ChIJM5fD2Q-HhYARrJZ3VLvwjAs,5723 GEARY BLVD ,37.7800059,-122.4809368,1,94121,OK,street_address
ROOFTOP,"599 Skyline Blvd, San Francisco, CA 94132, USA",ChIJy1wNvvt8j4ARZldOCf1jMk8,599 SKYLINE BLVD ,37.703324,-122.499395,3,94132,OK,street_address
ROOFTOP,"757 Market St #5/FL, San Francisco, CA 94103, USA",EjE1L0ZMLCA3NTcgTWFya2V0IFN0LCBTYW4gRnJhbmNpc2NvLCBDQSA5NDEwMywgVVNBIiAaHgoWChQKEgkLBXiEiICFgBHnQKZZ2Q22QxIENS9GTA,757 MARKET ST 5/FL,37.7863499,-122.4042632,1,94103,OK,subpremise
ROOFTOP,"704 Sutter St, San Francisco, CA 94109, USA",ChIJlTeu-42AhYAR13Fs1XOKdzk,704 SUTTER ST ,37.789032,-122.412172,2,94109,OK,premise
ROOFTOP,"530 Jackson St, Denver, CO 80206, USA",ChIJtw50zqF-bIcRKGWjuM2gXe4,530 JACKSON ST ,39.724651,-104.942192,1,80206,OK,street_address
,,,101 04TH ST 1/F,,,0,,ZERO_RESULTS,
ROOFTOP,"200 Jackson St, San Francisco, CA 94111, USA",ChIJYR2wdGCAhYARYnGESi4ewgQ,200 JACKSON ST ,37.7970291,-122.3999589,2,94111,OK,street_address
ROOFTOP,"401 Taylor St, San Francisco, CA 94102, USA",ChIJsYeEyY-AhYARFukSYv7t_3Q,401 TAYLOR ST ,37.7861517,-122.4116792,1,94102,OK,"bar,establishment,food,point_of_interest,restaurant"
ROOFTOP,"3881 24th St, San Francisco, CA 94114, USA",ChIJ5zmrmRR-j4ARwtjaUHJLaIQ,3881 24TH ST ,37.7513952,-122.4291839,1,94114,OK,premise
ROOFTOP,"2877 California St, San Francisco, CA 94115, USA",ChIJybHz3MuAhYAR37zR-QqdlIU,2877 CALIFORNIA ST ,37.7877104,-122.4415705,1,94115,OK,premise
ROOFTOP,"50 Post St B62, San Francisco, CA 94104, USA",Ei1CNjIsIDUwIFBvc3QgU3QsIFNhbiBGcmFuY2lzY28sIENBIDk0MTA0LCBVU0EiHxodChYKFAoSCUOAoUqIgIWAERA-0x1JgexqEgNCNjI,"50 POST ST, SUITE B62",37.7891638,-122.4029793,1,94104,OK,subpremise
ROOFTOP,"2727 Mariposa St, San Francisco, CA 94110, USA",ChIJa4bH-TB-j4AR-mypxY53sHI,2727 MARIPOSA ST ,37.7628656,-122.4105349,1,94110,OK,street_address
ROOFTOP,"500 Columbus Ave, New York, NY 10024, USA",ChIJFYF-G4VYwokRkmTxB0A98js,500 COLUMBUS AVE ,40.7852722,-73.9731991,2,10024,OK,street_address
ROOFTOP,"44 Montgomery, 44 Montgomery St, San Francisco, CA 94104, USA",ChIJnRZN0YmAhYAR7IasUV11CzM,44 MONTGOMERY ST ,37.7897312,-122.401906,1,94104,OK,premise
,,,760 02ND ST ,,,0,,ZERO_RESULTS,
ROOFTOP,"2534 Mission St, San Francisco, CA 94110, USA",ChIJD40Oxj5-j4AR8opA6whoZqs,2534 MISSION ST ,37.7564149,-122.4191801,1,94110,OK,street_address
ROOFTOP,"251 Geary Blvd, San Francisco, CA 94102, USA",ChIJG-PkK4-AhYARxW6vm0X9kCQ,"251 GEARY ST, 8TH FLOOR",37.7871826,-122.407378,1,94102,OK,"establishment,food,point_of_interest,restaurant"
ROOFTOP,"24 Willie Mays Plaza, San Francisco, CA 94107, USA",ChIJv_u-0dl_j4ARW9yHJWRSSqs,24 WILLIE MAYS PLAZA  ,37.7784199,-122.3906212,1,94107,OK,premise
ROOFTOP,"2130 Fulton St, San Francisco, CA 94117, USA",ChIJnzL6FkyHhYARpvyf_D2vrUg,2130 FULTON ST ,37.7765484,-122.4506519,2,94117,OK,street_address
ROOFTOP,"500 California St 1ST FLOOR, San Francisco, CA 94104, USA",EjoxU1QgRkxPT1IsIDUwMCBDYWxpZm9ybmlhIFN0LCBTYW4gRnJhbmNpc2NvLCBDQSA5NDEwNCwgVVNBIiUaIwoWChQKEgmZKVlDioCFgBHG40UH8MhPshIJMVNUIEZMT09S,"500 CALIFORNIA ST, 1ST FLOOR",37.7931232,-122.4031008,1,94104,OK,subpremise
ROOFTOP,"860 Sutter St, San Francisco, CA 94109, USA",ChIJOZXlO5KAhYARLUUIJadgltY,860 SUTTER ST ,37.7887691,-122.4146076,1,94109,OK,premise
ROOFTOP,"637 Sutter St, San Francisco, CA 94102, USA",ChIJTSN6do6AhYARXEv54KJhQzg,637 SUTTER ST ,37.7888802,-122.4109525,2,94102,OK,street_address
ROOFTOP,"609 Sutter St 12TH FLOOR, San Francisco, CA 94102, USA",EjcxMlRIIEZMT09SLCA2MDkgU3V0dGVyIFN0LCBTYW4gRnJhbmNpc2NvLCBDQSA5NDEwMiwgVVNBIiYaJAoWChQKEgn7TPx6joCFgBH3rqZnK7s26hIKMTJUSCBGTE9PUg,"609 SUTTER ST,  12TH FLOOR",37.788844,-122.410475,1,94102,OK,subpremise
ROOFTOP,"609 Sutter St 10TH FLOOR, San Francisco, CA 94102, USA",EjcxMFRIIEZMT09SLCA2MDkgU3V0dGVyIFN0LCBTYW4gRnJhbmNpc2NvLCBDQSA5NDEwMiwgVVNBIiYaJAoWChQKEgn7TPx6joCFgBH3rqZnK7s26hIKMTBUSCBGTE9PUg,609 SUTTER ST 10TH FLOOR,37.788844,-122.410475,1,94102,OK,subpremise
ROOFTOP,"433 Powell St, San Francisco, CA 94102, USA",ChIJxxB3lI6AhYARIw5D2uwAVpQ,433 POWELL ST ,37.7886515,-122.4088091,1,94102,OK,premise
ROOFTOP,"450 Post St 3RD FLOOR, San Francisco, CA 94102, USA",EjQzUkQgRkxPT1IsIDQ1MCBQb3N0IFN0LCBTYW4gRnJhbmNpc2NvLCBDQSA5NDEwMiwgVVNBIiUaIwoWChQKEgkH1y3zjoCFgBF4JYZepyXY1RIJM1JEIEZMT09S,"450 POST ST, 3RD FLOOR",37.7882994,-122.4093357,1,94102,OK,subpremise
ROOFTOP,"1055 Pine St, Nashville, TN 37203, USA",ChIJN69wBotmZIgRhKQ0TOjBkig,1055 PINE ST ,36.1527093,-86.7820727,7,37203,OK,street_address
ROOFTOP,"1265 Battery St, San Francisco, CA 94111, USA",ChIJK-L6OvaAhYARHUeblDA1unw,1265 BATTERY ST ,37.802907,-122.4020405,1,94111,OK,street_address
ROOFTOP,"286 Jefferson St, Carneys Point, NJ 08069, USA",ChIJO4AOuIUdx4kRQon0fZ2O8Ec,286 JEFFERSON ST ,39.7105357,-75.4715902,1,8069,OK,premise
ROOFTOP,"300 Jefferson St, Glasgow, KY 42141, USA",ChIJrxR6IpI9ZogRh3j1lvDLD78,300 JEFFERSON ST ,36.9964458,-85.9189349,2,42141,OK,premise
ROOFTOP,"245 Front St, Key West, FL 33040, USA",ChIJD5RwROy20YgRLkXNezeiA_g,245 FRONT ST ,24.5579261,-81.8076465,2,33040,OK,street_address
ROOFTOP,"206 Jefferson St, Sandusky, MI 48471, USA",ChIJHciSzwPSJYgRRiRqtd_Kvhk,206 JEFFERSON ST ,43.4180429,-82.8242938,1,48471,OK,street_address
ROOFTOP,"606 Broadway St, Myrtle Beach, SC 29577, USA",ChIJuZAzSqppAIkRw4yvsO5Mmaw,606 BROADWAY ST ,33.6928157,-78.8875619,2,29577,OK,street_address
ROOFTOP,"145 Jackson St, Brooklyn, NY 11211, USA",ChIJDTRM5FBZwokRVUhHZb87neE,145 JACKSON ST ,40.716804,-73.9453319,2,11211,OK,street_address
ROOFTOP,"395 Hayes St, San Francisco, CA 94102, USA",ChIJ54YWv5iAhYARI4hDAAoEeMM,395 HAYES ST ,37.7768127,-122.4227706,1,94102,OK,street_address
ROOFTOP,"738 La Playa St, San Francisco, CA 94121, USA",ChIJo7fHO7eHhYARj65Fej0K_d8,738 LA PLAYA ST,37.7743906,-122.5099451,1,94121,OK,street_address
ROOFTOP,"132 The Embarcadero, San Francisco, CA 94105, USA",ChIJxU6GumWAhYARFgtHvEDjimo,132 EMBARCADERO  ,37.7930864,-122.392181,1,94105,OK,street_address
ROOFTOP,"835 Kearny St, San Francisco, CA 94108, USA",ChIJjTyczvSAhYAR5TZvzmxjktA,835 KEARNY ST ,37.7958408,-122.4051994,1,94108,OK,street_address
ROOFTOP,"450 Stanyan St, San Francisco, CA 94117, USA",ChIJtSh9jU6HhYARphVj1jdOi0U,450 STANYAN ST L-B,37.7740749,-122.4538893,1,94117,OK,premise
,,,98 01ST ST ,,,0,,ZERO_RESULTS,
ROOFTOP,"415 Brannan St, San Francisco, CA 94107, USA",ChIJmXJWHtZ_j4ARMQGm0-FAXQ4,415 BRANNAN ST ,37.7796298,-122.3945599,1,94107,OK,premise
ROOFTOP,"1 Zoo Rd, San Francisco, CA 94132, USA",ChIJgU7z4XF9j4ARSU-fSwtUVmk,1 ZOO RD ,37.7329099,-122.50324,1,94132,OK,street_address
ROOFTOP,"2736 20th St, San Francisco, CA 94110, USA",ChIJFQ6ujDZ-j4ARslf8a3BEQ1M,2736 20TH ST ,37.7594028,-122.4087544,2,94110,OK,street_address
ROOFTOP,"546 Valencia St, San Francisco, CA 94110, USA",ChIJpUwg-CJ-j4ARoTsKa36LsXs,546 VALENCIA ST ,37.7641345,-122.4220234,2,94110,OK,street_address
ROOFTOP,"412 Broadway St, Birmingham, AL 35209, USA",ChIJ68MF9EYZiYgRuVk1P4FmDvw,412 BROADWAY ST ,33.468583,-86.80919,3,35209,OK,street_address
ROOFTOP,"1131 Folsom St, San Francisco, CA 94103, USA",ChIJNYM6DYKAhYARX3F5id3d52s,1131 FOLSOM ST ,37.7759437,-122.408433,3,94103,OK,premise
ROOFTOP,"345 Spear St, San Francisco, CA 94105, USA",ChIJyRkCqHqAhYARfiYkm23j9ts,345 SPEAR ST ,37.7899545,-122.389913,2,94105,OK,premise
ROOFTOP,"70 Leidesdorff St, San Francisco, CA 94104, USA",ChIJJVStCIqAhYARCH6IeeM7yQ0,70 LEIDESDORFF ST ,37.792741,-122.4018197,1,94104,OK,street_address
ROOFTOP,"631 Grant Ave, North Mankato, MN 56003, USA",ChIJa80YHdo59IcRRXnR9TDQvNc,631 GRANT AVE ,44.1725691,-94.0177282,1,56003,OK,premise
ROOFTOP,"631 Kearny St, San Francisco, CA 94108, USA",ChIJUSz5GYuAhYARK8t71-TQkYY,631 KEARNY ST ,37.7940903,-122.4049254,1,94108,OK,premise
ROOFTOP,"120 Powell St, San Francisco, CA 94102, USA",ChIJcRBOTo-AhYARoTPJuAx_G8Y,120 POWELL ST,37.7859557,-122.4077287,2,94102,OK,street_address
ROOFTOP,"1375 Noriega St, San Francisco, CA 94122, USA",ChIJHTiHgmKHhYARDEU-eIhQfEw,1375 NORIEGA ST ,37.7539536,-122.4783549,1,94122,OK,street_address
ROOFTOP,"1128 Taraval, San Francisco, CA 94116, USA",ChIJLytMSJB9j4AR7lBDpMGpjXM,1128 TARAVAL ST ,37.7431957,-122.4784073,1,94116,OK,street_address
ROOFTOP,"1411 Polk St, San Francisco, CA 94109, USA",ChIJqfvD25SAhYARyR09CbY72Ao,1411 POLK ST ,37.789924,-122.420824,1,94109,OK,street_address
ROOFTOP,"126 New Montgomery St, San Francisco, CA 94105, USA",ChIJK__rSH2AhYARGhV9bE38-_U,126 NEW MONTGOMERY ST ,37.7869985,-122.4002446,1,94105,OK,street_address
ROOFTOP,"476 Turk St, San Francisco, CA 94102, USA",ChIJRUT6oZCAhYARVA0pG79pzk4,476 TURK ST ,37.7825554,-122.4169332,1,94102,OK,street_address
ROOFTOP,"7575 San Felipe St #301, Houston, TX 77063, USA",ChIJ57fEiZPDQIYRj8_mAdlFb0g, FOOT OF BAKER STREET ST ,29.7500893,-95.5020484,1,77063,OK,"doctor,establishment,health,point_of_interest"
ROOFTOP,"1747 Buchanan St, San Francisco, CA 94115, USA",ChIJW17NzriAhYARh-AXnMggu_o,1747 BUCHANAN ST ,37.7863576,-122.4302457,2,94115,OK,premise
ROOFTOP,"2100 Van Ness Ave, San Francisco, CA 94109, USA",ChIJXQ4S9OmAhYARbIZg-x9hVhg,2100 VAN NESS AVE ,37.7950668,-122.4229237,1,94109,OK,premise
ROOFTOP,"900 North Point St, San Francisco, CA 94109, USA",ChIJmyXUw-CAhYAR47KEV9wlsC0,900 NORTH POINT ST ,37.8058745,-122.4229535,1,94109,OK,street_address
ROOFTOP,"1335 Webster St, San Francisco, CA 94115, USA",ChIJj7SMYbmAhYAR8tOU23aNNhY,1335 WEBSTER ST,37.7827705,-122.4316835,1,94115,OK,premise
ROOFTOP,"320 Mason St, San Francisco, CA 94102, USA",ChIJxfbgBo-AhYARelmY6BKYHB4,320 MASON ST ,37.7866053,-122.409665,2,94102,OK,street_address
ROOFTOP,"900 North Point St, San Francisco, CA 94109, USA",ChIJmyXUw-CAhYAR47KEV9wlsC0,900 NORTH POINT ST #52,37.8058745,-122.4229535,1,94109,OK,street_address
ROOFTOP,"701 Folsom St, San Francisco, CA 94107, USA",ChIJNbvJ1n2AhYARgBiBUbPm46w,701 FOLSOM ST ,37.7835209,-122.3990812,1,94107,OK,street_address
ROOFTOP,"698 Brannan St, San Francisco, CA 94107, USA",ChIJs6wg1NR_j4ARfiBCUVDi044,698 BRANNAN ST ,37.7750692,-122.4009269,1,94107,OK,street_address
,,,500 04TH ST ,,,0,,ZERO_RESULTS,
ROOFTOP,"600 The Embarcadero, San Francisco, CA 94107, USA",ChIJH73uDHeAhYARw4WyqiNKPFg,600 EMBARCADERO ST ,37.7843081,-122.3885411,1,94107,OK,premise
ROOFTOP,"524 Valencia St, San Francisco, CA 94110, USA",ChIJQdd_WSJ-j4ARhEOWc7EEfKg,524 VALENCIA ST ,37.764436,-122.4221605,1,94110,OK,subpremise
ROOFTOP,"25 Russia Ave, San Francisco, CA 94112, USA",ChIJBdbbn4V-j4ARpZbCKZbYE2A,25 RUSSIA AVE ,37.7214225,-122.4366318,1,94112,OK,street_address
ROOFTOP,"2355 Chestnut St, San Francisco, CA 94123, USA",ChIJE4ZWOdSAhYARsE9BoggtBSU,101 SPEAR ST A-16,37.7998754,-122.4420994,1,94123,OK,"establishment,food,point_of_interest,restaurant"
ROOFTOP,"1231 Market St, San Francisco, CA 94103, USA",ChIJoYgVg5yAhYARKVhRpBc8PmE,1231 MARKET ST ,37.7781588,-122.4150923,1,94103,OK,premise
ROOFTOP,"545 Powell St, San Francisco, CA 94108, USA",ChIJ5SYoJIyAhYARQE5DbzhFZbI,545 POWELL ST ,37.7898626,-122.4089861,2,94108,OK,premise
ROOFTOP,"500 Sutter St, San Francisco, CA 94108, USA",ChIJq2w1nI6AhYARKdtfSYew744,500 SUTTER ST ,37.7894904,-122.4089861,1,94108,OK,premise
GEOMETRIC_CENTER,"Pier 43 1/2 First Floor, San Francisco, CA 94133, United States",ChIJQ18AHOOAhYAR-PS1XEfjT_s,PIER 43 1/2,37.809041,-122.414528,1,94133,OK,"cafe,establishment,food,point_of_interest,restaurant"
ROOFTOP,"1131 Grant Ave, San Francisco, CA 94133, USA",ChIJ2xHmf_OAhYARmb0heSKpL4k,1131 GRANT AVE ,37.797262,-122.407124,6,94133,OK,street_address
ROOFTOP,"374 Bush St, San Francisco, CA 94104, USA",ChIJL8wZhomAhYARJHZ2GholEPE,374 BUSH ST ,37.7910009,-122.4035876,1,94104,OK,premise
ROOFTOP,"345 Stockton St FLR 3B, San Francisco, CA 94108, USA",EjVGTFIgM0IsIDM0NSBTdG9ja3RvbiBTdCwgU2FuIEZyYW5jaXNjbywgQ0EgOTQxMDgsIFVTQSIiGiAKFgoUChIJQXozs46AhYAR9FOBKe773UwSBkZMUiAzQg,345 STOCKTON ST FLR 3B,37.7891412,-122.4072161,1,94108,OK,subpremise
ROOFTOP,"400 Jefferson St, Hoboken, NJ 07030, USA",ChIJ6Qmc9F1XwokRPkVLJWQwvGg,400 JEFFERSON ST ,40.7426915,-74.0372417,2,7030,OK,premise
ROOFTOP,"453 Bush St, San Francisco, CA 94108, USA",ChIJpcm9ZImAhYARQ5jPfhYusGo,453 BUSH ST ,37.7904658,-122.4050258,1,94108,OK,premise
ROOFTOP,"240 California St, San Francisco, CA 94111, USA",ChIJLYTdkGGAhYARRaJTPIgx2aQ,240 CALIFORNIA ST ,37.79342,-122.399466,2,94111,OK,street_address
ROOFTOP,"595 Sutter St, San Francisco, CA 94102, USA",ChIJc15ofY6AhYARFO7pyB5zroU,595 SUTTER ST ,37.7888933,-122.4099596,1,94102,OK,premise
ROOFTOP,"217 Columbus Ave, San Francisco, CA 94133, USA",ChIJ7YbyjvSAhYAR5j_VVbAvSUU,217 COLUMBUS AVE ,37.7971323,-122.4060942,2,94133,OK,street_address
ROOFTOP,"222 Front St, San Francisco, CA 94111, USA",ChIJDVstnmGAhYARKlAruBoronA,222 FRONT ST ,37.793815,-122.3986092,2,94111,OK,premise
ROOFTOP,"772 Pacific Ave, San Francisco, CA 94133, USA",ChIJX84hdvOAhYARDPHJLiqhRhk,772 PACIFIC AVE ,37.796959,-122.4080569,1,94133,OK,premise
ROOFTOP,"301 Sacramento St, San Francisco, CA 94111, USA",ChIJLdSXpGGAhYARDawMcv4xfHI,301 SACRAMENTO ST ,37.7941424,-122.3992059,2,94111,OK,street_address
ROOFTOP,"2620 Jones St, San Francisco, CA 94133, USA",ChIJm-RtbOSAhYARUFBu91pPnJA,2620 JONES ST ,37.8054639,-122.416781,1,94133,OK,street_address
ROOFTOP,"1802 Balboa St, San Francisco, CA 94121, USA",ChIJGe_0NhKHhYARgJaJJzBfQEU,1802 BALBOA ST ,37.7767742,-122.4783458,1,94121,OK,premise
ROOFTOP,"100 Bush St, San Francisco, CA 94104, USA",ChIJa9VNPmKAhYARIn10rAiDb94,100 BUSH ST #102,37.7915206,-122.399864,1,94104,OK,street_address
ROOFTOP,"334 Grant Ave, San Francisco, CA 94108, USA",ChIJPVUmZImAhYARvTZXP2uUOj0,334 GRANT AVE ,37.7902023,-122.4054049,1,94108,OK,street_address
ROOFTOP,"Russ Building, 235 Montgomery St, San Francisco, CA 94104, USA",ChIJZ5u_iomAhYARNeP4vZKvCVY,235 MONTGOMERY ST ,37.7913674,-122.4028796,2,94104,OK,premise
ROOFTOP,"170 O'Farrell St 8TH FLOOR, San Francisco, CA 94102, USA",Ejk4VEggRkxPT1IsIDE3MCBPJ0ZhcnJlbGwgU3QsIFNhbiBGcmFuY2lzY28sIENBIDk0MTAyLCBVU0EiJRojChYKFAoSCcmxDTSPgIWAEd57zYi0myK-Egk4VEggRkxPT1I,170 O'FARRELL ST 8TH FLOOR,37.7867986,-122.4073963,1,94102,OK,subpremise
ROOFTOP,"4348 California St, San Francisco, CA 94118, USA",ChIJjY9qmjyHhYARf7didt8CFc0,4348 CALIFORNIA STREET,37.7851749,-122.4643211,1,94118,OK,street_address
ROOFTOP,"155 Sansome St 10TH FLOOR, San Francisco, CA 94104, USA",EjgxMFRIIEZMT09SLCAxNTUgU2Fuc29tZSBTdCwgU2FuIEZyYW5jaXNjbywgQ0EgOTQxMDQsIFVTQSImGiQKFgoUChIJs9RJBmKAhYAR2y7uH-8b9kMSCjEwVEggRkxPT1I,"155 SANSOME ST, 10TH FLOOR",37.7916591,-122.4012644,1,94104,OK,subpremise
ROOFTOP,"150 Stockton St, San Francisco, CA 94108, USA",ChIJE7mow4iAhYARqNnc0VuooSk,150 STOCKTON ST,37.7873324,-122.4061984,1,94108,OK,premise
ROOFTOP,"2801 Geary Blvd, San Francisco, CA 94118, USA",ChIJE8QWgkqHhYARbgGo-22ErHE,2801 GEARY BLVD ,37.7819584,-122.4491345,1,94118,OK,premise
ROOFTOP,"3546 Balboa St, San Francisco, CA 94121, USA",ChIJa-qIDqaHhYARpnvdE0gsq6A,3546 BALBOA ST ,37.7758994,-122.4971746,1,94121,OK,street_address
ROOFTOP,"5821 Geary Blvd, San Francisco, CA 94121, USA",ChIJRXsoxw-HhYARbP-YVFpiSEg,5821 GEARY BLVD ,37.7798827,-122.4819752,1,94121,OK,street_address
ROOFTOP,"4019 Judah St, San Francisco, CA 94122, USA",ChIJLz3xM5eHhYARHaI05NxdXJg,4019 JUDAH ST ,37.7602522,-122.5051395,1,94122,OK,premise
ROOFTOP,"850 La Playa St, San Francisco, CA 94121, USA",ChIJS3eA-bmHhYAR7E2bA_ugEbg,850 LA PLAYA ST,37.7725837,-122.5094277,1,94121,OK,premise
ROOFTOP,"2100 Taraval, San Francisco, CA 94116, USA",ChIJZT7gG4N9j4ARuVi4O68NLXk,2100 TARAVAL ST ,37.7426992,-122.4887717,1,94116,OK,premise
ROOFTOP,"398 Hayes St, San Francisco, CA 94102, USA",ChIJOw6IlZiAhYARHDWSDGfwAUQ,398 HAYES ST ,37.7770888,-122.422874,1,94102,OK,street_address
ROOFTOP,"2007 16th St, Lubbock, TX 79401, USA",ChIJb2dWVjNt_oYRmXOsdxL8FV0,2007 16TH ST ,33.580582,-101.8604633,1,79401,OK,premise
ROOFTOP,"3036 16th St, San Francisco, CA 94103, USA",ChIJATANpSN-j4ARoGDGFGifsbo,3036 16TH ST ,37.765161,-122.420443,1,94103,OK,"establishment,food,point_of_interest,restaurant"
RANGE_INTERPOLATED,"600 Guerrero St, San Francisco, CA 94110, USA",Ei02MDAgR3VlcnJlcm8gU3QsIFNhbiBGcmFuY2lzY28sIENBIDk0MTEwLCBVU0EiGxIZChQKEgmhpy1XPX6PgBESK5An1-ikkBDYBA,0600 GUERRERO ST,37.7613868,-122.4240775,1,94110,OK,street_address
RANGE_INTERPOLATED,"994 Guerrero St, San Francisco, CA 94110, USA",Ei05OTQgR3VlcnJlcm8gU3QsIFNhbiBGcmFuY2lzY28sIENBIDk0MTEwLCBVU0EiGxIZChQKEgm380EQPn6PgBETnbuBwSp8cxDiBw,0994 GUERRERO ST,37.7553411,-122.4235138,1,94110,OK,street_address
ROOFTOP,"2420 Mission St, San Francisco, CA 94110, USA",ChIJTRWnGzx-j4AR9W6F80EZTQM,2420 MISSION ST ,37.7582674,-122.4193551,4,94110,OK,street_address
ROOFTOP,"2839 Mission St, San Francisco, CA 94110, USA",ChIJQ5h0Lkd-j4AR2yfBQncaFbw,2839 MISSION ST,37.751588,-122.418253,1,94110,OK,street_address
ROOFTOP,"1199 Valencia St, San Francisco, CA 94110, USA",ChIJhdOscj9-j4ARbtV-P7FGRkE,1199 VALENCIA ST,37.7538422,-122.4206999,1,94110,OK,street_address
ROOFTOP,"530 Haight St, San Francisco, CA 94117, USA",ChIJ9wc0vqaAhYAR3SVLbhgxeds,530 HAIGHT ST ,37.7721618,-122.431029,1,94117,OK,street_address
ROOFTOP,"557 Haight St, San Francisco, CA 94117, USA",ChIJcw2h66aAhYARUKs4Kj_4tqg,557 HAIGHT ST ,37.7718,-122.4313862,1,94117,OK,street_address
ROOFTOP,"324 Hayes St, Salinas, CA 93906, USA",ChIJaxQOADT_jYARBCBHIJ49zJ8,324 HAYES ST ,36.697856,-121.656789,3,93906,OK,street_address
ROOFTOP,"201 Ivy St, New Llano, LA 71461, USA",ChIJL2gdc5REOoYRtYl8H315a_s,201 IVY ST ,31.1106476,-93.283045,7,71461,OK,street_address
ROOFTOP,"525 Laguna St, San Francisco, CA 94102, USA",ChIJPUsvTaKAhYARte94qfYm4d0,525 LAGUNA ST ,37.776239,-122.4264188,3,94102,OK,premise
ROOFTOP,"1658 Market St, San Francisco, CA 94102, USA",ChIJd6fQq5-AhYARuP2dXptywbQ,1658 MARKET ST ,37.773614,-122.4216406,1,94102,OK,subpremise
ROOFTOP,"100, 2300 16th St, San Francisco, CA 94103, USA",ChIJqdud4zF-j4ARUWHxWkpcXyk,2300 16TH ST ,37.7659054,-122.407965,4,94103,OK,street_address
ROOFTOP,"3071 16th St, San Francisco, CA 94103, USA",ChIJ1Rd3qyN-j4AR_YijzhBf2nM,3071 16TH ST ,37.7648437,-122.4211689,1,94103,OK,street_address
ROOFTOP,"2424 Mariposa St, San Francisco, CA 94110, USA",ChIJ5QrRcDF-j4ARgqxbetV5aq0,2424A MARIPOSA ST ,37.7633861,-122.4079241,1,94110,OK,premise
ROOFTOP,"28 W Portal Ave, San Francisco, CA 94127, USA",ChIJaa96Vup9j4ARldDj3cZVJ-M,001 WEST PORTAL AVE ,37.7406313,-122.466404,1,94127,OK,"bakery,cafe,establishment,food,point_of_interest,store"
ROOFTOP,"515 Valencia St, San Francisco, CA 94110, USA",ChIJk50BVCJ-j4AR_QyHzDDSd1s,515 VALENCIA ST ,37.7645809,-122.4216212,1,94110,OK,premise
ROOFTOP,"1601 Mission St, San Francisco, CA 94103, USA",ChIJt8uRqSB-j4AR4hhO75jEBS8,1601 MISSION ST ,37.7721023,-122.418809,5,94103,OK,premise
ROOFTOP,"1500 Van Ness Ave, San Francisco, CA 94109, USA",ChIJq4bxJZWAhYARbUKCd7HIUDk,1500 VAN NESS AVE ,37.7898148,-122.4217291,1,94109,OK,premise
ROOFTOP,"744 Washington St, San Francisco, CA 94108, USA",ChIJfZCbtPSAhYARwLxuz92y7nU,744 WASHINGTON ST ,37.7953772,-122.4059993,2,94108,OK,premise
ROOFTOP,"635 Portola Dr, San Francisco, CA 94127, USA",ChIJI32Z0uB9j4ARtUXK0Muln-Q,635 PORTOLA DRIVE,37.7447979,-122.4523208,1,94127,OK,premise
ROOFTOP,"737 Portola Dr, San Francisco, CA 94127, USA",ChIJC0_ZPud9j4ARQYLNzN7Ju0k,737 PORTOLA DR ,37.7439098,-122.453513,1,94127,OK,premise
ROOFTOP,"1737 Post St, San Francisco, CA 94115, USA",ChIJD5nH17iAhYARgkFAdxQx0eE,1737 POST ST ,37.785329,-122.430369,1,94115,OK,street_address
ROOFTOP,"1556 Noriega St, San Francisco, CA 94122, USA",ChIJw5N3tGKHhYAR7jkPcN_nx-4,1556 NORIEGA ST ,37.7542081,-122.4804645,1,94122,OK,street_address
ROOFTOP,"2323 Van Ness Ave, San Francisco, CA 94109, USA",ChIJPVlygsKAhYARdxWWI-57kUA,2323 VAN NESS AVE ,37.7971887,-122.4239694,1,94109,OK,street_address
ROOFTOP,"501 Post St, San Francisco, CA 94102, USA",ChIJty-1XY6AhYARIUyc8q_QN-Q,501 POST ST ,37.787864,-122.4104021,1,94102,OK,premise
ROOFTOP,"538 Valencia St, San Francisco, CA 94110, USA",ChIJmx1VWCJ-j4ARWmQUvUVOS80,538 VALENCIA ST ,37.764282,-122.4221162,1,94110,OK,subpremise
ROOFTOP,"3339 Steiner St, San Francisco, CA 94123, USA",ChIJB3HjKNeAhYARBicGGqQbm58,3339 STEINER ST ,37.8001922,-122.4380005,1,94123,OK,street_address
ROOFTOP,"650 Howard St, San Francisco, CA 94105, USA",ChIJt8wdEn2AhYARDOhyyFcv2oI,650 HOWARD ST ,37.7859444,-122.3996934,1,94105,OK,premise
ROOFTOP,"300 Grove St, Worcester, MA 01605, USA",ChIJmzX3SVQG5IkRocpMgG2jdaw,300 GROVE ST ,42.2833521,-71.806451,1,1605,OK,street_address
ROOFTOP,"735 7th Ave, San Francisco, CA 94118, USA",ChIJv3jQ4UCHhYAR7Gr3AI9kRqs,735 07TH AVE ,37.7743776,-122.4655909,1,94118,OK,"establishment,food,grocery_or_supermarket,point_of_interest,store"
RANGE_INTERPOLATED,"436 Balboa St, San Francisco, CA 94118, USA",Eis0MzYgQmFsYm9hIFN0LCBTYW4gRnJhbmNpc2NvLCBDQSA5NDExOCwgVVNBIhsSGQoUChIJuTSQU0eHhYAROq7DVSdn8U4QtAM,0436 BALBOA ST ,37.7774202,-122.4636392,1,94118,OK,street_address
ROOFTOP,"3445 California St, San Francisco, CA 94118, USA",ChIJAeIQizOHhYARZXelJU1nSxU,3445 CALIFORNIA ST ,37.7864626,-122.4508817,1,94118,OK,premise
ROOFTOP,"3567 Geary Blvd, San Francisco, CA 94118, USA",ChIJk8rjkTeHhYARFxrmPcAPoj8,3567 GEARY BLVD ,37.781117,-122.457361,1,94118,OK,street_address
ROOFTOP,"22 Peace Plz, San Francisco, CA 94115, USA",ChIJDzWL0L6AhYAR_lMVYEDJ4t0,22 PEACE PLAZA  #505,37.7852847,-122.429177,1,94115,OK,street_address
ROOFTOP,"260 Valencia St, San Francisco, CA 94103, USA",ChIJoyYVtSF-j4AR7Fcwc_wpM_U,260 VALENCIA ST ,37.7686674,-122.4225628,1,94103,OK,premise
ROOFTOP,"35 Powell St, San Francisco, CA 94102, USA",ChIJIah89YWAhYARuJrpYHRdWm8,35 POWELL ST ,37.7850164,-122.4083445,2,94102,OK,premise
ROOFTOP,"2170 Bryant St, Denver, CO 80211, USA",ChIJIwYvY7t4bIcRLZD3m7AWkFo,2170 BRYANT ST ,39.7490404,-105.0186213,3,80211,OK,premise
ROOFTOP,"495 Geary St 15TH FLOOR, San Francisco, CA 94102, USA",EjYxNVRIIEZMT09SLCA0OTUgR2VhcnkgU3QsIFNhbiBGcmFuY2lzY28sIENBIDk0MTAyLCBVU0EiJhokChYKFAoSCWPtqUuOgIWAEWC9pjnRDQUgEgoxNVRIIEZMT09S,495 GEARY ST 15TH FLOOR,37.7867731,-122.4112871,1,94102,OK,subpremise
ROOFTOP,"495 Geary St, San Francisco, CA 94102, USA",ChIJFUBxSY6AhYARwOaLV7TsLjw,495 GEARY ST MAIN LEVEL,37.7867167,-122.4111737,1,94102,OK,"establishment,lodging,point_of_interest"
ROOFTOP,"401 Mason St, San Francisco, CA 94102, USA",ChIJvVzjVo6AhYARBWDFUe-hMZs,401 MASON ST ,37.7872975,-122.4101395,1,94102,OK,street_address
ROOFTOP,"414 Mason St 8TH FLOOR, San Francisco, CA 94102, USA",EjU4VEggRkxPT1IsIDQxNCBNYXNvbiBTdCwgU2FuIEZyYW5jaXNjbywgQ0EgOTQxMDIsIFVTQSIlGiMKFgoUChIJr67z-Y6AhYARmSc6vcIvfUMSCThUSCBGTE9PUg,414 MASON ST  8TH FLOOR,37.7875114,-122.4097248,1,94102,OK,subpremise
ROOFTOP,"243 O'Farrell St, San Francisco, CA 94102, USA",ChIJs8zMFI-AhYAROkq_TrM0NTk,243 O'FARRELL ST ,37.7859988,-122.4087206,1,94102,OK,premise
ROOFTOP,"419 O'Farrell St, San Francisco, CA 94102, USA",ChIJh4AEz4-AhYARXsIEprl4cwk,419 O'FARRELL ST ,37.7858546,-122.4117609,1,94102,OK,street_address
ROOFTOP,"640 Sutter St, San Francisco, CA 94102, USA",ChIJJfSO3o2AhYARiqSE7fThsD8,640 SUTTER ST ,37.789193,-122.411122,1,94102,OK,street_address
ROOFTOP,"733 Washington St, Walpole, MA 02081, USA",ChIJj77KyNF95IkRKj8R3qsQTsM,733 WASHINGTON ST ,42.1445918,-71.23162,2,2081,OK,premise
ROOFTOP,"1324 Powell St, Emeryville, CA 94608, USA",ChIJZVhbImh-hYARpqTirz8e5v0,1324 POWELL ST ,37.8398502,-122.2875691,5,94608,OK,street_address
ROOFTOP,"5290 Diamond Heights Blvd, San Francisco, CA 94131, USA",ChIJzzSNt3N-j4ARdjP1w3MED5I,5290 DIAMOND HEIGHTS BLVD ,37.7435556,-122.4391154,1,94131,OK,premise
ROOFTOP,"434 Castro St, San Francisco, CA 94114, USA",ChIJqTm3Uht-j4ARZER0OF8chUI,434 CASTRO ST ,37.7619014,-122.4353332,2,94114,OK,premise
ROOFTOP,"2020 Market St, San Francisco, CA 94114, USA",ChIJfUObMh5-j4ARf6X3u2Zltfk,2020 MARKET ST ,37.7688946,-122.4279658,1,94114,OK,street_address
ROOFTOP,"3120 16th St NW, Washington, DC 20010, USA",ChIJxcgO_SDIt4kRuBgGbpQrnUg,3120 16TH ST ,38.929393,-77.036839,6,20010,OK,premise
ROOFTOP,"598 Valencia St, San Francisco, CA 94110, USA",ChIJQzyd5SJ-j4ARAmASBRFGd9Y,598 VALENCIA ST ,37.7634009,-122.4219551,1,94110,OK,street_address
ROOFTOP,"307 Church St, Yorkville, IL 60560, USA",ChIJbSsYIEnqDogRXmBkzz1plFs,307 CHURCH ST ,41.6468379,-88.4479065,1,60560,OK,street_address
ROOFTOP,"599 Castro St, Mountain View, CA 94041, USA",ChIJlwIx_jK3j4ARqjMstiLpw5A,599 CASTRO,37.3883886,-122.082144,1,94041,OK,street_address
ROOFTOP,"1745 Folsom St, San Francisco, CA 94103, USA",ChIJkXSreyZ-j4ARhBbNR1btD-Q,1745 FOLSOM ST ,37.7691251,-122.4151401,4,94103,OK,street_address
ROOFTOP,"110 Natoma St, San Francisco, CA 94105, USA",ChIJ9eKhJH2AhYARt6-eFVir7kw,110 NATOMA ST ,37.786955,-122.399255,1,94105,OK,street_address
ROOFTOP,"661 Howard St, San Francisco, CA 94105, USA",ChIJb-_ZC32AhYARQ_tFWfUg95Y,661 HOWARD ST ,37.7854819,-122.3995991,1,94105,OK,street_address
ROOFTOP,"2426 San Bruno Ave, San Francisco, CA 94134, USA",ChIJvXGfQvx-j4ARLgIUv_1r61s,2426 SAN BRUNO AVE ,37.7317147,-122.4057338,2,94134,OK,premise
ROOFTOP,"2626 San Bruno Ave, San Francisco, CA 94134, USA",ChIJvRZ62OJ-j4AR-sFT3OgLCZg,2626 SAN BRUNO AVE ,37.7284027,-122.4042071,1,94134,OK,premise
APPROXIMATE,"San Francisco, CA, USA",ChIJIQBpAG2ahYAR_6128GcTUEo,695 03RD ST ,37.7749295,-122.4194155,1,,OK,"locality,political"
ROOFTOP,"737 Diamond St, San Francisco, CA 94114, USA",ChIJdf9H7Q1-j4ARz1jC11ruXDc,737 DIAMOND ST,37.7515096,-122.4361567,1,94114,OK,"bar,establishment,food,point_of_interest,restaurant"
ROOFTOP,"4138 24th St, San Francisco, CA 94114, USA",ChIJDyVOcRJ-j4AREpiRJ0h4iQ4,4138 24TH ST ,37.7514607,-122.4350231,2,94114,OK,premise
ROOFTOP,"3350 Mission St, San Francisco, CA 94110, USA",ChIJH3w4xkJ-j4ARCih0SDKxAtI,3350 MISSION ST ,37.7432206,-122.422429,1,94110,OK,premise
ROOFTOP,"3346 Mission St, San Francisco, CA 94110, USA",ChIJnTyz0EJ-j4ARFMZAKiIQir0,3346 MISSION ST ,37.7433824,-122.4216074,1,94110,OK,premise
ROOFTOP,"2323 Chestnut St, San Francisco, CA 94123, USA",ChIJubniItSAhYARsfCmNNTzHgQ,2323 CHESTNUT ST ,37.7999248,-122.441659,4,94123,OK,subpremise
ROOFTOP,"3199 Fillmore St, San Francisco, CA 94123, USA",ChIJQdWokNCAhYARqrtxu-c_t5w,3199 FILLMORE ST ,37.7988167,-122.4360935,1,94123,OK,premise
ROOFTOP,"3345 Steiner St, San Francisco, CA 94123, USA",ChIJh0mEKNeAhYARTpjZLbFP7ZE,3345 STEINER ST ,37.8002836,-122.4380759,1,94123,OK,premise
ROOFTOP,"245 Market St, San Francisco, CA 94105, USA",ChIJ3VXk8WOAhYARu3ORRrwJXYQ,245 MARKET ST #3,37.7925413,-122.3961531,1,94105,OK,premise
ROOFTOP,"1040 Columbus Ave, San Francisco, CA 94133, USA",ChIJzXJnAeWAhYAR9hfJzpEdL5c,1040 COLUMBUS AVE ,37.8041563,-122.4152693,1,94133,OK,premise
ROOFTOP,"4248 18th St, San Francisco, CA 94114, USA",ChIJwUQOlQR-j4ARAb6tTHK78bA,4248 18TH ST ,37.7608777,-122.4369421,1,94114,OK,"establishment,food,point_of_interest,restaurant"
ROOFTOP,"900 Hyde St 2ND FLOOR, San Francisco, CA 94109, USA",EjQyTkQgRkxPT1IsIDkwMCBIeWRlIFN0LCBTYW4gRnJhbmNpc2NvLCBDQSA5NDEwOSwgVVNBIiUaIwoWChQKEglt_AEKk4CFgBEQ6u8SrTVb9RIJMk5EIEZMT09S,"900 HYDE ST, 2ND FLOOR",37.7893799,-122.4167294,1,94109,OK,subpremise
ROOFTOP,"221 Montgomery St, San Francisco, CA 94104, USA",ChIJq4nh84mAhYARDKgejVWq1K8,221 MONTGOMERY ST ,37.7912547,-122.4026404,2,94104,OK,street_address
ROOFTOP,"1686 Market St, San Francisco, CA 94102, USA",ChIJTz00o5-AhYARZ3lKBvuOn4U,1686 MARKET ST ,37.7733511,-122.4220711,1,94102,OK,street_address
ROOFTOP,"San Francisco War Memorial and Performing Arts Center, 301 Van Ness Ave, San Francisco, CA 94102, USA",ChIJjVBLAZmAhYARfZ_MYqsmaJo,301 VAN NESS AVE ,37.7785999,-122.4208,2,94102,OK,premise
ROOFTOP,"20 Cosmo Pl, San Francisco, CA 94109, USA",ChIJE1z3A46AhYARe0-Uj9uOygs,20 COSMO PL ,37.7882314,-122.4124154,1,94109,OK,premise
ROOFTOP,"251 Geary Blvd, San Francisco, CA 94102, USA",ChIJG-PkK4-AhYARxW6vm0X9kCQ,"251 GEARY ST, BASEMENT (MACY'S)",37.7871826,-122.407378,2,94102,OK,"establishment,food,point_of_interest,restaurant"
ROOFTOP,"833 Mission St, San Francisco, CA 94103, USA",ChIJfydoWIaAhYARqvM3-4uhNj0,833 MISSION ST ,37.7833223,-122.4054324,1,94103,OK,street_address
ROOFTOP,"6135 Geary Blvd, San Francisco, CA 94121, USA",ChIJWdqlRA-HhYARxWZv_U0lONk,6135 GEARY BLVD ,37.7797628,-122.485277,1,94121,OK,premise
ROOFTOP,"401 Columbus Ave, San Francisco, CA 94133, USA",ChIJvbST3fOAhYARBptXQIGd3jU,401 COLUMBUS AVE ,37.7987614,-122.4084902,3,94133,OK,street_address
GEOMETRIC_CENTER,"The Embarcadero, San Francisco, CA 94105, USA",ChIJzVewMSeBhYAR1kYITFLiAL4,PIER 3  THE EMBARCADERO,37.7980305,-122.394973,1,94105,OK,"establishment,point_of_interest"
ROOFTOP,"Gap Inc, 2 Folsom St, San Francisco, CA 94105, USA",ChIJI31XTmWAhYARsCxX6yjUtP8,2 FOLSOM STREET,37.7906941,-122.3910195,1,94105,OK,premise
ROOFTOP,"699 Delancey St, San Francisco, CA 94107, USA",ChIJbaoXmneAhYARoJw5w9HDepA,699 DELANCEY ST,37.7832515,-122.3890722,1,94107,OK,premise
ROOFTOP,"211 W Main St, Lavonia, GA 30553, USA",ChIJP1AOCRqbWIgR3ZXg5fEPiBk,211 MAIN ST 9/F,34.436427,-83.106979,1,30553,OK,"bakery,establishment,food,point_of_interest,restaurant,store"
ROOFTOP,"333 11th St, San Francisco, CA 94103, USA",ChIJwygZLSZ-j4ARK0dmJElrGfI,333 11TH ST ,37.7715426,-122.4133157,5,94103,OK,premise
ROOFTOP,"309 Hyde St, San Francisco, CA 94109, USA",ChIJ8z6k8pCAhYARBohP4nTaEFY,309 HYDE ST ,37.7837754,-122.4160848,1,94109,OK,street_address
ROOFTOP,"950 Geary St, San Francisco, CA 94109, USA",ChIJTXm-qJaAhYARH9rsAbUkHVA,950 GEARY ST ,37.7861924,-122.4189859,3,94109,OK,premise
ROOFTOP,"One Ferry Building, San Francisco, CA 94111, USA",ChIJWTGPjmaAhYARxz6l1hOj92w,1 FERRY BUILDING  #23,37.7955703,-122.3933208,1,94111,OK,"establishment,point_of_interest"
ROOFTOP,"552 Broadway, New York, NY 10012, USA",ChIJcahv3o5ZwokRfNoAwPk7-f0,552 BROADWAY ST ,40.7236446,-73.9978852,1,10012,OK,street_address
ROOFTOP,"1031 Kearny St, San Francisco, CA 94133, USA",ChIJ5f8ji_SAhYAR7dnPecffMWA,1031 KEARNY ST ,37.79758,-122.405734,2,94133,OK,street_address
ROOFTOP,"915 Taraval, San Francisco, CA 94116, USA",ChIJSxMmnJF9j4ARl_vdtaW7vXo,915 TARAVAL,37.7429019,-122.4760121,1,94116,OK,street_address
GEOMETRIC_CENTER,"Pier 3, Brooklyn, NY, USA",ChIJMxMHWUdawokRZuQujb__9UU,PIER 3,40.697823,-73.999531,1,,OK,premise
ROOFTOP,"2990 Baker St, San Francisco, CA 94123, USA",ChIJO-GtuNSAhYAReTgKxAdaW5o,2990 BAKER ST ,37.7985232,-122.4457286,1,94123,OK,premise
ROOFTOP,"520 4th St, San Francisco, CA 94107, USA",ChIJnfg5e3-AhYAR67pBjpybOCg,520 4TH ST,37.7791177,-122.3979233,1,94107,OK,premise
ROOFTOP,"1300 Columbus Ave, San Francisco, CA 94133, USA",ChIJm1665OOAhYARA03HVUaX7B4,1300 COLUMBUS AVE ,37.806587,-122.4180126,1,94133,OK,premise
ROOFTOP,"92 Hudson River Greenway, New York, NY 10014, USA",ChIJ9dHvB_JZwokRowYQ7b1LdAY,PIER 40,40.7292171,-74.0112972,1,10014,OK,"establishment,point_of_interest"
ROOFTOP,"2100 Sunnydale Ave, San Francisco, CA 94134, USA",ChIJVQMb1JR-j4ARCfxlUF8RO6I,2100 SUNNYDALE AVE ,37.7160078,-122.4243961,1,94134,OK,street_address
ROOFTOP,"298 Divisadero St, San Francisco, CA 94117, USA",ChIJK1QYOK-AhYARJ6CQjzdcPZ4,298 DIVISADERO ST ,37.7721319,-122.4369257,2,94117,OK,premise
ROOFTOP,"200 Fillmore St, Denver, CO 80206, USA",ChIJbVRVAZd-bIcR1WGC_z7zyh4,200 FILLMORE ST ,39.7196557,-104.9531237,3,80206,OK,street_address
ROOFTOP,"1081 Post St, San Francisco, CA 94109, USA",ChIJ45PKHpSAhYAR3C1o75UNJbM,1081 POST ST ,37.7866128,-122.4194948,1,94109,OK,premise
,,,201 09TH ST ,,,0,,ZERO_RESULTS,
ROOFTOP,"3249a Mission St, San Francisco, CA 94110, USA",ChIJLepqEUN-j4ARXnChdqq57GU,3249A MISSION ST ,37.744769,-122.4201533,1,94110,OK,street_address
ROOFTOP,"1233 17th St, San Francisco, CA 94107, USA",ChIJW2XlB8x_j4ARu0JgEX5FM8o,1233 17TH ST ,37.7649597,-122.3964408,1,94107,OK,premise
ROOFTOP,"714 Montgomery St, San Francisco, CA 94111, USA",ChIJL-bZy4qAhYARB0u_3DTl_2A,714 MONTGOMERY ST ,37.7958756,-122.4031672,1,94111,OK,premise
ROOFTOP,"475 Francisco St, San Francisco, CA 94133, USA",ChIJN6ZmLeWAhYARHU3yZL_UXtM,475 FRANCISCO ST ,37.8046506,-122.4129371,1,94133,OK,street_address
ROOFTOP,"Pier 39 #5-Q, San Francisco, CA 94133, USA",ChIJHSGzi_yAhYARYmNFtd5p6ds,PIER 39  SPACE D-3,37.80895,-122.4098237,1,94133,OK,"bakery,cafe,establishment,food,point_of_interest,restaurant,store"
ROOFTOP,"4073 24th St, San Francisco, CA 94114, USA",ChIJS7ZjWBJ-j4ARpIgdEwdSMDI,4073 24TH ST ,37.7511609,-122.4334399,1,94114,OK,street_address
,,,282 09TH ST ,,,0,,ZERO_RESULTS,
ROOFTOP,"3458 Mission St, San Francisco, CA 94110, USA",ChIJsaceQV1-j4ARdULu6RFtrsE,3458 MISSION ST ,37.7414111,-122.4229015,1,94110,OK,premise
ROOFTOP,"300 Francisco St, San Francisco, CA 94133, USA",ChIJxwWg8PqAhYARlxJaZ9o99YM,300 FRANCISCO ST ,37.8052455,-122.4103357,1,94133,OK,premise
,,,160 JEFFERSON  2ND FLOOR,,,0,,ZERO_RESULTS,
ROOFTOP,"3900 17th St, San Francisco, CA 94114, USA",ChIJQStPext-j4ARl8-XAf24U84,3900 17TH ST ,37.7627143,-122.4331035,3,94114,OK,street_address
ROOFTOP,"298 Guerrero St, San Francisco, CA 94103, USA",ChIJwUZNbx9-j4ARD5fZnyuvPm0,298 GUERRERO ST ,37.7665343,-122.4245809,1,94103,OK,premise
ROOFTOP,"101 Castro St, San Francisco, CA 94114, USA",ChIJE_aywmh_j4ARS-pL_xsIl8Y,101 CASTRO ST ,37.7671668,-122.4354116,2,94114,OK,street_address
ROOFTOP,"3995 24th St, San Francisco, CA 94114, USA",ChIJK3EgDxN-j4ARGiDRHomnlHU,3995 24TH ST ,37.7513137,-122.4316811,1,94114,OK,street_address
ROOFTOP,"3639 18th St, San Francisco, CA 94110, USA",ChIJL2WWBBh-j4ARM9ccL3BBP_U,3639 18TH ST ,37.7613327,-122.4247155,1,94110,OK,premise
ROOFTOP,"3933 24th St, San Francisco, CA 94114, USA",ChIJtd7IcxN-j4AR8g5x06LceFY,3933 24TH ST ,37.7513727,-122.430452,1,94114,OK,"bakery,establishment,food,point_of_interest,restaurant,store"
ROOFTOP,"One Ferry Building, San Francisco, CA 94111, USA",ChIJWTGPjmaAhYARxz6l1hOj92w,1 FERRY BUILDING  #13,37.7955703,-122.3933208,1,94111,OK,"establishment,point_of_interest"
ROOFTOP,"300 Church St, Bullhead City, AZ 86442, USA",ChIJE7xan6dGzoARdxH2URHSq-k,300 CHURCH ST ,35.1117201,-114.6338108,2,86442,OK,premise
ROOFTOP,"2695 San Bruno Ave, San Francisco, CA 94134, USA",ChIJ5dHL6OJ-j4ARvzjFATxZhaI,2695 SAN BRUNO AVE ,37.7279024,-122.4034106,2,94134,OK,premise
ROOFTOP,"274 Brannan St, San Francisco, CA 94107, USA",ChIJCbMXSXiAhYARXwz_YdCa__Q,274 BRANNAN ST ,37.7826083,-122.3917718,1,94107,OK,premise
ROOFTOP,"1600 Holloway Ave, San Francisco, CA 94132, USA",ChIJEaQJfqV9j4ARm8dWmX2G82s,1600 HOLLOWAY AVE ,37.7212,-122.4768438,1,94132,OK,street_address
,,,397 08TH ST ,,,0,,ZERO_RESULTS,
ROOFTOP,"1045 Stockton St, San Francisco, CA 94108, USA",ChIJAWP8QPOAhYARzrxvfrjMIos,1045 STOCKTON ST ,37.7955059,-122.4084053,4,94108,OK,street_address
ROOFTOP,"2801 Taylor St, San Francisco, CA 94133, USA",ChIJFx5Qr-OAhYARwGqhfFdOG1o,2801 TAYLOR ST ,37.8083304,-122.4159728,5,94133,OK,street_address
ROOFTOP,"1899 Irving St, San Francisco, CA 94122, USA",ChIJd2Eif2WHhYARO-l0ZvaWd0I,1899 IRVING ST ,37.7633762,-122.478046,2,94122,OK,street_address
RANGE_INTERPOLATED,"54 W Portal Ave, San Francisco, CA 94127, USA",Ei01NCBXIFBvcnRhbCBBdmUsIFNhbiBGcmFuY2lzY28sIENBIDk0MTI3LCBVU0EiGhIYChQKEgkPJBFY6n2PgBG0PXA5UvxZ8BA2,054 WEST PORTAL AVE,37.7403622,-122.4666763,1,94127,OK,street_address
ROOFTOP,"122 W Portal Ave, San Francisco, CA 94127, USA",ChIJDZnG6-p9j4ARkDAR51r2OuA,122 WEST PORTAL AVE ,37.7395545,-122.4675902,1,94127,OK,street_address
ROOFTOP,"2201 Taraval, San Francisco, CA 94116, USA",ChIJJUq354J9j4AR3ZIbqxJ0Bjo,2201 TARAVAL ST ,37.7422322,-122.489776,1,94116,OK,premise
ROOFTOP,"2801 Jones St, San Francisco, CA 94133, USA",ChIJt8Bh2-OAhYARsqglDveFV-s,2801 JONES ST #111,37.807248,-122.417559,2,94133,OK,street_address
ROOFTOP,"1700 Filbert St, San Francisco, CA 94123, USA",ChIJd2i5wtyAhYAR0ob95Cq6ndw,1700 FILBERT ST ,37.7992784,-122.4276797,2,94123,OK,premise
ROOFTOP,"2401 Chestnut St, Everett, WA 98201, USA",ChIJ-79bpOuqmlQR1SGsMHZQehU,2401 CHESTNUT ST ,47.9854683,-122.1877116,3,98201,OK,premise
ROOFTOP,"2846 Mission St, San Francisco, CA 94110, USA",ChIJdVZM0kB-j4ARssdpRco0PlI,2846 MISSION ST,37.7513563,-122.4186541,1,94110,OK,premise
ROOFTOP,"2199 Sutter St, San Francisco, CA 94115, USA",ChIJw4YV4beAhYARDx3LgJxAE9w,2199 SUTTER ST ,37.7856614,-122.4365624,1,94115,OK,street_address
ROOFTOP,"648 Andover St, Lowell, MA 01852, USA",ChIJI5CJn5ym44kRqmjwHAzHG2w,648 ANDOVER ST ,42.6450439,-71.2816006,2,1852,OK,street_address
ROOFTOP,"5169 Mission St, San Francisco, CA 94112, USA",ChIJG7Cegpx-j4ARJnm_G8x6EhM,5169 MISSION ST ,37.7159294,-122.4411095,1,94112,OK,premise
ROOFTOP,"2155 Bayshore Blvd, San Francisco, CA 94134, USA",ChIJ4ekZjid_j4AR4j16rqHyOrU,2155 BAYSHORE BLVD ,37.7126535,-122.4007432,2,94134,OK,premise
ROOFTOP,"1003 Market St, Laredo, TX 78040, USA",ChIJWcNIAtkjYYYRDa-_h_OsyQc,1003 MARKET ST ,27.503629,-99.4862622,2,78040,OK,premise
ROOFTOP,"2203 Geneva Ave, San Francisco, CA 94134, USA",ChIJj25Qk8Z-j4ARLRU_pqplwZs,2203 GENEVA AVE ,37.7085187,-122.4196939,1,94134,OK,street_address
GEOMETRIC_CENTER,"Beach St & The Embarcadero, San Francisco, CA 94133, United States",ChIJHSGzi_yAhYARnrPmDWAx9ro,PIER 39  SPACE Q2,37.808673,-122.409821,1,94133,OK,"establishment,point_of_interest,premise,shopping_mall"
ROOFTOP,"2830 Ingalls St, San Francisco, CA 94124, USA",ChIJ_fe73yJ_j4ARCIj5UeyT1XQ,2830 INGALLS ST ,37.7212164,-122.3913956,2,94124,OK,premise
ROOFTOP,"98 Howard St, South Easton, MA 02375, USA",ChIJDzTMrsyO5IkRett3mvnhFdg,98 HOWARD ST ,42.0016714,-71.0968295,2,2375,OK,premise
ROOFTOP,"1041 Stockton St, San Francisco, CA 94108, USA",ChIJw_W_QPOAhYARH-eehf9zqRM,1041 STOCKTON ST ,37.7954934,-122.4083383,4,94108,OK,street_address
ROOFTOP,"1051 Stockton St, Aiken, SC 29801, USA",ChIJI9PzFnNM-IgR3K-h_5_AzQg,1051 STOCKTON ST ,33.5882527,-81.7689395,5,29801,OK,premise
ROOFTOP,"423 Stockton St, San Francisco, CA 94108, USA",ChIJEZhvq46AhYARn3sZYc3Qv1k,423 STOCKTON ST,37.7899238,-122.4073333,4,94108,OK,street_address
ROOFTOP,"1205 Stockton St, San Francisco, CA 94133, USA",ChIJEdRNoPOAhYARII8zEmHaU-w,1205 STOCKTON ST ,37.7968463,-122.4085861,3,94133,OK,street_address
ROOFTOP,"985 Bush St, San Francisco, CA 94109, USA",ChIJtYmqDZKAhYARGH_x-QoQPP0,985 BUSH ST ,37.7893364,-122.4132527,1,94109,OK,premise
ROOFTOP,"1141 Folsom St, San Francisco, CA 94103, USA",ChIJvYcnc4KAhYARj3enM7bneO0,1141 FOLSOM ST ,37.7759029,-122.4085658,1,94103,OK,premise
ROOFTOP,"1242 Stockton St, San Francisco, CA 94133, USA",ChIJaWrYmPOAhYARQSygROf-9Eo,1242 STOCKTON ST ,37.7972937,-122.4083815,3,94133,OK,street_address
ROOFTOP,"1261 Stockton St, San Francisco, CA 94133, USA",ChIJuVzTovOAhYARq9-y6rrvJmY,1261 STOCKTON ST ,37.7974309,-122.4087536,3,94133,OK,street_address
ROOFTOP,"318 Pacific Ave, Jersey City, NJ 07304, USA",ChIJd9K9hsNQwokRm4iACDu2HKI,318 PACIFIC AVE ,40.711644,-74.061876,2,7304,OK,street_address
ROOFTOP,"490 Taraval, San Francisco, CA 94116, USA",ChIJWeomEZN9j4ARsKYCUpbRLWA,490 TARAVAL,37.7434606,-122.4711994,1,94116,OK,street_address
ROOFTOP,"2405 Ocean Ave, San Francisco, CA 94127, USA",ChIJITqLe7h9j4ARZqP_9N8qX64,2405 OCEAN AVE ,37.7300095,-122.4698773,1,94127,OK,street_address
ROOFTOP,"1877 Stockton St, San Francisco, CA 94133, USA",ChIJ3WAKffCAhYAR79UmTxyAHTQ,1877 STOCKTON ST ,37.8031132,-122.4098949,2,94133,OK,street_address
,,,1410 09TH AVE ,,,0,,ZERO_RESULTS,
ROOFTOP,"323 Clement St, San Francisco, CA 94118, USA",ChIJX_XB4zuHhYARQlphk5_numo,323 CLEMENT ST ,37.7828375,-122.4627129,1,94118,OK,premise
ROOFTOP,"2449 Balboa St, San Francisco, CA 94121, USA",ChIJhzqaow6HhYARpPfDAANJCYs,2449 BALBOA ST ,37.7760618,-122.4852438,1,94121,OK,premise
ROOFTOP,"5030 Geary Blvd, San Francisco, CA 94118, USA",ChIJyb6y6RaHhYAR5D_qqKObXTc,5030 GEARY BLVD ,37.7808649,-122.4735139,1,94118,OK,street_address
,,,120 04TH ST ,,,0,,ZERO_RESULTS,
ROOFTOP,"2222 Taraval, San Francisco, CA 94116, USA",ChIJydsz8IJ9j4ARg9hBEGKgQWA,2222 TARAVAL ST ,37.7426749,-122.4900962,1,94116,OK,premise
RANGE_INTERPOLATED,"85 W Portal Ave, San Francisco, CA 94127, USA",Ei04NSBXIFBvcnRhbCBBdmUsIFNhbiBGcmFuY2lzY28sIENBIDk0MTI3LCBVU0EiGhIYChQKEgkRO1lY6n2PgBEPcr22GnKlzhBV,085 WEST PORTAL AVE ,37.739813,-122.4665128,1,94127,OK,street_address
,,,1401 06TH AVE ,,,0,,ZERO_RESULTS,
ROOFTOP,"2801 Vicente St, San Francisco, CA 94116, USA",ChIJT3YuUnd9j4AR5jouAHW8jyU,2801 VICENTE ST ,37.7380892,-122.4973585,2,94116,OK,premise
ROOFTOP,"1447 Taraval, San Francisco, CA 94116, USA",ChIJ9ciwuZp9j4AR9-miI5iavCE,1447 TARAVAL ST ,37.7426506,-122.4818895,1,94116,OK,street_address
ROOFTOP,"2130 Irving St, Denver, CO 80211, USA",ChIJO6MD46B4bIcRxU6b0rCwN8I,2130 IRVING ST ,39.7494555,-105.0296469,2,80211,OK,premise
ROOFTOP,"399 E 10th Ave, Eugene, OR 97401, USA",ChIJ_2DJohUewVQRwpT-NahKaW0,399 10TH AVE ,44.0491296,-123.0867064,1,97401,OK,premise
ROOFTOP,"2516 Noriega St, San Francisco, CA 94122, USA",ChIJ1QNRQH-HhYARQMOUn5G-0C8,2516 NORIEGA ST ,37.7538275,-122.4908225,1,94122,OK,street_address
ROOFTOP,"1700 Ocean Ave, Santa Monica, CA 90401, USA",ChIJrek8l9akwoARxR1pUOusKnw,1700 OCEAN AVE ,34.0089738,-118.4928741,1,90401,OK,premise
ROOFTOP,"733 W Randolph St, Chicago, IL 60661, USA",ChIJM4E9FsUsDogRdbCGxoSm84s,733 RANDOLPH ST ,41.8840516,-87.6469563,2,60661,OK,premise
ROOFTOP,"1515 Sloat Blvd, San Francisco, CA 94132, USA",ChIJwx1wvp99j4AR_yDogEIewfY,1515 SLOAT BLVD,37.7332613,-122.489453,1,94132,OK,street_address
ROOFTOP,"3251 20th Ave, San Francisco, CA 94132, USA",ChIJP5NLubt9j4AR9_zxLgJGWTg,3251 20TH AVE 249,37.7280817,-122.4770808,2,94132,OK,street_address
ROOFTOP,"1758 Fillmore St, San Francisco, CA 94115, USA",ChIJTQPqZriAhYAR9mOMjscG9RE,1758 FILLMORE ST ,37.7860099,-122.4330224,1,94115,OK,premise
ROOFTOP,"1201 Laguna St, San Francisco, CA 94115, USA",ChIJKZmDRbyAhYARF4f6Noxpu-c,1201 LAGUNA ST ,37.7822462,-122.4275817,3,94115,OK,street_address
ROOFTOP,"2498 Sutter St, San Francisco, CA 94115, USA",ChIJzZ74G8qAhYARVvX6GHfm1xg,2498 SUTTER ST ,37.7851552,-122.4414192,1,94115,OK,street_address
ROOFTOP,"3807 24th St N, Arlington, VA 22207, USA",ChIJi990Hti1t4kRfOEWCxO-p5Y,3807 24TH ST ,38.9037261,-77.1035916,1,22207,OK,premise
ROOFTOP,"3006 E 51st St, Tulsa, OK 74105, USA",ChIJ50phoB6TtocRxYyFGhhht8c,3006  ST ,36.0894048,-95.945062,1,74105,OK,"establishment,point_of_interest"
ROOFTOP,"2500 Fillmore St, San Francisco, CA 94115, USA",ChIJ0SKRlMWAhYARxVTo_uZ6MVo,2500 FILLMORE ST ,37.792636,-122.4342714,2,94115,OK,premise
ROOFTOP,"2606 S Franklin St, Philadelphia, PA 19148, USA",ChIJrWvU1v3FxokRFspXiGVzmcw,2606 FRANKLIN ST ,39.9166043,-75.1607286,1,19148,OK,premise
ROOFTOP,"1898 Green St, San Francisco, CA 94123, USA",ChIJE0Cqr8SAhYAR98cfQSxjPdM,1898 GREEN ST ,37.7969012,-122.4302595,1,94123,OK,street_address
ROOFTOP,"2198 Union St, San Francisco, CA 94123, USA",ChIJQez8ndqAhYAR17Stsu8aEgU,2198 UNION ST ,37.7972818,-122.4353774,1,94123,OK,premise
ROOFTOP,"2498 Fillmore St, San Francisco, CA 94115, USA",ChIJMfTl7MWAhYARezRgSU_23q8,2498 FILLMORE ST ,37.7923501,-122.4342936,2,94115,OK,street_address
ROOFTOP,"453 O'Farrell St, San Francisco, CA 94102, USA",ChIJ1fQV0Y-AhYARRSTE1MD8API,453 O'FARRELL ST ,37.7857312,-122.4121941,1,94102,OK,street_address
ROOFTOP,"888 O'Farrell St, San Francisco, CA 94109, USA",ChIJ1ZsYyJaAhYARuq3ZuEdJcKk,888 O'FARRELL ST ,37.7853119,-122.4194284,1,94109,OK,premise
ROOFTOP,"2120 Chestnut St, Columbia, SC 29204, USA",ChIJ41ckOz2l-IgRJeMjo6UmGmk,2120 CHESTNUT ST ,34.022784,-81.0193688,2,29204,OK,premise
ROOFTOP,"First Market Tower, 525 Market St, San Francisco, CA 94105, USA",ChIJL64ZV2KAhYAR65krKuGvz_c,525 MARKET ST ,37.7905035,-122.3990296,1,94105,OK,premise
ROOFTOP,"170 Spear St, San Francisco, CA 94105, USA",ChIJlYvQ_GSAhYARKTwoz_e7jqo,170 SPEAR ST ,37.791513,-122.3930402,2,94105,OK,street_address
ROOFTOP,"155 Francisco St, San Francisco, CA 94133, USA",ChIJn4S6HvqAhYAR3bNOt4FRXwM,155 FRANCISCO ST ,37.8052857,-122.4074816,2,94133,OK,premise
ROOFTOP,"1198 Pacific St, Brooklyn, NY 11216, USA",ChIJe5aK65tbwokRfqvN_6Tc5T4,1198 PACIFIC AVE ,40.677537,-73.952416,1,11216,OK,street_address
GEOMETRIC_CENTER,"Beach St & The Embarcadero, San Francisco, CA 94133, United States",ChIJHSGzi_yAhYARnrPmDWAx9ro,PIER 39  LOT 12,37.808673,-122.409821,1,94133,OK,"establishment,point_of_interest,premise,shopping_mall"
RANGE_INTERPOLATED,"2890 Taylor St, San Francisco, CA 94133, USA",EiwyODkwIFRheWxvciBTdCwgU2FuIEZyYW5jaXNjbywgQ0EgOTQxMzMsIFVTQSIbEhkKFAoSCUXVbKvjgIWAET-HhcGQG4PiEMoW,2890 TAYLOR ST ,37.8088958,-122.4150009,1,94133,OK,street_address
ROOFTOP,"120 Brannan St, San Francisco, CA 94107, USA",ChIJs9ACbXeAhYARAevnqKN7Q94,120 BRANNAN ST ,37.7848066,-122.3886012,1,94107,OK,street_address
RANGE_INTERPOLATED,"800 The Embarcadero, San Francisco, CA 94111, USA",EjE4MDAgVGhlIEVtYmFyY2FkZXJvLCBTYW4gRnJhbmNpc2NvLCBDQSA5NDExMSwgVVNBIhsSGQoUChIJEfIbc9h_j4ARXVQHzFgApc8QoAY,800 EMBARCADERO ST ,37.7812898,-122.3885784,1,94111,OK,street_address
ROOFTOP,"1098 Howard St, San Francisco, CA 94103, USA",ChIJS32lpYOAhYARFtdfhu3AOr0,1098 HOWARD ST ,37.7782621,-122.4094286,1,94103,OK,premise
ROOFTOP,"108 S Park St, San Francisco, CA 94107, USA",ChIJXRIF3XiAhYARw1dDQGBUWdk,108 SOUTH PARK ST ,37.78168,-122.3944604,1,94107,OK,premise
ROOFTOP,"210 Townsend St, San Francisco, CA 94107, USA",ChIJoexBSdZ_j4AR18_oL488Vuw,210 TOWNSEND ST ,37.778782,-122.393366,1,94107,OK,street_address
ROOFTOP,"448 Cortland Ave, San Francisco, CA 94110, USA",ChIJRwe_aFl-j4ARHwPcuSXdzxY,448 CORTLAND AVE ,37.7389207,-122.4167073,1,94110,OK,premise
ROOFTOP,"2145 Geneva Ave, San Francisco, CA 94134, USA",ChIJZ5HtwsZ-j4ARRwZ3C2tkUCY,2145 GENEVA AVE ,37.7087228,-122.4204239,1,94134,OK,premise
ROOFTOP,"3798 Mission St, San Francisco, CA 94110, USA",ChIJ2-Qso2B-j4ARHxh79I7eDwg,3798 MISSION ST ,37.7360965,-122.424804,1,94110,OK,premise
ROOFTOP,"4701 Mission St, San Francisco, CA 94112, USA",ChIJX02UjIV-j4AREVM0GGfCH0k,4701 MISSION ST ,37.7229732,-122.4359469,1,94112,OK,street_address
ROOFTOP,"2480 San Bruno Ave, San Francisco, CA 94134, USA",ChIJL1c87_x-j4ARFVkWI-eekR0,2480 SAN BRUNO AVE ,37.730366,-122.4050921,1,94134,OK,premise
ROOFTOP,"2599 San Bruno Ave, San Francisco, CA 94134, USA",ChIJ-e2I0-J-j4AROqJ95-WM9Js,2599 SAN BRUNO AVE ,37.7290177,-122.4039637,2,94134,OK,premise
ROOFTOP,"1524 Silver Ave, San Francisco, CA 94134, USA",ChIJhypBa_x-j4ARfqhWwyQnD-c,1524 SILVER AVE ,37.7321547,-122.4059993,4,94134,OK,premise
ROOFTOP,"5001 3rd St, San Francisco, CA 94124, USA",ChIJP0qCtBp_j4AR5DthAVJtKSo,5001 03RD ST ,37.732906,-122.391005,1,94124,OK,"establishment,food,grocery_or_supermarket,point_of_interest,store"
ROOFTOP,"398 Market St, San Francisco, CA 94111, USA",ChIJZbMUzGOAhYARyr2fd2rOAhA,398 MARKET ST ,37.7919734,-122.3983374,1,94111,OK,street_address
ROOFTOP,"1 Harrison St, New York, NY 10013, USA",ChIJgb0G0h9awokRsMVhvcAH4G4,1 HARRISON ST ,40.7186123,-74.0090804,2,10013,OK,street_address
ROOFTOP,"856 Cole St, San Francisco, CA 94117, USA",ChIJtWnRXlSHhYARyWWlRqNarhA,856 COLE ST ,37.7660622,-122.4497537,2,94117,OK,premise
ROOFTOP,"2350 Noriega St, San Francisco, CA 94122, USA",ChIJPfMu4H6HhYARumWCsnHd9ew,2350 NORIEGA ST ,37.7542109,-122.4886485,1,94122,OK,premise
ROOFTOP,"350 Parnassus Ave, San Francisco, CA 94117, USA",ChIJrZRvFleHhYARfkF8BxktNpw,350 PARNASSUS AVE ,37.7642347,-122.4562335,1,94117,OK,premise
ROOFTOP,"2560 Sloat Blvd, San Francisco, CA 94116, USA",ChIJA6lJRnB9j4AR7o2VnV5UCVU,2560 SLOAT BLVD ,37.7356415,-122.5017886,1,94116,OK,street_address
ROOFTOP,"1101 Stanyan St, San Francisco, CA 94117, USA",ChIJsesmh1aHhYARS6i4BVpVlpg,1101 STANYAN ST ,37.7643605,-122.4527725,1,94117,OK,premise
ROOFTOP,"730 Taraval, San Francisco, CA 94116, USA",ChIJg-8gM5J9j4ARrDacbyYmoDU,730 TARAVAL,37.7434468,-122.4740564,1,94116,OK,premise
ROOFTOP,"3054 Taraval, San Francisco, CA 94116, USA",ChIJtV1K7Xt9j4AR7suNT8RZmoM,3054 TARAVAL ST ,37.7421965,-122.4990989,1,94116,OK,street_address
ROOFTOP,"198 Broad St, Manchester, CT 06042, USA",ChIJ2zFdHHFX5okR4eH6xKGrgeQ,198 BROAD ST ,41.7829614,-72.5355065,1,6042,OK,premise
ROOFTOP,"845 Holloway Ave, San Francisco, CA 94112, USA",ChIJ2_XTwMx9j4ARnWd6od5Qmb0,845 HOLLOWAY AVE ,37.721739,-122.4621384,1,94112,OK,street_address
ROOFTOP,"3080 San Jose Avenue, San Francisco, CA 94112, USA",ChIJ31pr0yR8j4ARoAFpwfvWdSo,3080 SAN JOSE AVE ,37.7098517,-122.4579363,1,94112,OK,premise
ROOFTOP,"2367 Mission St, San Francisco, CA 94110, USA",ChIJdX-xDDx-j4ARzQyVWEXpWwo,2367 MISSION ST ,37.7591268,-122.4189556,1,94110,OK,street_address
ROOFTOP,"559 Hayes St, Richmond, CA 94804, USA",ChIJGXVmHAV4hYARScu0191npiY,559 HAYES ST ,37.9394203,-122.3466428,2,94804,OK,premise
ROOFTOP,"1192 Guerrero St, San Francisco, CA 94110, USA",ChIJk6cq9z9-j4ARvx76gIDOJAw,1192 GUERRERO ST,37.7521471,-122.4231975,1,94110,OK,street_address
ROOFTOP,"3000 Mission St, San Francisco, CA 94110, USA",ChIJ5RWrrEZ-j4ARTqRl3Tcr1u0,3000 MISSION ST ,37.7489287,-122.4183466,1,94110,OK,street_address
ROOFTOP,"1100 Valencia St, San Francisco, CA 94110, USA",ChIJw7gCVj5-j4AR4NZaNNUAvD0,1100 VALENCIA ST,37.7551904,-122.4212313,1,94110,OK,premise
ROOFTOP,"399 Haight St, San Francisco, CA 94102, USA",ChIJE29WO6GAhYAR-o3xDfoHdxs,399 HAIGHT ST ,37.7721637,-122.4286499,1,94102,OK,street_address
ROOFTOP,"688 Haight St, San Francisco, CA 94117, USA",ChIJhfoibqaAhYARhu9AV1JbIpU,688 HAIGHT ST ,37.7719008,-122.4335636,1,94117,OK,premise
ROOFTOP,"1480 Haight St, San Francisco, CA 94117, USA",ChIJs9G_MlOHhYAR-IZd2EXbVw0,1480 HAIGHT ST,37.7701583,-122.44681,1,94117,OK,street_address
ROOFTOP,"1700 Hayes St, Nashville, TN 37203, USA",ChIJUQbYNZNmZIgRg2Hj9yQvB9A,1700 HAYES ST ,36.1549632,-86.7956293,3,37203,OK,premise
ROOFTOP,"269 14th St, Brooklyn, NY 11215, USA",ChIJKRlXRONawokRoGsImtQuz5k,269 14TH ST ,40.666008,-73.987945,3,11215,OK,street_address
ROOFTOP,"2799 16th St, San Francisco, CA 94103, USA",ChIJVXgnGSV-j4AR7iAz7YXKJxw,2799 16TH ST ,37.7652101,-122.415157,1,94103,OK,street_address
ROOFTOP,"2884 24th St, San Francisco, CA 94110, USA",ChIJ8UhT_Uh-j4ARZg_9XluLAWY,2884 24TH ST ,37.7529793,-122.4099817,1,94110,OK,premise
ROOFTOP,"2937 24th St, San Francisco, CA 94110, USA",ChIJD8cQ70h-j4AREyOARAlYNyM,2937 24TH ST ,37.7525985,-122.4108534,1,94110,OK,street_address
ROOFTOP,"2801 Bryant St, San Francisco, CA 94110, USA",ChIJy9CC805-j4ARFYq3vZJ8iWQ,2801 BRYANT ST ,37.7495213,-122.408686,5,94110,OK,street_address
ROOFTOP,"2399 Folsom St, San Francisco, CA 94110, USA",ChIJM7fHjjl-j4ARJ_817NXf4LQ,2399 FOLSOM ST ,37.7590615,-122.4144927,1,94110,OK,street_address
ROOFTOP,"1530 Howard St, San Francisco, CA 94103, USA",ChIJAeTNfCd-j4ARQO77GhjeqsA,1530 HOWARD ST ,37.7728719,-122.4162759,6,94103,OK,premise
ROOFTOP,"621 Kearny St, San Francisco, CA 94108, USA",ChIJfac0BYuAhYAR7wnb3MGUScs,621 KEARNY ST ,37.7938456,-122.4048698,1,94108,OK,street_address
ROOFTOP,"1263 Leavenworth St, San Francisco, CA 94109, USA",ChIJ--0pxeyAhYARO4ld_JDMy2Q,1263 LEAVENWORTH ST ,37.7928891,-122.4163312,2,94109,OK,premise
ROOFTOP,"1101 Taraval, San Francisco, CA 94116, USA",ChIJdz7CTZB9j4AR4MK3aslyn20,1101 TARAVAL ST ,37.74279,-122.4780915,1,94116,OK,street_address
ROOFTOP,"1837 Pacific Ave, San Francisco, CA 94109, USA",ChIJnQTuIcKAhYARXqzy8ahxulI,1837 PACIFIC AVE ,37.7943128,-122.4255561,2,94109,OK,premise
ROOFTOP,"2998 San Jose Avenue, San Francisco, CA 94112, USA",ChIJwY2RDSV8j4ARZy7_P-3wBfY,2998 SAN JOSE AVE ,37.7117815,-122.4559018,1,94112,OK,premise
ROOFTOP,"15 Marina Blvd, San Francisco, CA 94123, USA",ChIJpcBwWdiAhYARDFCKjh7HetI,15 MARINA BL  ,37.8043948,-122.4328779,1,94123,OK,premise
ROOFTOP,"2699 Mission St, San Francisco, CA 94110, USA",ChIJP2FdTT9-j4ARTWVIJWrARJY,2699 MISSION ST,37.7539694,-122.418442,1,94110,OK,street_address
ROOFTOP,"2515 Noriega St, San Francisco, CA 94122, USA",ChIJX9xoa3-HhYARkiyVuYMLJ4U,2515 NORIEGA ST ,37.7534744,-122.4906998,1,94122,OK,street_address
ROOFTOP,"1649 Castro St, San Leandro, CA 94577, USA",ChIJEXaHefOPj4ARHo8pRY-BEJQ,1649 CASTRO ST,37.7132588,-122.1683297,2,94577,OK,premise
ROOFTOP,"1528 Franklin Ave, New Orleans, LA 70117, USA",ChIJb7OEdyemIIYRUA56gJpsRIA,1528 FRANKLIN ST ,29.9737907,-90.0489826,1,70117,OK,"car_repair,establishment,point_of_interest,store"
ROOFTOP,"727 Washington St, New York, NY 10014, USA",ChIJedZhGOtZwokR8yhsBlQhCtM,727 WASHINGTON ST ,40.735953,-74.0080569,1,10014,OK,street_address
ROOFTOP,"2415 19th Ave, Columbus, GA 31901, USA",ChIJ192laOHMjIgRdDPv527fuo8,2415 19TH AVE ,32.4860575,-84.9653808,4,31901,OK,premise
ROOFTOP,"426 Castro St, San Francisco, CA 94114, USA",ChIJ-ya4rAR-j4ARamYi1eUdy4E,426 CASTRO ST ,37.7620345,-122.4353865,3,94114,OK,street_address
ROOFTOP,"2285 Market St, San Francisco, CA 94114, USA",ChIJ1564YBx-j4ARrFVgsjGlxtI,2285 MARKET ST ,37.7645,-122.4322744,2,94114,OK,street_address
ROOFTOP,"2257 Market St, San Francisco, CA 94114, USA",ChIJNyQrXRx-j4ARrSVLBfF2LG4,2257 MARKET ST ,37.7648221,-122.4319814,1,94114,OK,street_address
ROOFTOP,"3329 24th St, San Francisco, CA 94110, USA",ChIJQwHGuUB-j4ARZTQmPdiIpP0,3329 24TH ST ,37.7520471,-122.4191201,2,94110,OK,"bakery,establishment,food,point_of_interest,store"
,,,48 05TH ST ,,,0,,ZERO_RESULTS,
ROOFTOP,"1226 W Taylor St, Chicago, IL 60607, USA",ChIJRwwmdOIsDogRY3hWFvR5yDY, FOOT OF TAYLOR ST #2,41.8695658,-87.6579065,1,60607,OK,"doctor,establishment,health,point_of_interest"
ROOFTOP,"995 Ellis St, San Francisco, CA 94109, USA",ChIJi9heSJaAhYAR7jEvFpRLJaY,995 ELLIS ST ,37.783419,-122.422437,1,94109,OK,street_address
ROOFTOP,"100, 2300 16th St, San Francisco, CA 94103, USA",ChIJqdud4zF-j4ARUWHxWkpcXyk,2300 16TH ST #240,37.7659054,-122.407965,4,94103,OK,street_address
ROOFTOP,"3349 Mission St, San Francisco, CA 94110, USA",ChIJo7kkKkN-j4ARokIrA3cRi-s,3349 MISSION ST ,37.7432586,-122.4211318,1,94110,OK,premise
ROOFTOP,"688 San Jose Avenue, San Francisco, CA 94110, USA",ChIJXVAijUJ-j4ARw95t0V_5v4U,688 SAN JOSE AVE,37.7440901,-122.4228578,1,94110,OK,street_address
ROOFTOP,"598 Chenery St, San Francisco, CA 94131, USA",ChIJpcXEgGN-j4AR6q3ulGF_IdY,598 CHENERY ST ,37.7346776,-122.4322732,1,94131,OK,street_address
ROOFTOP,"2299 Chestnut St, San Francisco, CA 94123, USA",ChIJY4W6n9aAhYAROj_nVAn5wWs,2299 CHESTNUT ST ,37.8001195,-122.4410597,1,94123,OK,street_address
ROOFTOP,"2340 Chestnut St, San Francisco, CA 94123, USA",ChIJS4L0MNSAhYAReFjCvqzknao,2340 CHESTNUT ST ,37.800377,-122.441968,1,94123,OK,street_address
ROOFTOP,"117 New Montgomery St, San Francisco, CA 94105, USA",ChIJ2YwBSn2AhYAR2CruFdFVyzg,117 NEW MONTGOMERY ST ,37.7872473,-122.3999972,1,94105,OK,street_address
ROOFTOP,"100 5th St, Encinitas, CA 92024, USA",ChIJpXvMulsM3IARqFgUvF8YEPo,100 5TH ST ,33.050675,-117.299046,1,92024,OK,premise
ROOFTOP,"1521 Sloat Blvd, San Francisco, CA 94132, USA",ChIJZQbEl599j4AR8a1lGTbchSA,1521 SLOAT BLVD,37.7324436,-122.4899057,1,94132,OK,street_address
ROOFTOP,"5957 Geary Blvd, San Francisco, CA 94121, USA",ChIJRYiOdQ-HhYARb52RBE8--4U,5957 GEARY BLVD ,37.7799501,-122.4835117,1,94121,OK,street_address
ROOFTOP,"1000 Van Ness Ave, San Francisco, CA 94109, USA",ChIJey84kpaAhYAR_-wGBcS5VcY,1000 VAN NESS AVE #2,37.7851106,-122.420446,1,94109,OK,premise
ROOFTOP,"1000 Van Ness Ave, San Francisco, CA 94109, USA",ChIJey84kpaAhYAR_-wGBcS5VcY,1000 VAN NESS AVE #4,37.7851106,-122.420446,1,94109,OK,premise
ROOFTOP,"1000 Van Ness Ave, San Francisco, CA 94109, USA",ChIJey84kpaAhYAR_-wGBcS5VcY,1000 VAN NESS AVE #7,37.7851106,-122.420446,1,94109,OK,premise
ROOFTOP,"2425 Irving St, San Francisco, CA 94122, USA",ChIJtVkZ83CHhYARvqefvc-b1q8,2425 IRVING ST,37.7630242,-122.4839615,2,94122,OK,premise
ROOFTOP,"890 Geneva Ave, San Francisco, CA 94112, USA",ChIJ2ezHoZx-j4ARNLMGU25KaJw,890 GENEVA AVE ,37.7165951,-122.4413162,1,94112,OK,premise
ROOFTOP,"333 Jefferson St, San Francisco, CA 94133, USA",ChIJcUlD0eOAhYARucGJj8eN9I8,333 JEFFERSON ST ,37.807746,-122.4185357,1,94133,OK,"establishment,food,point_of_interest,restaurant"
ROOFTOP,"1150 Taraval, San Francisco, CA 94116, USA",ChIJ6c9_OJB9j4ARPS4mAVRnwx4,1150 TARAVAL ST ,37.7431176,-122.4788101,1,94116,OK,premise
ROOFTOP,"728 Geary St, San Francisco, CA 94109, USA",ChIJnYJenpGAhYARmFVhMoyoY9Y,728 GEARY ST ,37.7866381,-122.4153578,2,94109,OK,premise
,,,648 04TH ST ,,,0,,ZERO_RESULTS,
ROOFTOP,"7 Drumm St, San Francisco, CA 94111, USA",ChIJGZ0OW2GAhYARVxlZxubjxa8,7 DRUMM ST,37.7938433,-122.3966137,1,94111,OK,street_address
ROOFTOP,"599 Divisadero St, San Francisco, CA 94117, USA",ChIJJ4L4yq-AhYARLCEdi0NybDY,599 DIVISADERO ST ,37.7748572,-122.4379874,2,94117,OK,premise
ROOFTOP,"200 Duboce Ave, Richmond, CA 94801, USA",ChIJC4w0w0SdhYARFVoYgjrGcKo,200 DUBOCE ST ,37.9525502,-122.3686011,2,94801,OK,premise
ROOFTOP,"302 Potrero Ave, San Francisco, CA 94110, USA",ChIJ3Vaw7zF-j4ARRDHAludUTVs,302 POTRERO AVE ,37.765422,-122.407902,2,94110,OK,premise
ROOFTOP,"2266 California St, San Francisco, CA 94115, USA",ChIJe4r2G8eAhYARAkFcaIBzaSk,2266 CALIFORNIA ST ,37.7894728,-122.4315507,3,94115,OK,premise
ROOFTOP,"2111 Jennings St, San Francisco, CA 94124, USA",ChIJKesAoBd_j4ARgnSMwGzawrw,2111 JENNINGS ST ,37.7268119,-122.3886269,2,94124,OK,street_address
ROOFTOP,"1700 Sutter St, San Francisco, CA 94115, USA",ChIJEWK1Pr-AhYARpASqmTVR_xE,1700 SUTTER ST ,37.786873,-122.4286309,1,94115,OK,premise
ROOFTOP,"608 Hayes St, San Francisco, CA 94102, USA",ChIJx-DRU6KAhYARtfJ8LJwLXQc,608 HAYES ST,37.7766058,-122.4266179,1,94102,OK,premise
ROOFTOP,"1975 Post St, San Francisco, CA 94115, USA",ChIJ6Sl9N7iAhYAR656GQyu8_xg,1975 POST ST,37.7848482,-122.4343573,1,94115,OK,premise
ROOFTOP,"570 Ellis St, San Francisco, CA 94109, USA",ChIJefW8-JCAhYARtd2jRDmLbGk,570 ELLIS ST,37.7848444,-122.4156233,1,94109,OK,premise
ROOFTOP,"1690 Church Rd, West Manchester Township, PA 17408, USA",ChIJBwjfw_GMyIkRtN2D9-U7sA4,1690 CHURCH ST ,39.9845207,-76.7902966,1,17408,OK,premise
ROOFTOP,"1111 Gough St, San Francisco, CA 94109, USA",ChIJPWw36r2AhYARIQet11ENfr8,1111 GOUGH ST ,37.7842365,-122.4252243,1,94109,OK,premise
ROOFTOP,"260 Golden Gate Ave, San Francisco, CA 94102, USA",ChIJtVi3jZqAhYARCaJo8H8W-bI,260 GOLDEN GATE AVE,37.7819827,-122.4150038,1,94102,OK,premise
ROOFTOP,"1525 Waller St, San Francisco, CA 94117, USA",ChIJgcUWcVOHhYAR0ZLkKe06yQY,1525 WALLER ST,37.7685251,-122.4490681,2,94117,OK,premise
ROOFTOP,"115 Diamond St, San Francisco, CA 94114, USA",ChIJo3Tm6QR-j4ARK42CSsSZYI4,115 DIAMOND ST ,37.7604199,-122.4368815,2,94114,OK,premise
ROOFTOP,"50 Phelan Ave, San Francisco, CA 94112, USA",ChIJoYdVXNN9j4ARgCR7kxyvpRE,50 PHELAN AVE ,37.724695,-122.4529324,1,94112,OK,street_address
ROOFTOP,"302 Silver Ave, San Francisco, CA 94112, USA",ChIJfVDocIl-j4ARS9O7eWQLjp0,302 SILVER AVE ,37.72778,-122.430569,1,94112,OK,street_address
ROOFTOP,"2929 19th St, San Francisco, CA 94110, USA",ChIJj6l9Sjd-j4AR16mCKMlDdm8,2929 19TH ST ,37.760124,-122.411364,1,94110,OK,street_address
ROOFTOP,"1390 Turk St, San Francisco, CA 94115, USA",ChIJ59Wer7uAhYARSfYm6p8h7g4,1390 TURK ST ,37.7806257,-122.4319375,1,94115,OK,street_address
ROOFTOP,"1 Yacht Rd, San Francisco, CA 94123, USA",ChIJm2J7dSyBhYARjLXU3jvQSGI,1 YACHT RD ,37.8077333,-122.4426203,1,94123,OK,street_address
ROOFTOP,"380 Clementina St, San Francisco, CA 94103, USA",ChIJ5Xt20ICAhYARPSQqz5_gCBI,380 CLEMENTINA ST ,37.7811367,-122.4036923,1,94103,OK,street_address
ROOFTOP,"22 Waller St, San Francisco, CA 94102, USA",ChIJwbYoJ6CAhYAR8wR-EniM3tk,22 WALLER ST ,37.7722092,-122.4240297,1,94102,OK,street_address
ROOFTOP,"201 Van Ness Ave, San Francisco, CA 94102, USA",ChIJLZdoPZmAhYARCANMfz0eq9U,201 VAN NESS AVE,37.7776121,-122.420623,3,94102,OK,"establishment,point_of_interest,premise"
ROOFTOP,"225 Potrero Ave, San Francisco, CA 94103, USA",ChIJM9R7AC5-j4ARoB2Do3nwuRo,225 POTRERO AVE ,37.7666768,-122.4073931,1,94103,OK,premise
ROOFTOP,"1375 Fairfax Ave, San Francisco, CA 94124, USA",ChIJ99KzAgx_j4AR6Ewy_tjNwzI,1375 FAIRFAX AVE ,37.7393611,-122.3842922,1,94124,OK,premise
ROOFTOP,"302 Eddy St, San Francisco, CA 94102, USA",ChIJG7viApCAhYARV3wfdRU-_zQ,302 EDDY ST,37.784115,-122.412921,1,94102,OK,street_address
ROOFTOP,"226 Jones St, Lansing, MI 48912, USA",ChIJw1db_uLBIogRcT7FhRB2I8g,226 JONES ST,42.7313471,-84.5351483,2,48912,OK,premise
,,,407 09TH ST ,,,0,,ZERO_RESULTS,
ROOFTOP,"1340 Golden Gate Ave, San Francisco, CA 94115, USA",ChIJvftQ_rqAhYARb-TJJ9kwWsI,1340 GOLDEN GATE AVE,37.7797405,-122.432701,1,94115,OK,premise
ROOFTOP,"2534 Judah St, San Francisco, CA 94122, USA",ChIJe5yuoXeHhYAR57p-qG7plOI,2534 JUDAH ST ,37.7613849,-122.4894001,1,94122,OK,premise
ROOFTOP,"730 Polk St, San Francisco, CA 94109, USA",ChIJuYasKJeAhYAR2SUuNVRE9mg,730 POLK ST,37.7837595,-122.4190302,2,94109,OK,premise
ROOFTOP,"869 Ellis St, San Francisco, CA 94109, USA",ChIJKb-VHZeAhYARnyJmuuiUMEY,869 ELLIS ST,37.7837017,-122.4202469,1,94109,OK,premise
ROOFTOP,"1030 Illinois St, San Francisco, CA 94107, USA",ChIJW9h9m7l_j4ARYVj9Nn7pB9g,1030 ILLINOIS ST ,37.7586729,-122.3875599,2,94107,OK,street_address
ROOFTOP,"1643 Jerrold Ave, San Francisco, CA 94124, USA",ChIJZe2wHgZ_j4ARqUq_5BIRJlU,1643 JERROLD AVE ,37.7390635,-122.3904262,1,94124,OK,premise
ROOFTOP,"1068 Revere Ave, San Francisco, CA 94124, USA",ChIJI4d_6T9_j4AR0jK7RJYxoks,1068 REVERE AVE ,37.72612,-122.3799984,2,94124,OK,street_address
ROOFTOP,"1177 Indiana St, San Francisco, CA 94107, USA",ChIJHYRimbB_j4ARv2lFAf2km5k,1177 INDIANA ST ,37.7556494,-122.3905673,1,94107,OK,street_address
RANGE_INTERPOLATED,"3388 19th St, San Francisco, CA 94110, USA",EiozMzg4IDE5dGggU3QsIFNhbiBGcmFuY2lzY28sIENBIDk0MTEwLCBVU0EiGxIZChQKEgmLj2F-PH6PgBHbHRxJ08jlHxC8Gg,3388 19TH ST ,37.7602421,-122.4191839,1,94110,OK,street_address
ROOFTOP,"2850 Alemany Blvd, San Francisco, CA 94112, USA",ChIJ92SrcCZ8j4ARBfL3C6d5Kmc,2850 ALEMANY BLVD ,37.7126659,-122.4521201,1,94112,OK,premise
ROOFTOP,"255 Mendell St, San Francisco, CA 94124, USA",ChIJO0IR6At_j4ARydCZDdIVZJc,255 MENDELL STREET,37.7413294,-122.3836555,1,94124,OK,street_address
,,,151 03RD ST ,,,0,,ZERO_RESULTS,
ROOFTOP,"2720 17th St NE, Washington, DC 20018, USA",ChIJ_TtRUInHt4kRMVWYrlWUOBE,2720 17TH ST ,38.925251,-76.9810252,3,20018,OK,premise
ROOFTOP,"500 Florida St, Orlando, FL 32806, USA",ChIJlYRd9xp754gRXCHHmQegfrc,500 FLORIDA ST ,28.5290003,-81.3704243,1,32806,OK,premise
ROOFTOP,"2000 Chestnut St, Portsmouth, VA 23704, USA",ChIJtfFWBY2iuokRxaJ2nnUVt_o,2000 CHESTNUT ST ,36.8237796,-76.3080722,3,23704,OK,premise
GEOMETRIC_CENTER,"Pier 45 at Hudson River Park, Hudson River Greenway, New York, NY 10014, USA",ChIJMbfknu5ZwokRaRXuCuQIWmE, PIER 45  ,40.7330363,-74.0110051,2,10014,OK,"establishment,park,point_of_interest,premise"
ROOFTOP,"350 11th St, Brooklyn, NY 11215, USA",ChIJo0O_xPxawokRa7h6gP8aUh8,350 11TH ST ,40.6675027,-73.9867563,2,11215,OK,premise
ROOFTOP,"3101 19th St, Bakersfield, CA 93301, USA",ChIJtXKdJvtp6oARQqJcxUOvTIs,3101 19TH ST ,35.3761028,-119.0375852,4,93301,OK,premise
ROOFTOP,"801 Bryant St, San Francisco, CA 94103, USA",ChIJhet1wSp-j4ARkw5lEqL-qiE,801 BRYANT ST ,37.7754906,-122.4024254,1,94103,OK,street_address
ROOFTOP,"2598 Harrison St, San Francisco, CA 94110, USA",ChIJF_mY9jd-j4AR9XwruJ2GrvE,2598 HARRISON ST ,37.7560218,-122.412464,1,94110,OK,street_address
ROOFTOP,"360a Jefferson St, San Francisco, CA 94133, USA",ChIJr2oE1eOAhYARs2D8yUlbWkE,360A JEFFERSON ST ,37.8080593,-122.4182613,1,94133,OK,street_address
GEOMETRIC_CENTER,"Pier 9, San Francisco, CA 94111, USA",ChIJ5VVFX16AhYARSXVYJFrjZqY,PIER 9,37.7999784,-122.3979894,2,94111,OK,route
ROOFTOP,"2860 Taylor St, San Francisco, CA 94111, USA",ChIJuVagq-OAhYARNVkIZXeHakQ,PIER 45  SHED B SPACE 1A,37.8092658,-122.4162087,1,94111,OK,"establishment,parking,point_of_interest"
GEOMETRIC_CENTER,"Pier 45, Shed D-1, San Francisco, CA 94133, United States",ChIJe0eiosd_j4AR69nUUxEbOXI,PIER 45  SHED B UNIT D,37.8103646,-122.4188228,1,94133,OK,"establishment,food,point_of_interest"
,,,451 06TH ST ,,,0,,ZERO_RESULTS,
ROOFTOP,"One Ferry Building, San Francisco, CA 94111, USA",ChIJWTGPjmaAhYARxz6l1hOj92w,1 FERRY BUILDING  #50,37.7955703,-122.3933208,1,94111,OK,"establishment,point_of_interest"
RANGE_INTERPOLATED,"1 United Nations Plaza, New York, NY 10017, USA",Ei8xIFVuaXRlZCBOYXRpb25zIFBsYXphLCBOZXcgWW9yaywgTlkgMTAwMTcsIFVTQSIaEhgKFAoSCbPRxKMdWcKJEYiZGK-GlKEREAE,1 UNITED NATIONS PLAZA  ,40.7515828,-73.9678533,1,10017,OK,street_address
GEOMETRIC_CENTER,"Harrison Airport, Welch, OK 74369, USA",ChIJoa1uiC7nt4cRQis1nAE6ROw, HARRISON & 22ND ST ,36.877853,-95.1491316,1,74369,OK,"airport,establishment,point_of_interest"
RANGE_INTERPOLATED,"1 United Nations Plaza, New York, NY 10017, USA",Ei8xIFVuaXRlZCBOYXRpb25zIFBsYXphLCBOZXcgWW9yaywgTlkgMTAwMTcsIFVTQSIaEhgKFAoSCbPRxKMdWcKJEYiZGK-GlKEREAE,1 UNITED NATIONS PLZ ,40.7515828,-73.9678533,1,10017,OK,street_address
APPROXIMATE,"Powell, OH 43065, USA",ChIJE2mO_WzyOIgRFxNXtVfAyWM, POWELL & MARKET ST (S/E),40.1578402,-83.0751869,3,43065,OK,"locality,political"
APPROXIMATE,"Stockton, CA, USA",ChIJgSFEe3MNkIAR2MtPBNH1dlg, STOCKTON & O'FARRELL ST (N/W),37.9577016,-121.2907796,1,,OK,"locality,political"
GEOMETRIC_CENTER,"Stockton St & Post St, San Francisco, CA 94108, USA",EjNTdG9ja3RvbiBTdCAmIFBvc3QgU3QsIFNhbiBGcmFuY2lzY28sIENBIDk0MTA4LCBVU0EiZiJkChQKEgldWQUyiYCFgBEic_R1OkMEmxIUChIJXVkFMomAhYARInP0dTpDBJsaFAoSCX_MoRPzgIWAEb-mVj8AOar6GhQKEgkHXn2KlYCFgBFcQOEcsbH0ISIKDfURhhYV_jQKtw, NW CORNER POST AT STOCKTON ST (N/W),37.7885173,-122.4067842,1,94108,OK,intersection
APPROXIMATE,"Stockton, CA, USA",ChIJgSFEe3MNkIAR2MtPBNH1dlg,STOCKTON & MARKET & ELLIS ST (NW),37.9577016,-121.2907796,1,,OK,"locality,political"
ROOFTOP,"24 Willie Mays Plaza, San Francisco, CA 94107, USA",ChIJv_u-0dl_j4ARW9yHJWRSSqs,24 WILLIE MAYS PL ,37.7784199,-122.3906212,1,94107,OK,premise
ROOFTOP,"24 Willie Mays Plaza, San Francisco, CA 94107, USA",ChIJv_u-0dl_j4ARW9yHJWRSSqs,24 WILLIE MAYS PLAZA,37.7784199,-122.3906212,1,94107,OK,premise
GEOMETRIC_CENTER,"Beach St & The Embarcadero, San Francisco, CA 94133, United States",ChIJHSGzi_yAhYARnrPmDWAx9ro,PIER 39  A-101,37.808673,-122.409821,1,94133,OK,"establishment,point_of_interest,premise,shopping_mall"
ROOFTOP,"1 Zoo Rd, San Francisco, CA 94132, USA",ChIJgU7z4XF9j4ARSU-fSwtUVmk,1  ZOO RD,37.7329099,-122.50324,1,94132,OK,street_address
ROOFTOP,"9300 Civic Center Dr, Beverly Hills, CA 90210, USA",ChIJ--7aywa8woAR06mwUL6UjBU, CIVIC CTR- GARAGE LOBBY  ,34.0736698,-118.3991114,1,90210,OK,"establishment,parking,point_of_interest"
GEOMETRIC_CENTER,"Beach St & The Embarcadero, San Francisco, CA 94133, United States",ChIJHSGzi_yAhYARnrPmDWAx9ro,PIER 39  A02,37.808673,-122.409821,1,94133,OK,"establishment,point_of_interest,premise,shopping_mall"
ROOFTOP,"2333 Buchanan St, San Francisco, CA 94115, USA",ChIJW7Ip7MaAhYARo5Vw4WoFkJ8,2333 BUCHANAN ST ,37.7908706,-122.4312411,2,94115,OK,premise
ROOFTOP,"45 Castro St, San Francisco, CA 94114, USA",ChIJpXhzdqiAhYARuJmADRUwnFM,45 CASTRO ST ,37.768847,-122.4354438,2,94114,OK,premise
GEOMETRIC_CENTER,"Polk St & McAllister St, San Francisco, CA 94102, USA",EjVQb2xrIFN0ICYgTWNBbGxpc3RlciBTdCwgU2FuIEZyYW5jaXNjbywgQ0EgOTQxMDIsIFVTQSJmImQKFAoSCWtNqImZgIWAEbTgpgmtba3yEhQKEglrTaiJmYCFgBG04KYJrW2t8hoUChIJAWXCL-uAhYAR4maR2ifnoNsaFAoSCUGBy566gIWAEenOf6HYBWYDIgoNWdCEFhWoZgi3, CIVIC CENTER-POLKK/MCALLISTER  ,37.7802841,-122.41862,1,94102,OK,intersection
ROOFTOP,"24 Willie Mays Plaza, San Francisco, CA 94107, USA",ChIJv_u-0dl_j4ARW9yHJWRSSqs,24 WILLIE MAYS PLAZA 4.21.02  ,37.7784199,-122.3906212,1,94107,OK,premise
ROOFTOP,"24 Willie Mays Plaza, San Francisco, CA 94107, USA",ChIJ_T25cNd_j4ARehGmHe0pT84,24 WILLIE MAYS PLAZA 1.24.06  ,37.7785951,-122.3892698,1,94107,OK,"establishment,point_of_interest,stadium"
GEOMETRIC_CENTER,"Beach St & The Embarcadero, San Francisco, CA 94133, United States",ChIJHSGzi_yAhYARnrPmDWAx9ro,PIER 39 WEST PARK,37.808673,-122.409821,1,94133,OK,"establishment,point_of_interest,premise,shopping_mall"
ROOFTOP,"1730 S Boston Ave, Tulsa, OK 74119, USA",ChIJFYCmYGDrtocR0mU4YC1y1b8,VARIOUS LOCATIONS,36.1368522,-95.9855144,1,74119,OK,"bakery,cafe,establishment,food,point_of_interest,store"
ROOFTOP,"5001 Wynnefield Ave, Philadelphia, PA 19131, USA",ChIJ-TgQAULHxokRY66qgMDamwA,VARIOUS LOACATIONS (17),39.9923735,-75.2251213,1,19131,OK,"establishment,point_of_interest"
ROOFTOP,"330 Ellis St, San Francisco, CA 94102, USA",ChIJHeSQ6o-AhYARg-KA7yUOJfE,330 ELLIS ST ,37.7852299,-122.411464,1,94102,OK,premise
GEOMETRIC_CENTER,"Buena Vista Ave W, San Francisco, CA 94117, USA",ChIJzZhra6qAhYARGr1x4jRBB6o, BUENA VISTA WEST AVE ,37.7682932,-122.4436361,2,94117,OK,route
ROOFTOP,"2024 Hayes St, San Francisco, CA 94117, USA",ChIJf47_ok2HhYARsSlJ0troa7E,2024 HAYES ST ,37.7736301,-122.449836,1,94117,OK,street_address
ROOFTOP,"3433 Anza St, San Francisco, CA 94121, USA",ChIJs8PC3g6HhYARzY7iqkp4QtE,3433 ANZA ST ,37.777855,-122.485207,1,94121,OK,street_address
ROOFTOP,"2229 Union St, San Francisco, CA 94123, USA",ChIJF143DdCAhYARbYeMyT4gWk8,2229 UNION ST ,37.796904,-122.43606,2,94123,OK,street_address
ROOFTOP,"1570 31st Ave, San Francisco, CA 94122, USA",ChIJfQxrq3mHhYAR81aGUgLozpg,1570 31ST AVE ,37.7576672,-122.4892675,1,94122,OK,premise
ROOFTOP,"2650 42nd Ave SW, Seattle, WA 98116, USA",ChIJz5bvFGZAkFQRbqovD4aJqCs,2650 42ND AVE ,47.5796646,-122.3849674,4,98116,OK,premise
ROOFTOP,"2051 34th Ave, San Francisco, CA 94116, USA",ChIJ0Rl57X99j4ARsjcIpJaFhGI,2051 34TH AVE ,37.7487104,-122.4928488,1,94116,OK,premise
ROOFTOP,"3151 Ortega St, San Francisco, CA 94122, USA",ChIJ6Ta3NoGHhYAR5R1H8qpzj5A,3151 ORTEGA ST ,37.7510669,-122.4973191,1,94122,OK,street_address
ROOFTOP,"1920 41st Ave, San Francisco, CA 94116, USA",ChIJ1Ryt6YaHhYARCf7udGuAnZE,1920 41ST AVE ,37.7508685,-122.499127,2,94116,OK,premise
ROOFTOP,"1530 43rd Ave, San Francisco, CA 94122, USA",ChIJh-KsjZqHhYARO7FCtYcv5VQ,1530 43RD AVE ,37.7581754,-122.5022217,1,94122,OK,premise
ROOFTOP,"2162 24th Ave, San Francisco, CA 94116, USA",ChIJHaql7oV9j4ARgv1J_driUrE,2162 24TH AVE ,37.7472812,-122.4809983,2,94116,OK,street_address
ROOFTOP,"105 Aptos Ave, San Francisco, CA 94127, USA",ChIJ3wEuLsZ9j4ARk3RvzKcA4qk,105 APTOS AVE ,37.7297604,-122.4662731,1,94127,OK,premise
ROOFTOP,"50 Darien Way, San Francisco, CA 94127, USA",ChIJyTUrvLh9j4ARqR1Qfmexgy0,50 DARIEN WAY ,37.7316042,-122.4705628,1,94127,OK,premise
ROOFTOP,"2725 California St, Denver, CO 80205, USA",ChIJVU62xiN5bIcRfLbSWyE5_RA,2725 CALIFORNIA ST ,39.7560344,-104.9786001,2,80205,OK,premise
ROOFTOP,"350 Broadway, Boulder, CO 80305, USA",ChIJHRoTfrHta4cRpOGkCE3a4IU,350 BROADWAY ST ,39.9962313,-105.2603494,5,80305,OK,premise
ROOFTOP,"3125 Cesar Chavez, San Francisco, CA 94110, USA",ChIJo2-OnU9-j4ARWxIgTSbNVoo,3125 CESAR CHAVEZ ST ,37.7477651,-122.4118623,1,94110,OK,street_address
ROOFTOP,"1101 Eucalyptus Dr, San Francisco, CA 94132, USA",ChIJ8RSXraN9j4ARnUBk2alQ2zE,1101 EUCALYPTUS DR ,37.7306904,-122.4830772,1,94132,OK,premise
ROOFTOP,"250 Foerster St, San Francisco, CA 94112, USA",ChIJP3uUZNZ9j4ARBMLecHZvw7Q,250 FOERSTER ST ,37.7302989,-122.4483426,1,94112,OK,street_address
ROOFTOP,"625 Holly Park Cir, San Francisco, CA 94110, USA",ChIJb4rhYF5-j4ARJm6VLDOLMUY,625 HOLLY PARK CIR ,37.7370794,-122.4214858,1,94110,OK,premise
ROOFTOP,"3450 E Frank Phillips Blvd #400, Bartlesville, OK 74006, USA",ChIJ3ZFlq7ITt4cRRlIZLuT3gGs,400  ST ,36.7520364,-95.9410981,1,74006,OK,"establishment,health,point_of_interest"
ROOFTOP,"431 Capitol Ave, San Francisco, CA 94112, USA",ChIJU1n4LTB8j4ARzosJ4qS8RFQ,431 CAPITOL AVE ,37.7146245,-122.4597756,1,94112,OK,street_address
ROOFTOP,"1000 Cayuga Ave, San Francisco, CA 94112, USA",ChIJlbp2C4R-j4ARQJWeKixoV-A,1000 CAYUGA AVE ,37.7215134,-122.4407964,1,94112,OK,street_address
ROOFTOP,"241 Oneida St, Pittsburgh, PA 15211, USA",ChIJFQMzg7r2NIgRZWtilO0lawU,241 ONEIDA ST ,40.4340801,-80.0202083,2,15211,OK,premise
ROOFTOP,"3351 23rd St, San Francisco, CA 94110, USA",ChIJhaZEaT9-j4ARZHFEdTdaCeQ,3351 23RD ST ,37.7531025,-122.4201806,1,94110,OK,"establishment,point_of_interest,school"
ROOFTOP,"421 S Bartlett St, Shawano, WI 54166, USA",ChIJNS2jP7gQAogRLw1FQdIzA7s,421  BARTLETT ST,44.7777314,-88.6158224,1,54166,OK,premise
ROOFTOP,"1220 Noe St, San Francisco, CA 94114, USA",ChIJEdoeLBN-j4ARM8DXGabUzM8,1220 NOE ST ,37.7495745,-122.4322586,2,94114,OK,premise
ROOFTOP,"65 Chenery St, San Francisco, CA 94131, USA",ChIJR7W4l2d-j4ARvZsjcce6Nb0,65 CHENERY ST ,37.7402551,-122.4252685,1,94131,OK,street_address
ROOFTOP,"625 Douglass St, San Francisco, CA 94114, USA",ChIJB2-s-A5-j4ARsIDHa5vPjWI,625  DOUGLASS ST,37.7535011,-122.4384961,1,94114,OK,premise
ROOFTOP,"5 Lenox Way, San Francisco, CA 94127, USA",ChIJhQrS9ut9j4ARSrFb5S4rW18,5 LENOX WAY,37.7431911,-122.4643714,2,94127,OK,street_address
ROOFTOP,"220 Middlefield Dr, San Francisco, CA 94132, USA",ChIJiwGdNKJ9j4ARzNUPCT9sVvg,220 MIDDLEFIELD DR ,37.7306036,-122.4857111,1,94132,OK,street_address
ROOFTOP,"1670 Noe St, San Francisco, CA 94131, USA",ChIJk3nBH29-j4ARmUUMKqDK98g,1670 NOE ST ,37.742176,-122.4313738,1,94131,OK,premise
ROOFTOP,"175 Omar Way, San Francisco, CA 94127, USA",ChIJMaZaLdl9j4ARKb97QksQIdA,175 OMAR WAY ,37.738836,-122.4502182,1,94127,OK,premise
ROOFTOP,"151 Lippard Ave, San Francisco, CA 94131, USA",ChIJr2Qdrnx-j4ARf7aN9bQj95c,151 LIPPARD AVE ,37.7331275,-122.435488,1,94131,OK,premise
ROOFTOP,"2576 Harrison St, San Francisco, CA 94110, USA",ChIJQW32ijd-j4ARrzmPiMrcKlo,2576 HARRISON ST ,37.7565229,-122.412637,1,94110,OK,premise
GEOMETRIC_CENTER,"MO-465, Branson, MO 65616, USA",ChIJLUkNXdcaz4cRRDVA5N5K0OY,465 MISSOURI ST ,36.7141572,-93.2717357,1,65616,OK,route
ROOFTOP,"1050 York St, San Francisco, CA 94110, USA",ChIJLXrbwEl-j4ARtIl68Htl48o,1050 YORK ST ,37.7551729,-122.4087206,2,94110,OK,premise
ROOFTOP,"859 Prague St, San Francisco, CA 94112, USA",ChIJOV4DW71-j4ARGN1l4A1-9MA,859 PRAGUE ST ,37.7103559,-122.4341682,1,94112,OK,premise
ROOFTOP,"810 Silver Ave, San Francisco, CA 94134, USA",ChIJLSi25vN-j4ARHee34iUtWdQ,810 SILVER AVE ,37.728555,-122.4189859,2,94134,OK,premise
ROOFTOP,"600 32nd Ave, San Francisco, CA 94121, USA",ChIJVTLOPQiHhYARkVRif6yQA9s,600 32ND AVE ,37.7778259,-122.4918861,2,94121,OK,street_address
ROOFTOP,"4545 Anza St, San Francisco, CA 94121, USA",ChIJo47SqKiHhYAR2m2-sDbjaPU,4545 ANZA ST ,37.7771428,-122.4971817,1,94121,OK,premise
ROOFTOP,"460 Arguello Blvd, San Francisco, CA 94118, USA",ChIJuyahxDmHhYARVUirgSffgZ8,460 ARGUELLO BLVD,37.7822639,-122.4586826,1,94118,OK,street_address
,,,651 06TH AVE ,,,0,,ZERO_RESULTS,
ROOFTOP,"1325 Florida St, High Point, NC 27262, USA",ChIJH_p_HRwJU4gR9_ZYfb4JeVI,1325 FLORIDA ST ,35.9737212,-80.0367041,4,27262,OK,premise
ROOFTOP,"450 30th Ave, East Moline, IL 61244, USA",ChIJ-85G3p8w4ocRYBeU8toOqiE,450 30TH AVE ,41.5002246,-90.4504763,1,61244,OK,premise
ROOFTOP,"1501 O'Farrell St, San Francisco, CA 94115, USA",ChIJl02CVbmAhYARiMXY-2_5N3g,1501 O'FARRELL ST,37.7832913,-122.4298696,2,94115,OK,premise
RANGE_INTERPOLATED,"1025 14th St NW, Washington, DC 20005, USA",EioxMDI1IDE0dGggU3QgTlcsIFdhc2hpbmd0b24sIERDIDIwMDA1LCBVU0EiGxIZChQKEgm7ugeilbe3iRGYFuOzKUX3kRCBCA,1025 14TH ST ,38.9030266,-77.0315784,7,20005,OK,street_address
ROOFTOP,"4235 19th St, San Francisco, CA 94114, USA",ChIJOemVIgV-j4ARZJgDmY6LdRY,4235 19TH ST ,37.759088,-122.4367222,1,94114,OK,"establishment,point_of_interest,school"
ROOFTOP,"1541 12th Ave, Columbus, GA 31901, USA",ChIJD2xRHATNjIgRlByLIjLuYww,1541 12TH AVE ,32.4759774,-84.9763705,2,31901,OK,premise
ROOFTOP,"1725 Irving St NW, Washington, DC 20010, USA",ChIJwdj7OifIt4kRUgNV3ItQi-E,1725 IRVING ST ,38.9290587,-77.0400525,5,20010,OK,premise
ROOFTOP,"165 Grattan St, San Francisco, CA 94117, USA",ChIJpyRbllWHhYAR592FUUgotFI,165 GRATTAN ST ,37.763592,-122.4507047,1,94117,OK,premise
ROOFTOP,"2290 14th Ave, San Francisco, CA 94116, USA",ChIJNaDkMe19j4ARrgbZFsULN2Q,2290 14TH AVE ,37.7455553,-122.4689655,2,94116,OK,street_address
ROOFTOP,"500 W Clarendon Ave, Phoenix, AZ 85013, USA",ChIJD769IPESK4cRPnuMtA1WdzM,500 CLARENDON AVE ,33.4916491,-112.080193,3,85013,OK,premise
ROOFTOP,"380 W Webster St, Ferndale, MI 48220, USA",ChIJSzzRkvHOJIgRMDX6e6LCNu4,380 WEBSTER ST ,42.448951,-83.1314345,2,48220,OK,premise
ROOFTOP,"1099 Hayes St, San Francisco, CA 94117, USA",ChIJTxd2bqWAhYARmqSXkgrwxgc,1099 HAYES ST ,37.7750892,-122.4340281,1,94117,OK,street_address
ROOFTOP,"2049 Grove St, San Francisco, CA 94117, USA",ChIJZQJask2HhYARxYa7STEuFCA,2049 GROVE ST ,37.7743138,-122.4503932,1,94117,OK,street_address
ROOFTOP,"2950 Mission St, San Francisco, CA 94110, USA",ChIJuY1DNUF-j4ARVlHZ6NKwD2w,2950  MISSION ST,37.7497232,-122.418455,3,94110,OK,premise
GEOMETRIC_CENTER,"443 Burnett Ave, San Francisco, CA 94131, USA",ChIJQRRohQh-j4AR143s_zB-UGY,443 BURNETT AVE ,37.7547589,-122.443362,1,94131,OK,premise
ROOFTOP,"1360 Oakdale Ave, San Francisco, CA 94124, USA",ChIJ1RI4aRF_j4AR9E0EOmZNyJE,1360 OAKDALE AVE ,37.7318315,-122.3853987,2,94124,OK,premise
ROOFTOP,"40 Vega St, New Britain, CT 06051, USA",ChIJoRSLyb2z54kRx0oB7Z7Wrus,40 VEGA ST ,41.6543415,-72.7733558,2,6051,OK,premise
ROOFTOP,"1430 Scott St, San Francisco, CA 94115, USA",ChIJg6i6C7eAhYAR5Kj9jVz7X5o,1430 SCOTT ST,37.7834716,-122.4369036,5,94115,OK,premise
ROOFTOP,"555 Portola Dr, San Francisco, CA 94131, USA",ChIJJx2qj-B9j4AR2zkIhccFNNY,555 PORTOLA DR ,37.7453141,-122.4485649,1,94131,OK,street_address
ROOFTOP,"325 Sanchez St, San Francisco, CA 94114, USA",ChIJI0le-ht-j4ARqhWEhZsKV1M,325 SANCHEZ ST ,37.7636944,-122.4305332,2,94114,OK,premise
ROOFTOP,"50 Pomona Ave, Fair Lawn, NJ 07410, USA",ChIJvaVTeI38wokR7gJk7xJzu9g,50 POMONA AVE ,40.9451867,-74.1447092,1,7410,OK,premise
ROOFTOP,"400 Mansell St, San Francisco, CA 94134, USA",ChIJdY8W6uB-j4AR9kxzFC5Qy_E,400 MANSELL ST ,37.7207837,-122.4061065,1,94134,OK,street_address
ROOFTOP,"325 La Grande Ave, San Francisco, CA 94112, USA",ChIJAayrOZN-j4ARR5OAWTTa_uU,325 LA GRANDE AVE ,37.7194482,-122.4252243,1,94112,OK,premise
ROOFTOP,"350 Girard St, San Francisco, CA 94134, USA",ChIJ_2nQPuN-j4ARw8f87pdzrA0,350 GIRARD ST ,37.7277513,-122.4053576,2,94134,OK,premise
ROOFTOP,"450 Raymond Ave, San Francisco, CA 94134, USA",ChIJjcfWysJ-j4ARfSMzPTgD_s0,450 RAYMOND AVE ,37.7157742,-122.4124078,3,94134,OK,street_address
ROOFTOP,"423 Burrows St, San Francisco, CA 94134, USA",ChIJRdKgqOR-j4ARvmy0n8ZUZII,423 BURROWS ST ,37.7275055,-122.4071276,1,94134,OK,premise
ROOFTOP,"1215 Carolina St, High Point, NC 27262, USA",ChIJKUg8wiEPU4gRCbGFbiGPOL8,1215 CAROLINA ST ,35.9780552,-79.9873902,5,27262,OK,premise
ROOFTOP,"350 Harbor Rd, Southport, CT 06890, USA",ChIJd6SF35wa6IkRtdUCtxrF4ck,350 HARBOR RD ,41.1358897,-73.2795173,2,6890,OK,street_address
ROOFTOP,"755 Morse St, San Jose, CA 95126, USA",ChIJmY_z_2zLj4ARGJAR9wYtqw0,755 MORSE ST ,37.336874,-121.9216886,2,95126,OK,premise
ROOFTOP,"55 Schwerin St, San Francisco, CA 94134, USA",ChIJ20USedt-j4ARMEj0o1GZhaI,55 SCHWERIN ST ,37.7125459,-122.4102251,1,94134,OK,premise
ROOFTOP,"55 Sherman St, Brooklyn, NY 11215, USA",ChIJA1bJ0hhbwokRifXBSLSRANw,55 SHERMAN ST ,40.6573213,-73.9771145,1,11215,OK,premise
ROOFTOP,"825 Shotwell St, San Francisco, CA 94110, USA",ChIJ2d6tZDh-j4ARZQqjJlPmK_8,825 SHOTWELL ST ,37.7549534,-122.4151875,2,94110,OK,street_address
ROOFTOP,"555 Tompkins Ave, Staten Island, NY 10305, USA",ChIJYUg9YqlPwokRFeSvmCWDAj0,555 TOMPKINS AVE ,40.6126191,-74.071045,2,10305,OK,street_address
ROOFTOP,"1035 Gilman Ave, San Francisco, CA 94124, USA",ChIJpZLUajt_j4AREJvNNc42k4g,1035 GILMAN AVE ,37.7183753,-122.3890251,2,94124,OK,street_address
ROOFTOP,"45 Conkling St, San Francisco, CA 94124, USA",ChIJPf8jIv5-j4AR7_ST_grUMq8,45 CONKLING ST ,37.7361399,-122.4018175,2,94124,OK,street_address
ROOFTOP,"70 Delta St, San Francisco, CA 94134, USA",ChIJha_uVed-j4ARsncuOgW4ajo,70 DELTA ST ,37.7185338,-122.4073489,1,94134,OK,premise
ROOFTOP,"3950 Sacramento St, San Francisco, CA 94118, USA",ChIJyX73eDCHhYARRrvFDHbMTdE,3950 SACRAMENTO ST ,37.7871537,-122.4579983,1,94118,OK,street_address
ROOFTOP,"235 12th Ave, Seaside, OR 97138, USA",ChIJBXNwL8ihlFQR7UGaVX0ea9k,235 12 AVE ,46.0014404,-123.9261244,1,97138,OK,premise
ROOFTOP,"2190 Powell St, San Francisco, CA 94133, USA",ChIJl_SB6vqAhYARtSmQuZq45nI,2190 POWELL ST ,37.8044606,-122.4113756,1,94133,OK,premise
ROOFTOP,"657 Merchant St, San Francisco, CA 94111, USA",ChIJuZE33oqAhYARCTuQboh3rEQ,657 MERCHANT ST ,37.7949069,-122.4040823,3,94111,OK,street_address
ROOFTOP,"840 Broadway, New York, NY 10003, USA",ChIJ9ZqbHplZwokRb62fXD-7NoY,840 BROADWAY ST ,40.7337424,-73.9906932,2,10003,OK,premise
ROOFTOP,"950 Clay St, Fleming Island, FL 32003, USA",ChIJVZMcLpba5YgRMP9bzWTRzMU,950 CLAY ST,30.0579011,-81.7052481,1,32003,OK,premise
ROOFTOP,"1451 Jackson St, San Francisco, CA 94109, USA",ChIJjVRshOuAhYAR_53kfAI6Ghc,1451 JACKSON ST ,37.7939134,-122.418809,4,94109,OK,premise
ROOFTOP,"2641 25th St, San Francisco, CA 94110, USA",ChIJvzvswUl-j4ARyxLxEflxL7M,2641 25TH ST ,37.7516281,-122.404906,1,94110,OK,"establishment,point_of_interest,school"
ROOFTOP,"2355 Folsom St, San Francisco, CA 94110, USA",ChIJX8qQJjp-j4ARkg2E68gz-F8,2355 FOLSOM ST ,37.7595332,-122.4146285,1,94110,OK,street_address
ROOFTOP,"824 Harrison St, Paris, IL 61944, USA",ChIJgSXDy-2XcogRhxdlhcQiURQ,824 HARRISON ST ,39.6127771,-87.7096053,1,61944,OK,street_address
ROOFTOP,"3750 18th St, San Francisco, CA 94114, USA",ChIJxyZbsRl-j4ARKxfvWqcKqCw,3750 18TH ST ,37.7617503,-122.4271709,2,94114,OK,premise
RANGE_INTERPOLATED,"455 Athens St, San Francisco, CA 94112, USA",Eis0NTUgQXRoZW5zIFN0LCBTYW4gRnJhbmNpc2NvLCBDQSA5NDExMiwgVVNBIhsSGQoUChIJFfgGEJJ-j4ARk-2I20aPj6cQxwM,455 ATHENS ST ,37.7203624,-122.4290614,3,94112,OK,street_address
ROOFTOP,"125 Excelsior Ave, San Francisco, CA 94112, USA",ChIJ59hiJol-j4AR6GiY7G3P1jM,125 EXCELSIOR AVE ,37.7259643,-122.4322586,1,94112,OK,premise
ROOFTOP,"693 Vermont St, San Francisco, CA 94107, USA",ChIJh5UK9DR-j4ARVx51nIQoHq0,693 VERMONT ST ,37.7614078,-122.4039416,2,94107,OK,premise
ROOFTOP,"950 Hollister Ave, San Francisco, CA 94124, USA",ChIJ1yPCSDt_j4ARP12jlVsvI2g,950 HOLLISTER AVE ,37.718359,-122.389494,1,94124,OK,street_address
ROOFTOP,"260 Madrid St, San Francisco, CA 94112, USA",ChIJNTPzrY5-j4ARHQK28b-355o,260 MADRID ST ,37.7255673,-122.4304005,1,94112,OK,premise
ROOFTOP,"250 23rd Ave, San Francisco, CA 94121, USA",ChIJlb2dFwWHhYARqPoanRIq3kQ,250 23RD AVE ,37.7832553,-122.4825466,2,94121,OK,premise
ROOFTOP,"420 Filbert St, Roselle Park, NJ 07204, USA",ChIJq_Si0GKyw4kRzB9r5DWvBlQ,420 FILBERT ST ,40.6658872,-74.2673814,2,7204,OK,premise
ROOFTOP,"1150 Francisco St, San Francisco, CA 94109, USA",ChIJ97LzV-eAhYARKfmmtmd9wSc,1150 FRANCISCO ST ,37.8034362,-122.424013,2,94109,OK,street_address
ROOFTOP,"2245 Jones St, San Francisco, CA 94133, USA",ChIJKXIvkOWAhYARpJo9bDGkHl0,2245 JONES ST ,37.8018701,-122.4163833,1,94133,OK,street_address
,,,251 06TH AVE ,,,0,,ZERO_RESULTS,
ROOFTOP,"3500 Fillmore St, Denver, CO 80205, USA",ChIJx5g8_Wh5bIcR850d98oOTmk,3500 FILLMORE ST ,39.7658751,-104.9533736,2,80205,OK,premise
ROOFTOP,"3630 Divisadero St, San Francisco, CA 94123, USA",ChIJqdKpcCqBhYARkhlBgn9VhVA,3630 DIVISADERO ST ,37.8033864,-122.4434063,2,94123,OK,premise
ROOFTOP,"1651 Union St W, Jacksonville, FL 32209, USA",ChIJC059cly35YgRGJgCY5HTJ_M,1651 UNION ST ,30.3373631,-81.6841467,1,32209,OK,premise
ROOFTOP,"680 18th Ave, San Francisco, CA 94121, USA",ChIJibuUEhOHhYARQJEaY6aWxyc,680 18TH AVE ,37.7752438,-122.476562,1,94121,OK,premise
ROOFTOP,"3250 18th St N, St. Petersburg, FL 33713, USA",ChIJgYyu3OfjwogRVY0A1gmypRM,3250 18TH ST ,27.8019331,-82.6585136,5,33713,OK,premise
ROOFTOP,"350 Masonic Ave, San Francisco, CA 94118, USA",ChIJ7-puVrOAhYARCa14qOkNjqE,350 MASONIC ST ,37.7780111,-122.4460603,1,94118,OK,premise
ROOFTOP,"175 Phelan Ave, San Francisco, CA 94112, USA",ChIJoXMe79N9j4ARj1zvkG2WqQs,175 PHELAN  ,37.728225,-122.4533586,1,94112,OK,premise
ROOFTOP,"300 Gaven St, San Francisco, CA 94134, USA",ChIJXZllwvl-j4ARY41i4vetKmQ,300 GAVEN ST ,37.7327965,-122.4117295,1,94134,OK,premise
ROOFTOP,"801 Silver Ave, Essex, MD 21221, USA",ChIJfWf1t3kHyIkRhMXlwAUQroA,801 SILVER AVE ,39.308146,-76.466346,6,21221,OK,street_address
ROOFTOP,"2550 41st Ave, San Francisco, CA 94116, USA",ChIJrUgQPnp9j4ARfH1halu5rd0,2550 41ST AVE ,37.73924,-122.4988175,1,94116,OK,premise
ROOFTOP,"2120 Broadway, Denver, CO 80210, USA",ChIJfS4wZLV_bIcRcyIGLwjIGKs,2120 BROADWAY ST ,39.6780645,-104.9874912,10,80210,OK,street_address
ROOFTOP,"666 Filbert St, San Francisco, CA 94133, USA",ChIJ-_EsV_CAhYARB9TeAZmfFNc,666 FILBERT ST ,37.8016649,-122.4101808,1,94133,OK,premise
ROOFTOP,"659 Pine St, Lewisville, TX 75057, USA",ChIJZQezdgAyTIYRZwQk_LE7feg,659 PINE ST ,33.0623589,-97.0085712,1,75057,OK,premise
ROOFTOP,"755 Ocean Ave, Brooklyn, NY 11226, USA",ChIJ8zutCjhbwokRKwIWNZveRCo,755 OCEAN AVE ,40.6442756,-73.9594644,1,11226,OK,premise
ROOFTOP,"50 Thomas More Way, San Francisco, CA 94132, USA",ChIJr3463kt8j4ARWzqHNT74lc4,50 THOMAS MORE WAY ,37.7125552,-122.4733429,1,94132,OK,street_address
ROOFTOP,"3625 24th St, San Francisco, CA 94110, USA",ChIJ7UhlBkB-j4ARlQLcZrw6A0M,3625 24TH ST ,37.7517472,-122.4234988,1,94110,OK,premise
ROOFTOP,"1266 Florida St, San Francisco, CA 94110, USA",ChIJv-C_2Uh-j4ARJISn61lwxhc,1266 FLORIDA ST ,37.7516521,-122.410108,1,94110,OK,street_address
ROOFTOP,"25 Whittier St, Bridgeport, CT 06605, USA",ChIJYzK9NS4O6IkRXWh2ZKSasMA,25 WHITTIER ST ,41.1640451,-73.2207138,1,6605,OK,premise
ROOFTOP,"3801 Balboa St, San Francisco, CA 94121, USA",ChIJI7WmkKWHhYARmCo9S_K3QXU,3801 BALBOA ST ,37.7752669,-122.4996677,1,94121,OK,street_address
ROOFTOP,"925 Chenery St, San Francisco, CA 94131, USA",ChIJacIyBHt-j4AR_JSOnZBk2ZU,925 CHENERY ST ,37.7350469,-122.4379653,1,94131,OK,premise
ROOFTOP,"1320 E 14th Ave, Denver, CO 80218, USA",ChIJSTj1_cx-bIcRYhC5fx2iSvA,1320 14TH AVE ,39.738179,-104.971006,2,80218,OK,street_address
ROOFTOP,"2356 Green St SE, Washington, DC 20020, USA",ChIJr-i6zr25t4kRKKCWUO1gfoA,2356 GREEN ST ,38.8611121,-76.9805751,1,20020,OK,premise
RANGE_INTERPOLATED,"2521 Scott St, Houston, TX 77004, USA",EiUyNTIxIFNjb3R0IFN0LCBIb3VzdG9uLCBUWCA3NzAwNCwgVVNBIhsSGQoUChIJbzDKnv6-QIYRVNwIyvh5XGIQ2RM,2521 SCOTT ST ,29.7326739,-95.3482194,1,77004,OK,street_address
ROOFTOP,"334 E 28th Ave, North Kansas City, MO 64116, USA",ChIJgVC6H033wIcR39EXuInNSxE,334 28TH AVE ,39.1494013,-94.5752304,2,64116,OK,street_address
ROOFTOP,"2001 37th Ave, San Francisco, CA 94116, USA",ChIJk5N6I359j4AR4fWWSQJ-1og,2001 37TH AVE ,37.7488891,-122.4956993,1,94116,OK,street_address
ROOFTOP,"845 Jackson St, San Francisco, CA 94133, USA",ChIJy4lQPfOAhYARssO0tp6q8WU,845 JACKSON ST,37.7955406,-122.4091299,1,94133,OK,premise
ROOFTOP,"2750 Geary Blvd, San Francisco, CA 94118, USA",ChIJOQJRZTWHhYAR8WD8QeO-eLg,2750 GEARY BLVD ,37.7825529,-122.4487194,1,94118,OK,premise
ROOFTOP,"3400 Laguna St, San Francisco, CA 94123, USA",ChIJE-KtQdmAhYARVpNDc16SG-k,3400 LAGUNA ST ,37.8030319,-122.4310199,1,94123,OK,street_address
ROOFTOP,"45 Castro St, San Francisco, CA 94114, USA",ChIJpXhzdqiAhYARuJmADRUwnFM,045 CASTRO ST ,37.768847,-122.4354438,2,94114,OK,premise
ROOFTOP,"6221 Geary Blvd, San Francisco, CA 94121, USA",ChIJ7cPJrAiHhYARwKnaV9CRS1s,6221 GEARY BLVD ,37.779676,-122.4863517,1,94121,OK,premise
,,,1290 05TH AVE ,,,0,,ZERO_RESULTS,
ROOFTOP,"50 Broad St, New York, NY 10004, USA",ChIJtRszsRZawokRyOz8DqktO-g,50 BROAD ST ,40.7056608,-74.0119031,1,10004,OK,premise
ROOFTOP,"301 Ellis St, San Francisco, CA 94102, USA",ChIJAdb28o-AhYARqgeWJl_HJXQ,301 ELLIS ST,37.7848577,-122.411464,1,94102,OK,premise
ROOFTOP,"890 Beach St, San Francisco, CA 94109, USA",ChIJSc6oh-CAhYARsx30RGdN1oA,890 BEACH ST ,37.8064481,-122.4235229,2,94109,OK,street_address
ROOFTOP,"481 O'Farrell St, San Francisco, CA 94102, USA",ChIJfW6O1o-AhYARFBMwzSOEIck,481 O'FARRELL ST ,37.7857624,-122.4124762,1,94102,OK,street_address
ROOFTOP,"350 Golden Gate Ave, San Francisco, CA 94102, USA",ChIJJTsAb5qAhYARkZUjQA6nQ-k,350 GOLDEN GATE AVE,37.7818451,-122.4164197,1,94102,OK,premise
ROOFTOP,"333 Turk St, San Francisco, CA 94102, USA",ChIJIcBTl5qAhYARqJxDegJE7AM,333 TURK ST,37.7825816,-122.4144424,1,94102,OK,street_address
ROOFTOP,"4080 Mission St, San Francisco, CA 94112, USA",ChIJ_1HOwGF-j4AR3rIMmT4emZ4,4080 MISSION ST ,37.7325118,-122.427923,1,94112,OK,premise
ROOFTOP,"300 Anza St, San Francisco, CA 94118, USA",ChIJXcdBZEqHhYARMNxQs79TRso,300 ANZA ST ,37.7809318,-122.4500244,2,94118,OK,premise
ROOFTOP,"5757 Geary Blvd, San Francisco, CA 94121, USA",ChIJvZf02g-HhYARIss_x0N25qA,5757 GEARY BLVD ,37.7800217,-122.4813212,1,94121,OK,street_address
ROOFTOP,"777 Stockton St 1ST  FLOOR, San Francisco, CA 94108, USA",EjkxU1QgIEZMT09SLCA3NzcgU3RvY2t0b24gU3QsIFNhbiBGcmFuY2lzY28sIENBIDk0MTA4LCBVU0EiJhokChYKFAoSCTW1uI-MgIWAEReYmbIqt-zAEgoxU1QgIEZMT09S,"777 STOCKTON ST, 1ST  FLOOR",37.7928215,-122.4078356,1,94108,OK,subpremise
ROOFTOP,"3150 20th Ave, San Francisco, CA 94132, USA",ChIJ_Xfv-rt9j4ARwZmXUAwEfg4,3150 20TH AVE ,37.7303531,-122.4755057,1,94132,OK,street_address